{
  "type": "FeatureCollection",
  "name": "facilities",
  "crs": {
    "type": "name",
    "properties": {
      "name": "urn:ogc:def:crs:OGC:1.3:CRS84"
    }
  },
  "features": [
    {
      "type": "Feature",
      "properties": {
        "facility_id": "F001",
        "facility_type": "community_health",
        "capacity": 763
      },
      "geometry": {
        "type": "Point",
        "coordinates": [
          118.829081,
          32.08982
        ]
      }
    },
    {
      "type": "Feature",
      "properties": {
        "facility_id": "F002",
        "facility_type": "elderly_service",
        "capacity": 594
      },
      "geometry": {
        "type": "Point",
        "coordinates": [
          118.913089,
          32.094808
        ]
      }
    },
    {
      "type": "Feature",
      "properties": {
        "facility_id": "F003",
        "facility_type": "metro_station",
        "capacity": 881
      },
      "geometry": {
        "type": "Point",
        "coordinates": [
          118.913865,
          32.06361
        ]
      }
    },
    {
      "type": "Feature",
      "properties": {
        "facility_id": "F004",
        "facility_type": "park_entrance",
        "capacity": 551
      },
      "geometry": {
        "type": "Point",
        "coordinates": [
          118.748736,
          32.005387
        ]
      }
    },
    {
      "type": "Feature",
      "properties": {
        "facility_id": "F005",
        "facility_type": "community_health",
        "capacity": 154
      },
      "geometry": {
        "type": "Point",
        "coordinates": [
          118.750561,
          32.044148
        ]
      }
    },
    {
      "type": "Feature",
      "properties": {
        "facility_id": "F006",
        "facility_type": "elderly_service",
        "capacity": 880
      },
      "geometry": {
        "type": "Point",
        "coordinates": [
          118.707783,
          32.054621
        ]
      }
    },
    {
      "type": "Feature",
      "properties": {
        "facility_id": "F007",
        "facility_type": "metro_station",
        "capacity": 587
      },
      "geometry": {
        "type": "Point",
        "coordinates": [
          118.816414,
          32.114006
        ]
      }
    },
    {
      "type": "Feature",
      "properties": {
        "facility_id": "F008",
        "facility_type": "park_entrance",
        "capacity": 337
      },
      "geometry": {
        "type": "Point",
        "coordinates": [
          118.751718,
          32.050048
        ]
      }
    },
    {
      "type": "Feature",
      "properties": {
        "facility_id": "F009",
        "facility_type": "community_health",
        "capacity": 800
      },
      "geometry": {
        "type": "Point",
        "coordinates": [
          118.894756,
          32.054039
        ]
      }
    },
    {
      "type": "Feature",
      "properties": {
        "facility_id": "F010",
        "facility_type": "elderly_service",
        "capacity": 728
      },
      "geometry": {
        "type": "Point",
        "coordinates": [
          118.910586,
          32.10413
        ]
      }
    },
    {
      "type": "Feature",
      "properties": {
        "facility_id": "F011",
        "facility_type": "metro_station",
        "capacity": 254
      },
      "geometry": {
        "type": "Point",
        "coordinates": [
          118.728007,
          32.111093
        ]
      }
    },
    {
      "type": "Feature",
      "properties": {
        "facility_id": "F012",
        "facility_type": "park_entrance",
        "capacity": 428
      },
      "geometry": {
        "type": "Point",
        "coordinates": [
          118.815567,
          32.092508
        ]
      }
    },
    {
      "type": "Feature",
      "properties": {
        "facility_id": "F013",
        "facility_type": "community_health",
        "capacity": 620
      },
      "geometry": {
        "type": "Point",
        "coordinates": [
          118.793728,
          32.069574
        ]
      }
    },
    {
      "type": "Feature",
      "properties": {
        "facility_id": "F014",
        "facility_type": "elderly_service",
        "capacity": 363
      },
      "geometry": {
        "type": "Point",
        "coordinates": [
          118.710396,
          32.045757
        ]
      }
    },
    {
      "type": "Feature",
      "properties": {
        "facility_id": "F015",
        "facility_type": "metro_station",
        "capacity": 826
      },
      "geometry": {
        "type": "Point",
        "coordinates": [
          118.755593,
          32.111043
        ]
      }
    },
    {
      "type": "Feature",
      "properties": {
        "facility_id": "F016",
        "facility_type": "park_entrance",
        "capacity": 207
      },
      "geometry": {
        "type": "Point",
        "coordinates": [
          118.890449,
          32.096626
        ]
      }
    },
    {
      "type": "Feature",
      "properties": {
        "facility_id": "F017",
        "facility_type": "community_health",
        "capacity": 513
      },
      "geometry": {
        "type": "Point",
        "coordinates": [
          118.834029,
          32.047608
        ]
      }
    },
    {
      "type": "Feature",
      "properties": {
        "facility_id": "F018",
        "facility_type": "elderly_service",
        "capacity": 142
      },
      "geometry": {
        "type": "Point",
        "coordinates": [
          118.715771,
          32.035899
        ]
      }
    },
    {
      "type": "Feature",
      "properties": {
        "facility_id": "F019",
        "facility_type": "metro_station",
        "capacity": 715
      },
      "geometry": {
        "type": "Point",
        "coordinates": [
          118.724399,
          32.094884
        ]
      }
    },
    {
      "type": "Feature",
      "properties": {
        "facility_id": "F020",
        "facility_type": "park_entrance",
        "capacity": 126
      },
      "geometry": {
        "type": "Point",
        "coordinates": [
          118.733686,
          32.09298
        ]
      }
    },
    {
      "type": "Feature",
      "properties": {
        "facility_id": "F021",
        "facility_type": "community_health",
        "capacity": 135
      },
      "geometry": {
        "type": "Point",
        "coordinates": [
          118.807749,
          32.051099
        ]
      }
    },
    {
      "type": "Feature",
      "properties": {
        "facility_id": "F022",
        "facility_type": "elderly_service",
        "capacity": 130
      },
      "geometry": {
        "type": "Point",
        "coordinates": [
          118.855581,
          32.035616
        ]
      }
    },
    {
      "type": "Feature",
      "properties": {
        "facility_id": "F023",
        "facility_type": "metro_station",
        "capacity": 724
      },
      "geometry": {
        "type": "Point",
        "coordinates": [
          118.756076,
          32.011337
        ]
      }
    },
    {
      "type": "Feature",
      "properties": {
        "facility_id": "F024",
        "facility_type": "park_entrance",
        "capacity": 860
      },
      "geometry": {
        "type": "Point",
        "coordinates": [
          118.715124,
          32.028612
        ]
      }
    },
    {
      "type": "Feature",
      "properties": {
        "facility_id": "F025",
        "facility_type": "community_health",
        "capacity": 871
      },
      "geometry": {
        "type": "Point",
        "coordinates": [
          118.714051,
          32.050106
        ]
      }
    },
    {
      "type": "Feature",
      "properties": {
        "facility_id": "F026",
        "facility_type": "elderly_service",
        "capacity": 469
      },
      "geometry": {
        "type": "Point",
        "coordinates": [
          118.748101,
          32.036145
        ]
      }
    },
    {
      "type": "Feature",
      "properties": {
        "facility_id": "F027",
        "facility_type": "metro_station",
        "capacity": 391
      },
      "geometry": {
        "type": "Point",
        "coordinates": [
          118.791245,
          32.108958
        ]
      }
    },
    {
      "type": "Feature",
      "properties": {
        "facility_id": "F028",
        "facility_type": "park_entrance",
        "capacity": 184
      },
      "geometry": {
        "type": "Point",
        "coordinates": [
          118.891747,
          32.052765
        ]
      }
    },
    {
      "type": "Feature",
      "properties": {
        "facility_id": "F029",
        "facility_type": "community_health",
        "capacity": 878
      },
      "geometry": {
        "type": "Point",
        "coordinates": [
          118.874018,
          32.036276
        ]
      }
    },
    {
      "type": "Feature",
      "properties": {
        "facility_id": "F030",
        "facility_type": "elderly_service",
        "capacity": 396
      },
      "geometry": {
        "type": "Point",
        "coordinates": [
          118.686725,
          32.00984
        ]
      }
    },
    {
      "type": "Feature",
      "properties": {
        "facility_id": "F031",
        "facility_type": "metro_station",
        "capacity": 637
      },
      "geometry": {
        "type": "Point",
        "coordinates": [
          118.75688,
          32.103466
        ]
      }
    },
    {
      "type": "Feature",
      "properties": {
        "facility_id": "F032",
        "facility_type": "park_entrance",
        "capacity": 287
      },
      "geometry": {
        "type": "Point",
        "coordinates": [
          118.783374,
          32.04953
        ]
      }
    },
    {
      "type": "Feature",
      "properties": {
        "facility_id": "F033",
        "facility_type": "community_health",
        "capacity": 591
      },
      "geometry": {
        "type": "Point",
        "coordinates": [
          118.884564,
          32.083667
        ]
      }
    },
    {
      "type": "Feature",
      "properties": {
        "facility_id": "F034",
        "facility_type": "elderly_service",
        "capacity": 541
      },
      "geometry": {
        "type": "Point",
        "coordinates": [
          118.756362,
          31.988799
        ]
      }
    },
    {
      "type": "Feature",
      "properties": {
        "facility_id": "F035",
        "facility_type": "metro_station",
        "capacity": 132
      },
      "geometry": {
        "type": "Point",
        "coordinates": [
          118.866137,
          31.986081
        ]
      }
    },
    {
      "type": "Feature",
      "properties": {
        "facility_id": "F036",
        "facility_type": "park_entrance",
        "capacity": 699
      },
      "geometry": {
        "type": "Point",
        "coordinates": [
          118.755803,
          32.014469
        ]
      }
    }
  ]
}