{"type":"FeatureCollection","name":"shanghai_analysis_grid","crs":{"type":"name","properties":{"name":"urn:ogc:def:crs:OGC:1.3:CRS84"}},"features":[{"type":"Feature","properties":{"cell_id":"shanghai_01_01","city_id":"shanghai","city_name_zh":"上海","row":1,"column":1,"area_km2":0.4955,"center_lon":121.44745,"center_lat":31.252275,"distance_to_center_km":3.485,"facility_count":3,"transit_count":3,"healthcare_count":0,"education_count":0,"park_count":0,"service_diversity":1,"facility_density_km2":6.0548,"road_segment_count":203,"road_length_m":7334.03,"road_density_km_km2":14.802,"intersection_count":27,"elevation_m":5,"terrain_relief_m":10,"source_note":"OSM道路与设施聚合；SRTM高程采样；均为教学裁剪","accessibility_proxy":0.3377,"osm_intensity_class":"较低","core_zone":"外圈"},"geometry":{"type":"Polygon","coordinates":[[[121.4437,31.24915],[121.4512,31.24915],[121.4512,31.2554],[121.4437,31.2554],[121.4437,31.24915]]]}},{"type":"Feature","properties":{"cell_id":"shanghai_01_02","city_id":"shanghai","city_name_zh":"上海","row":1,"column":2,"area_km2":0.4955,"center_lon":121.45495,"center_lat":31.252275,"distance_to_center_km":3.016,"facility_count":7,"transit_count":7,"healthcare_count":0,"education_count":0,"park_count":0,"service_diversity":1,"facility_density_km2":14.1278,"road_segment_count":219,"road_length_m":7231.14,"road_density_km_km2":14.5943,"intersection_count":22,"elevation_m":12,"terrain_relief_m":10,"source_note":"OSM道路与设施聚合；SRTM高程采样；均为教学裁剪","accessibility_proxy":0.4324,"osm_intensity_class":"较高","core_zone":"外圈"},"geometry":{"type":"Polygon","coordinates":[[[121.4512,31.24915],[121.4587,31.24915],[121.4587,31.2554],[121.4512,31.2554],[121.4512,31.24915]]]}},{"type":"Feature","properties":{"cell_id":"shanghai_01_03","city_id":"shanghai","city_name_zh":"上海","row":1,"column":3,"area_km2":0.4955,"center_lon":121.46245,"center_lat":31.252275,"distance_to_center_km":2.657,"facility_count":4,"transit_count":4,"healthcare_count":0,"education_count":0,"park_count":0,"service_diversity":1,"facility_density_km2":8.073,"road_segment_count":178,"road_length_m":8111.16,"road_density_km_km2":16.3704,"intersection_count":31,"elevation_m":12,"terrain_relief_m":8,"source_note":"OSM道路与设施聚合；SRTM高程采样；均为教学裁剪","accessibility_proxy":0.4044,"osm_intensity_class":"较低","core_zone":"内圈"},"geometry":{"type":"Polygon","coordinates":[[[121.4587,31.24915],[121.4662,31.24915],[121.4662,31.2554],[121.4587,31.2554],[121.4587,31.24915]]]}},{"type":"Feature","properties":{"cell_id":"shanghai_01_04","city_id":"shanghai","city_name_zh":"上海","row":1,"column":4,"area_km2":0.4955,"center_lon":121.46995,"center_lat":31.252275,"distance_to_center_km":2.458,"facility_count":3,"transit_count":3,"healthcare_count":0,"education_count":0,"park_count":0,"service_diversity":1,"facility_density_km2":6.0548,"road_segment_count":157,"road_length_m":5293.72,"road_density_km_km2":10.6841,"intersection_count":16,"elevation_m":7,"terrain_relief_m":2,"source_note":"OSM道路与设施聚合；SRTM高程采样；均为教学裁剪","accessibility_proxy":0.315,"osm_intensity_class":"较低","core_zone":"内圈"},"geometry":{"type":"Polygon","coordinates":[[[121.4662,31.24915],[121.4737,31.24915],[121.4737,31.2554],[121.4662,31.2554],[121.4662,31.24915]]]}},{"type":"Feature","properties":{"cell_id":"shanghai_01_05","city_id":"shanghai","city_name_zh":"上海","row":1,"column":5,"area_km2":0.4955,"center_lon":121.47745,"center_lat":31.252275,"distance_to_center_km":2.458,"facility_count":5,"transit_count":5,"healthcare_count":0,"education_count":0,"park_count":0,"service_diversity":1,"facility_density_km2":10.0913,"road_segment_count":376,"road_length_m":8457.56,"road_density_km_km2":17.0695,"intersection_count":73,"elevation_m":6,"terrain_relief_m":2,"source_note":"OSM道路与设施聚合；SRTM高程采样；均为教学裁剪","accessibility_proxy":0.4418,"osm_intensity_class":"较高","core_zone":"内圈"},"geometry":{"type":"Polygon","coordinates":[[[121.4737,31.24915],[121.4812,31.24915],[121.4812,31.2554],[121.4737,31.2554],[121.4737,31.24915]]]}},{"type":"Feature","properties":{"cell_id":"shanghai_01_06","city_id":"shanghai","city_name_zh":"上海","row":1,"column":6,"area_km2":0.4955,"center_lon":121.48495,"center_lat":31.252275,"distance_to_center_km":2.657,"facility_count":2,"transit_count":0,"healthcare_count":0,"education_count":2,"park_count":0,"service_diversity":1,"facility_density_km2":4.0365,"road_segment_count":350,"road_length_m":9742.42,"road_density_km_km2":19.6627,"intersection_count":43,"elevation_m":25,"terrain_relief_m":18,"source_note":"OSM道路与设施聚合；SRTM高程采样；均为教学裁剪","accessibility_proxy":0.406,"osm_intensity_class":"较高","core_zone":"内圈"},"geometry":{"type":"Polygon","coordinates":[[[121.4812,31.24915],[121.4887,31.24915],[121.4887,31.2554],[121.4812,31.2554],[121.4812,31.24915]]]}},{"type":"Feature","properties":{"cell_id":"shanghai_01_07","city_id":"shanghai","city_name_zh":"上海","row":1,"column":7,"area_km2":0.4955,"center_lon":121.49245,"center_lat":31.252275,"distance_to_center_km":3.016,"facility_count":5,"transit_count":5,"healthcare_count":0,"education_count":0,"park_count":0,"service_diversity":1,"facility_density_km2":10.0913,"road_segment_count":354,"road_length_m":9640.26,"road_density_km_km2":19.4565,"intersection_count":48,"elevation_m":10,"terrain_relief_m":5,"source_note":"OSM道路与设施聚合；SRTM高程采样；均为教学裁剪","accessibility_proxy":0.4548,"osm_intensity_class":"较高","core_zone":"外圈"},"geometry":{"type":"Polygon","coordinates":[[[121.4887,31.24915],[121.4962,31.24915],[121.4962,31.2554],[121.4887,31.2554],[121.4887,31.24915]]]}},{"type":"Feature","properties":{"cell_id":"shanghai_01_08","city_id":"shanghai","city_name_zh":"上海","row":1,"column":8,"area_km2":0.4955,"center_lon":121.49995,"center_lat":31.252275,"distance_to_center_km":3.485,"facility_count":2,"transit_count":2,"healthcare_count":0,"education_count":0,"park_count":0,"service_diversity":1,"facility_density_km2":4.0365,"road_segment_count":105,"road_length_m":4728.49,"road_density_km_km2":9.5433,"intersection_count":16,"elevation_m":13,"terrain_relief_m":9,"source_note":"OSM道路与设施聚合；SRTM高程采样；均为教学裁剪","accessibility_proxy":0.2469,"osm_intensity_class":"低","core_zone":"外圈"},"geometry":{"type":"Polygon","coordinates":[[[121.4962,31.24915],[121.5037,31.24915],[121.5037,31.2554],[121.4962,31.2554],[121.4962,31.24915]]]}},{"type":"Feature","properties":{"cell_id":"shanghai_02_01","city_id":"shanghai","city_name_zh":"上海","row":2,"column":1,"area_km2":0.4955,"center_lon":121.44745,"center_lat":31.246025,"distance_to_center_km":3.041,"facility_count":1,"transit_count":1,"healthcare_count":0,"education_count":0,"park_count":0,"service_diversity":1,"facility_density_km2":2.0181,"road_segment_count":184,"road_length_m":8290.41,"road_density_km_km2":16.7311,"intersection_count":40,"elevation_m":11,"terrain_relief_m":8,"source_note":"OSM道路与设施聚合；SRTM高程采样；均为教学裁剪","accessibility_proxy":0.3336,"osm_intensity_class":"较低","core_zone":"外圈"},"geometry":{"type":"Polygon","coordinates":[[[121.4437,31.2429],[121.4512,31.2429],[121.4512,31.24915],[121.4437,31.24915],[121.4437,31.2429]]]}},{"type":"Feature","properties":{"cell_id":"shanghai_02_02","city_id":"shanghai","city_name_zh":"上海","row":2,"column":2,"area_km2":0.4955,"center_lon":121.45495,"center_lat":31.246025,"distance_to_center_km":2.489,"facility_count":6,"transit_count":6,"healthcare_count":0,"education_count":0,"park_count":0,"service_diversity":1,"facility_density_km2":12.1087,"road_segment_count":350,"road_length_m":9925.2,"road_density_km_km2":20.0303,"intersection_count":48,"elevation_m":7,"terrain_relief_m":10,"source_note":"OSM道路与设施聚合；SRTM高程采样；均为教学裁剪","accessibility_proxy":0.501,"osm_intensity_class":"高","core_zone":"内圈"},"geometry":{"type":"Polygon","coordinates":[[[121.4512,31.2429],[121.4587,31.2429],[121.4587,31.24915],[121.4512,31.24915],[121.4512,31.2429]]]}},{"type":"Feature","properties":{"cell_id":"shanghai_02_03","city_id":"shanghai","city_name_zh":"上海","row":2,"column":3,"area_km2":0.4955,"center_lon":121.46245,"center_lat":31.246025,"distance_to_center_km":2.04,"facility_count":0,"transit_count":0,"healthcare_count":0,"education_count":0,"park_count":0,"service_diversity":0,"facility_density_km2":0.0,"road_segment_count":302,"road_length_m":7647.61,"road_density_km_km2":15.4338,"intersection_count":39,"elevation_m":14,"terrain_relief_m":17,"source_note":"OSM道路与设施聚合；SRTM高程采样；均为教学裁剪","accessibility_proxy":0.3313,"osm_intensity_class":"较低","core_zone":"内圈"},"geometry":{"type":"Polygon","coordinates":[[[121.4587,31.2429],[121.4662,31.2429],[121.4662,31.24915],[121.4587,31.24915],[121.4587,31.2429]]]}},{"type":"Feature","properties":{"cell_id":"shanghai_02_04","city_id":"shanghai","city_name_zh":"上海","row":2,"column":4,"area_km2":0.4955,"center_lon":121.46995,"center_lat":31.246025,"distance_to_center_km":1.774,"facility_count":7,"transit_count":7,"healthcare_count":0,"education_count":0,"park_count":0,"service_diversity":1,"facility_density_km2":14.1269,"road_segment_count":280,"road_length_m":8174.73,"road_density_km_km2":16.4976,"intersection_count":38,"elevation_m":14,"terrain_relief_m":15,"source_note":"OSM道路与设施聚合；SRTM高程采样；均为教学裁剪","accessibility_proxy":0.5046,"osm_intensity_class":"高","core_zone":"内圈"},"geometry":{"type":"Polygon","coordinates":[[[121.4662,31.2429],[121.4737,31.2429],[121.4737,31.24915],[121.4662,31.24915],[121.4662,31.2429]]]}},{"type":"Feature","properties":{"cell_id":"shanghai_02_05","city_id":"shanghai","city_name_zh":"上海","row":2,"column":5,"area_km2":0.4955,"center_lon":121.47745,"center_lat":31.246025,"distance_to_center_km":1.774,"facility_count":10,"transit_count":9,"healthcare_count":0,"education_count":1,"park_count":0,"service_diversity":2,"facility_density_km2":20.1812,"road_segment_count":307,"road_length_m":8286.08,"road_density_km_km2":16.7223,"intersection_count":35,"elevation_m":6,"terrain_relief_m":8,"source_note":"OSM道路与设施聚合；SRTM高程采样；均为教学裁剪","accessibility_proxy":0.5707,"osm_intensity_class":"高","core_zone":"内圈"},"geometry":{"type":"Polygon","coordinates":[[[121.4737,31.2429],[121.4812,31.2429],[121.4812,31.24915],[121.4737,31.24915],[121.4737,31.2429]]]}},{"type":"Feature","properties":{"cell_id":"shanghai_02_06","city_id":"shanghai","city_name_zh":"上海","row":2,"column":6,"area_km2":0.4955,"center_lon":121.48495,"center_lat":31.246025,"distance_to_center_km":2.04,"facility_count":2,"transit_count":0,"healthcare_count":0,"education_count":2,"park_count":0,"service_diversity":1,"facility_density_km2":4.0362,"road_segment_count":435,"road_length_m":9433.97,"road_density_km_km2":19.0389,"intersection_count":40,"elevation_m":9,"terrain_relief_m":12,"source_note":"OSM道路与设施聚合；SRTM高程采样；均为教学裁剪","accessibility_proxy":0.4212,"osm_intensity_class":"较高","core_zone":"内圈"},"geometry":{"type":"Polygon","coordinates":[[[121.4812,31.2429],[121.4887,31.2429],[121.4887,31.24915],[121.4812,31.24915],[121.4812,31.2429]]]}},{"type":"Feature","properties":{"cell_id":"shanghai_02_07","city_id":"shanghai","city_name_zh":"上海","row":2,"column":7,"area_km2":0.4955,"center_lon":121.49245,"center_lat":31.246025,"distance_to_center_km":2.489,"facility_count":0,"transit_count":0,"healthcare_count":0,"education_count":0,"park_count":0,"service_diversity":0,"facility_density_km2":0.0,"road_segment_count":85,"road_length_m":2262.99,"road_density_km_km2":4.567,"intersection_count":6,"elevation_m":2,"terrain_relief_m":10,"source_note":"OSM道路与设施聚合；SRTM高程采样；均为教学裁剪","accessibility_proxy":0.1696,"osm_intensity_class":"低","core_zone":"内圈"},"geometry":{"type":"Polygon","coordinates":[[[121.4887,31.2429],[121.4962,31.2429],[121.4962,31.24915],[121.4887,31.24915],[121.4887,31.2429]]]}},{"type":"Feature","properties":{"cell_id":"shanghai_02_08","city_id":"shanghai","city_name_zh":"上海","row":2,"column":8,"area_km2":0.4955,"center_lon":121.49995,"center_lat":31.246025,"distance_to_center_km":3.041,"facility_count":0,"transit_count":0,"healthcare_count":0,"education_count":0,"park_count":0,"service_diversity":0,"facility_density_km2":0.0,"road_segment_count":170,"road_length_m":6370.64,"road_density_km_km2":12.8567,"intersection_count":8,"elevation_m":-2,"terrain_relief_m":14,"source_note":"OSM道路与设施聚合；SRTM高程采样；均为教学裁剪","accessibility_proxy":0.2612,"osm_intensity_class":"低","core_zone":"外圈"},"geometry":{"type":"Polygon","coordinates":[[[121.4962,31.2429],[121.5037,31.2429],[121.5037,31.24915],[121.4962,31.24915],[121.4962,31.2429]]]}},{"type":"Feature","properties":{"cell_id":"shanghai_03_01","city_id":"shanghai","city_name_zh":"上海","row":3,"column":1,"area_km2":0.4955,"center_lon":121.44745,"center_lat":31.239775,"distance_to_center_km":2.705,"facility_count":1,"transit_count":0,"healthcare_count":0,"education_count":1,"park_count":0,"service_diversity":1,"facility_density_km2":2.018,"road_segment_count":137,"road_length_m":6492.82,"road_density_km_km2":13.1025,"intersection_count":22,"elevation_m":1,"terrain_relief_m":17,"source_note":"OSM道路与设施聚合；SRTM高程采样；均为教学裁剪","accessibility_proxy":0.2963,"osm_intensity_class":"低","core_zone":"内圈"},"geometry":{"type":"Polygon","coordinates":[[[121.4437,31.23665],[121.4512,31.23665],[121.4512,31.2429],[121.4437,31.2429],[121.4437,31.23665]]]}},{"type":"Feature","properties":{"cell_id":"shanghai_03_02","city_id":"shanghai","city_name_zh":"上海","row":3,"column":2,"area_km2":0.4955,"center_lon":121.45495,"center_lat":31.239775,"distance_to_center_km":2.065,"facility_count":12,"transit_count":12,"healthcare_count":0,"education_count":0,"park_count":0,"service_diversity":1,"facility_density_km2":24.2159,"road_segment_count":268,"road_length_m":9081.76,"road_density_km_km2":18.3269,"intersection_count":42,"elevation_m":10,"terrain_relief_m":11,"source_note":"OSM道路与设施聚合；SRTM高程采样；均为教学裁剪","accessibility_proxy":0.6213,"osm_intensity_class":"高","core_zone":"内圈"},"geometry":{"type":"Polygon","coordinates":[[[121.4512,31.23665],[121.4587,31.23665],[121.4587,31.2429],[121.4512,31.2429],[121.4512,31.23665]]]}},{"type":"Feature","properties":{"cell_id":"shanghai_03_03","city_id":"shanghai","city_name_zh":"上海","row":3,"column":3,"area_km2":0.4955,"center_lon":121.46245,"center_lat":31.239775,"distance_to_center_km":1.494,"facility_count":4,"transit_count":4,"healthcare_count":0,"education_count":0,"park_count":0,"service_diversity":1,"facility_density_km2":8.072,"road_segment_count":245,"road_length_m":8706.47,"road_density_km_km2":17.5696,"intersection_count":45,"elevation_m":9,"terrain_relief_m":15,"source_note":"OSM道路与设施聚合；SRTM高程采样；均为教学裁剪","accessibility_proxy":0.4691,"osm_intensity_class":"较高","core_zone":"核心"},"geometry":{"type":"Polygon","coordinates":[[[121.4587,31.23665],[121.4662,31.23665],[121.4662,31.2429],[121.4587,31.2429],[121.4587,31.23665]]]}},{"type":"Feature","properties":{"cell_id":"shanghai_03_04","city_id":"shanghai","city_name_zh":"上海","row":3,"column":4,"area_km2":0.4955,"center_lon":121.46995,"center_lat":31.239775,"distance_to_center_km":1.102,"facility_count":1,"transit_count":0,"healthcare_count":0,"education_count":1,"park_count":0,"service_diversity":1,"facility_density_km2":2.018,"road_segment_count":276,"road_length_m":10183.88,"road_density_km_km2":20.551,"intersection_count":59,"elevation_m":12,"terrain_relief_m":10,"source_note":"OSM道路与设施聚合；SRTM高程采样；均为教学裁剪","accessibility_proxy":0.4667,"osm_intensity_class":"较高","core_zone":"核心"},"geometry":{"type":"Polygon","coordinates":[[[121.4662,31.23665],[121.4737,31.23665],[121.4737,31.2429],[121.4662,31.2429],[121.4662,31.23665]]]}},{"type":"Feature","properties":{"cell_id":"shanghai_03_05","city_id":"shanghai","city_name_zh":"上海","row":3,"column":5,"area_km2":0.4955,"center_lon":121.47745,"center_lat":31.239775,"distance_to_center_km":1.102,"facility_count":9,"transit_count":9,"healthcare_count":0,"education_count":0,"park_count":0,"service_diversity":1,"facility_density_km2":18.1619,"road_segment_count":427,"road_length_m":11403.74,"road_density_km_km2":23.0126,"intersection_count":75,"elevation_m":12,"terrain_relief_m":14,"source_note":"OSM道路与设施聚合；SRTM高程采样；均为教学裁剪","accessibility_proxy":0.6678,"osm_intensity_class":"高","core_zone":"核心"},"geometry":{"type":"Polygon","coordinates":[[[121.4737,31.23665],[121.4812,31.23665],[121.4812,31.2429],[121.4737,31.2429],[121.4737,31.23665]]]}},{"type":"Feature","properties":{"cell_id":"shanghai_03_06","city_id":"shanghai","city_name_zh":"上海","row":3,"column":6,"area_km2":0.4955,"center_lon":121.48495,"center_lat":31.239775,"distance_to_center_km":1.494,"facility_count":1,"transit_count":1,"healthcare_count":0,"education_count":0,"park_count":0,"service_diversity":1,"facility_density_km2":2.018,"road_segment_count":295,"road_length_m":8482.5,"road_density_km_km2":17.1176,"intersection_count":37,"elevation_m":27,"terrain_relief_m":25,"source_note":"OSM道路与设施聚合；SRTM高程采样；均为教学裁剪","accessibility_proxy":0.4,"osm_intensity_class":"较低","core_zone":"核心"},"geometry":{"type":"Polygon","coordinates":[[[121.4812,31.23665],[121.4887,31.23665],[121.4887,31.2429],[121.4812,31.2429],[121.4812,31.23665]]]}},{"type":"Feature","properties":{"cell_id":"shanghai_03_07","city_id":"shanghai","city_name_zh":"上海","row":3,"column":7,"area_km2":0.4955,"center_lon":121.49245,"center_lat":31.239775,"distance_to_center_km":2.065,"facility_count":1,"transit_count":1,"healthcare_count":0,"education_count":0,"park_count":0,"service_diversity":1,"facility_density_km2":2.018,"road_segment_count":201,"road_length_m":4565.6,"road_density_km_km2":9.2133,"intersection_count":19,"elevation_m":15,"terrain_relief_m":13,"source_note":"OSM道路与设施聚合；SRTM高程采样；均为教学裁剪","accessibility_proxy":0.2688,"osm_intensity_class":"低","core_zone":"内圈"},"geometry":{"type":"Polygon","coordinates":[[[121.4887,31.23665],[121.4962,31.23665],[121.4962,31.2429],[121.4887,31.2429],[121.4887,31.23665]]]}},{"type":"Feature","properties":{"cell_id":"shanghai_03_08","city_id":"shanghai","city_name_zh":"上海","row":3,"column":8,"area_km2":0.4955,"center_lon":121.49995,"center_lat":31.239775,"distance_to_center_km":2.705,"facility_count":8,"transit_count":8,"healthcare_count":0,"education_count":0,"park_count":0,"service_diversity":1,"facility_density_km2":16.1439,"road_segment_count":548,"road_length_m":10598.09,"road_density_km_km2":21.3868,"intersection_count":19,"elevation_m":7,"terrain_relief_m":6,"source_note":"OSM道路与设施聚合；SRTM高程采样；均为教学裁剪","accessibility_proxy":0.5535,"osm_intensity_class":"高","core_zone":"内圈"},"geometry":{"type":"Polygon","coordinates":[[[121.4962,31.23665],[121.5037,31.23665],[121.5037,31.2429],[121.4962,31.2429],[121.4962,31.23665]]]}},{"type":"Feature","properties":{"cell_id":"shanghai_04_01","city_id":"shanghai","city_name_zh":"上海","row":4,"column":1,"area_km2":0.4956,"center_lon":121.44745,"center_lat":31.233525,"distance_to_center_km":2.52,"facility_count":1,"transit_count":0,"healthcare_count":1,"education_count":0,"park_count":0,"service_diversity":1,"facility_density_km2":2.0179,"road_segment_count":78,"road_length_m":4857.22,"road_density_km_km2":9.8012,"intersection_count":12,"elevation_m":7,"terrain_relief_m":11,"source_note":"OSM道路与设施聚合；SRTM高程采样；均为教学裁剪","accessibility_proxy":0.2589,"osm_intensity_class":"低","core_zone":"内圈"},"geometry":{"type":"Polygon","coordinates":[[[121.4437,31.2304],[121.4512,31.2304],[121.4512,31.23665],[121.4437,31.23665],[121.4437,31.2304]]]}},{"type":"Feature","properties":{"cell_id":"shanghai_04_02","city_id":"shanghai","city_name_zh":"上海","row":4,"column":2,"area_km2":0.4956,"center_lon":121.45495,"center_lat":31.233525,"distance_to_center_km":1.816,"facility_count":15,"transit_count":14,"healthcare_count":0,"education_count":1,"park_count":0,"service_diversity":2,"facility_density_km2":30.2679,"road_segment_count":144,"road_length_m":6715.93,"road_density_km_km2":13.5518,"intersection_count":28,"elevation_m":7,"terrain_relief_m":11,"source_note":"OSM道路与设施聚合；SRTM高程采样；均为教学裁剪","accessibility_proxy":0.632,"osm_intensity_class":"高","core_zone":"内圈"},"geometry":{"type":"Polygon","coordinates":[[[121.4512,31.2304],[121.4587,31.2304],[121.4587,31.23665],[121.4512,31.23665],[121.4512,31.2304]]]}},{"type":"Feature","properties":{"cell_id":"shanghai_04_03","city_id":"shanghai","city_name_zh":"上海","row":4,"column":3,"area_km2":0.4956,"center_lon":121.46245,"center_lat":31.233525,"distance_to_center_km":1.125,"facility_count":3,"transit_count":0,"healthcare_count":2,"education_count":0,"park_count":1,"service_diversity":2,"facility_density_km2":6.0536,"road_segment_count":169,"road_length_m":6232.29,"road_density_km_km2":12.5759,"intersection_count":29,"elevation_m":18,"terrain_relief_m":11,"source_note":"OSM道路与设施聚合；SRTM高程采样；均为教学裁剪","accessibility_proxy":0.4017,"osm_intensity_class":"较低","core_zone":"核心"},"geometry":{"type":"Polygon","coordinates":[[[121.4587,31.2304],[121.4662,31.2304],[121.4662,31.23665],[121.4587,31.23665],[121.4587,31.2304]]]}},{"type":"Feature","properties":{"cell_id":"shanghai_04_04","city_id":"shanghai","city_name_zh":"上海","row":4,"column":4,"area_km2":0.4956,"center_lon":121.46995,"center_lat":31.233525,"distance_to_center_km":0.498,"facility_count":19,"transit_count":19,"healthcare_count":0,"education_count":0,"park_count":0,"service_diversity":1,"facility_density_km2":38.3393,"road_segment_count":265,"road_length_m":7817.38,"road_density_km_km2":15.7744,"intersection_count":31,"elevation_m":12,"terrain_relief_m":7,"source_note":"OSM道路与设施聚合；SRTM高程采样；均为教学裁剪","accessibility_proxy":0.8209,"osm_intensity_class":"高","core_zone":"核心"},"geometry":{"type":"Polygon","coordinates":[[[121.4662,31.2304],[121.4737,31.2304],[121.4737,31.23665],[121.4662,31.23665],[121.4662,31.2304]]]}},{"type":"Feature","properties":{"cell_id":"shanghai_04_05","city_id":"shanghai","city_name_zh":"上海","row":4,"column":5,"area_km2":0.4956,"center_lon":121.47745,"center_lat":31.233525,"distance_to_center_km":0.498,"facility_count":1,"transit_count":0,"healthcare_count":0,"education_count":0,"park_count":0,"service_diversity":1,"facility_density_km2":2.0179,"road_segment_count":295,"road_length_m":10589.22,"road_density_km_km2":21.3675,"intersection_count":62,"elevation_m":25,"terrain_relief_m":22,"source_note":"OSM道路与设施聚合；SRTM高程采样；均为教学裁剪","accessibility_proxy":0.5162,"osm_intensity_class":"高","core_zone":"核心"},"geometry":{"type":"Polygon","coordinates":[[[121.4737,31.2304],[121.4812,31.2304],[121.4812,31.23665],[121.4737,31.23665],[121.4737,31.2304]]]}},{"type":"Feature","properties":{"cell_id":"shanghai_04_06","city_id":"shanghai","city_name_zh":"上海","row":4,"column":6,"area_km2":0.4956,"center_lon":121.48495,"center_lat":31.233525,"distance_to_center_km":1.125,"facility_count":3,"transit_count":3,"healthcare_count":0,"education_count":0,"park_count":0,"service_diversity":1,"facility_density_km2":6.0536,"road_segment_count":431,"road_length_m":13080.29,"road_density_km_km2":26.3942,"intersection_count":64,"elevation_m":38,"terrain_relief_m":36,"source_note":"OSM道路与设施聚合；SRTM高程采样；均为教学裁剪","accessibility_proxy":0.585,"osm_intensity_class":"高","core_zone":"核心"},"geometry":{"type":"Polygon","coordinates":[[[121.4812,31.2304],[121.4887,31.2304],[121.4887,31.23665],[121.4812,31.23665],[121.4812,31.2304]]]}},{"type":"Feature","properties":{"cell_id":"shanghai_04_07","city_id":"shanghai","city_name_zh":"上海","row":4,"column":7,"area_km2":0.4956,"center_lon":121.49245,"center_lat":31.233525,"distance_to_center_km":1.816,"facility_count":0,"transit_count":0,"healthcare_count":0,"education_count":0,"park_count":0,"service_diversity":0,"facility_density_km2":0.0,"road_segment_count":176,"road_length_m":5048.21,"road_density_km_km2":10.1866,"intersection_count":8,"elevation_m":3,"terrain_relief_m":11,"source_note":"OSM道路与设施聚合；SRTM高程采样；均为教学裁剪","accessibility_proxy":0.2716,"osm_intensity_class":"低","core_zone":"内圈"},"geometry":{"type":"Polygon","coordinates":[[[121.4887,31.2304],[121.4962,31.2304],[121.4962,31.23665],[121.4887,31.23665],[121.4887,31.2304]]]}},{"type":"Feature","properties":{"cell_id":"shanghai_04_08","city_id":"shanghai","city_name_zh":"上海","row":4,"column":8,"area_km2":0.4956,"center_lon":121.49995,"center_lat":31.233525,"distance_to_center_km":2.52,"facility_count":0,"transit_count":0,"healthcare_count":0,"education_count":0,"park_count":0,"service_diversity":0,"facility_density_km2":0.0,"road_segment_count":254,"road_length_m":8794.58,"road_density_km_km2":17.7462,"intersection_count":34,"elevation_m":5,"terrain_relief_m":11,"source_note":"OSM道路与设施聚合；SRTM高程采样；均为教学裁剪","accessibility_proxy":0.3433,"osm_intensity_class":"较低","core_zone":"内圈"},"geometry":{"type":"Polygon","coordinates":[[[121.4962,31.2304],[121.5037,31.2304],[121.5037,31.23665],[121.4962,31.23665],[121.4962,31.2304]]]}},{"type":"Feature","properties":{"cell_id":"shanghai_05_01","city_id":"shanghai","city_name_zh":"上海","row":5,"column":1,"area_km2":0.4956,"center_lon":121.44745,"center_lat":31.227275,"distance_to_center_km":2.52,"facility_count":2,"transit_count":2,"healthcare_count":0,"education_count":0,"park_count":0,"service_diversity":1,"facility_density_km2":4.0354,"road_segment_count":113,"road_length_m":4645.62,"road_density_km_km2":9.3736,"intersection_count":19,"elevation_m":15,"terrain_relief_m":8,"source_note":"OSM道路与设施聚合；SRTM高程采样；均为教学裁剪","accessibility_proxy":0.2743,"osm_intensity_class":"低","core_zone":"内圈"},"geometry":{"type":"Polygon","coordinates":[[[121.4437,31.22415],[121.4512,31.22415],[121.4512,31.2304],[121.4437,31.2304],[121.4437,31.22415]]]}},{"type":"Feature","properties":{"cell_id":"shanghai_05_02","city_id":"shanghai","city_name_zh":"上海","row":5,"column":2,"area_km2":0.4956,"center_lon":121.45495,"center_lat":31.227275,"distance_to_center_km":1.816,"facility_count":5,"transit_count":5,"healthcare_count":0,"education_count":0,"park_count":0,"service_diversity":1,"facility_density_km2":10.0886,"road_segment_count":121,"road_length_m":6128.58,"road_density_km_km2":12.3658,"intersection_count":23,"elevation_m":17,"terrain_relief_m":11,"source_note":"OSM道路与设施聚合；SRTM高程采样；均为教学裁剪","accessibility_proxy":0.4057,"osm_intensity_class":"较高","core_zone":"内圈"},"geometry":{"type":"Polygon","coordinates":[[[121.4512,31.22415],[121.4587,31.22415],[121.4587,31.2304],[121.4512,31.2304],[121.4512,31.22415]]]}},{"type":"Feature","properties":{"cell_id":"shanghai_05_03","city_id":"shanghai","city_name_zh":"上海","row":5,"column":3,"area_km2":0.4956,"center_lon":121.46245,"center_lat":31.227275,"distance_to_center_km":1.125,"facility_count":3,"transit_count":0,"healthcare_count":1,"education_count":1,"park_count":1,"service_diversity":3,"facility_density_km2":6.0532,"road_segment_count":273,"road_length_m":9121.3,"road_density_km_km2":18.4043,"intersection_count":50,"elevation_m":11,"terrain_relief_m":16,"source_note":"OSM道路与设施聚合；SRTM高程采样；均为教学裁剪","accessibility_proxy":0.479,"osm_intensity_class":"较高","core_zone":"核心"},"geometry":{"type":"Polygon","coordinates":[[[121.4587,31.22415],[121.4662,31.22415],[121.4662,31.2304],[121.4587,31.2304],[121.4587,31.22415]]]}},{"type":"Feature","properties":{"cell_id":"shanghai_05_04","city_id":"shanghai","city_name_zh":"上海","row":5,"column":4,"area_km2":0.4956,"center_lon":121.46995,"center_lat":31.227275,"distance_to_center_km":0.498,"facility_count":9,"transit_count":9,"healthcare_count":0,"education_count":0,"park_count":0,"service_diversity":1,"facility_density_km2":18.1595,"road_segment_count":229,"road_length_m":7967.15,"road_density_km_km2":16.0755,"intersection_count":34,"elevation_m":7,"terrain_relief_m":21,"source_note":"OSM道路与设施聚合；SRTM高程采样；均为教学裁剪","accessibility_proxy":0.6144,"osm_intensity_class":"高","core_zone":"核心"},"geometry":{"type":"Polygon","coordinates":[[[121.4662,31.22415],[121.4737,31.22415],[121.4737,31.2304],[121.4662,31.2304],[121.4662,31.22415]]]}},{"type":"Feature","properties":{"cell_id":"shanghai_05_05","city_id":"shanghai","city_name_zh":"上海","row":5,"column":5,"area_km2":0.4956,"center_lon":121.47745,"center_lat":31.227275,"distance_to_center_km":0.498,"facility_count":10,"transit_count":6,"healthcare_count":2,"education_count":1,"park_count":0,"service_diversity":4,"facility_density_km2":20.1772,"road_segment_count":235,"road_length_m":8719.77,"road_density_km_km2":17.5941,"intersection_count":45,"elevation_m":26,"terrain_relief_m":25,"source_note":"OSM道路与设施聚合；SRTM高程采样；均为教学裁剪","accessibility_proxy":0.6556,"osm_intensity_class":"高","core_zone":"核心"},"geometry":{"type":"Polygon","coordinates":[[[121.4737,31.22415],[121.4812,31.22415],[121.4812,31.2304],[121.4737,31.2304],[121.4737,31.22415]]]}},{"type":"Feature","properties":{"cell_id":"shanghai_05_06","city_id":"shanghai","city_name_zh":"上海","row":5,"column":6,"area_km2":0.4956,"center_lon":121.48495,"center_lat":31.227275,"distance_to_center_km":1.125,"facility_count":3,"transit_count":2,"healthcare_count":0,"education_count":0,"park_count":1,"service_diversity":2,"facility_density_km2":6.0532,"road_segment_count":413,"road_length_m":9747.66,"road_density_km_km2":19.6681,"intersection_count":97,"elevation_m":10,"terrain_relief_m":7,"source_note":"OSM道路与设施聚合；SRTM高程采样；均为教学裁剪","accessibility_proxy":0.4958,"osm_intensity_class":"较高","core_zone":"核心"},"geometry":{"type":"Polygon","coordinates":[[[121.4812,31.22415],[121.4887,31.22415],[121.4887,31.2304],[121.4812,31.2304],[121.4812,31.22415]]]}},{"type":"Feature","properties":{"cell_id":"shanghai_05_07","city_id":"shanghai","city_name_zh":"上海","row":5,"column":7,"area_km2":0.4956,"center_lon":121.49245,"center_lat":31.227275,"distance_to_center_km":1.816,"facility_count":1,"transit_count":0,"healthcare_count":1,"education_count":0,"park_count":0,"service_diversity":1,"facility_density_km2":2.0177,"road_segment_count":314,"road_length_m":8272.98,"road_density_km_km2":16.6926,"intersection_count":30,"elevation_m":14,"terrain_relief_m":14,"source_note":"OSM道路与设施聚合；SRTM高程采样；均为教学裁剪","accessibility_proxy":0.3789,"osm_intensity_class":"较低","core_zone":"内圈"},"geometry":{"type":"Polygon","coordinates":[[[121.4887,31.22415],[121.4962,31.22415],[121.4962,31.2304],[121.4887,31.2304],[121.4887,31.22415]]]}},{"type":"Feature","properties":{"cell_id":"shanghai_05_08","city_id":"shanghai","city_name_zh":"上海","row":5,"column":8,"area_km2":0.4956,"center_lon":121.49995,"center_lat":31.227275,"distance_to_center_km":2.52,"facility_count":0,"transit_count":0,"healthcare_count":0,"education_count":0,"park_count":0,"service_diversity":0,"facility_density_km2":0.0,"road_segment_count":149,"road_length_m":6511.37,"road_density_km_km2":13.1381,"intersection_count":12,"elevation_m":3,"terrain_relief_m":7,"source_note":"OSM道路与设施聚合；SRTM高程采样；均为教学裁剪","accessibility_proxy":0.2821,"osm_intensity_class":"低","core_zone":"内圈"},"geometry":{"type":"Polygon","coordinates":[[[121.4962,31.22415],[121.5037,31.22415],[121.5037,31.2304],[121.4962,31.2304],[121.4962,31.22415]]]}},{"type":"Feature","properties":{"cell_id":"shanghai_06_01","city_id":"shanghai","city_name_zh":"上海","row":6,"column":1,"area_km2":0.4956,"center_lon":121.44745,"center_lat":31.221025,"distance_to_center_km":2.705,"facility_count":2,"transit_count":2,"healthcare_count":0,"education_count":0,"park_count":0,"service_diversity":1,"facility_density_km2":4.0352,"road_segment_count":71,"road_length_m":3856.94,"road_density_km_km2":7.7817,"intersection_count":11,"elevation_m":10,"terrain_relief_m":11,"source_note":"OSM道路与设施聚合；SRTM高程采样；均为教学裁剪","accessibility_proxy":0.2468,"osm_intensity_class":"低","core_zone":"内圈"},"geometry":{"type":"Polygon","coordinates":[[[121.4437,31.2179],[121.4512,31.2179],[121.4512,31.22415],[121.4437,31.22415],[121.4437,31.2179]]]}},{"type":"Feature","properties":{"cell_id":"shanghai_06_02","city_id":"shanghai","city_name_zh":"上海","row":6,"column":2,"area_km2":0.4956,"center_lon":121.45495,"center_lat":31.221025,"distance_to_center_km":2.065,"facility_count":8,"transit_count":7,"healthcare_count":1,"education_count":0,"park_count":0,"service_diversity":2,"facility_density_km2":16.1407,"road_segment_count":293,"road_length_m":4983.76,"road_density_km_km2":10.0552,"intersection_count":24,"elevation_m":9,"terrain_relief_m":7,"source_note":"OSM道路与设施聚合；SRTM高程采样；均为教学裁剪","accessibility_proxy":0.4273,"osm_intensity_class":"较高","core_zone":"内圈"},"geometry":{"type":"Polygon","coordinates":[[[121.4512,31.2179],[121.4587,31.2179],[121.4587,31.22415],[121.4512,31.22415],[121.4512,31.2179]]]}},{"type":"Feature","properties":{"cell_id":"shanghai_06_03","city_id":"shanghai","city_name_zh":"上海","row":6,"column":3,"area_km2":0.4956,"center_lon":121.46245,"center_lat":31.221025,"distance_to_center_km":1.494,"facility_count":6,"transit_count":4,"healthcare_count":0,"education_count":1,"park_count":0,"service_diversity":3,"facility_density_km2":12.1055,"road_segment_count":85,"road_length_m":4817.77,"road_density_km_km2":9.7203,"intersection_count":14,"elevation_m":14,"terrain_relief_m":16,"source_note":"OSM道路与设施聚合；SRTM高程采样；均为教学裁剪","accessibility_proxy":0.4071,"osm_intensity_class":"较高","core_zone":"核心"},"geometry":{"type":"Polygon","coordinates":[[[121.4587,31.2179],[121.4662,31.2179],[121.4662,31.22415],[121.4587,31.22415],[121.4587,31.2179]]]}},{"type":"Feature","properties":{"cell_id":"shanghai_06_04","city_id":"shanghai","city_name_zh":"上海","row":6,"column":4,"area_km2":0.4956,"center_lon":121.46995,"center_lat":31.221025,"distance_to_center_km":1.102,"facility_count":5,"transit_count":5,"healthcare_count":0,"education_count":0,"park_count":0,"service_diversity":1,"facility_density_km2":10.088,"road_segment_count":326,"road_length_m":9832.17,"road_density_km_km2":19.8373,"intersection_count":59,"elevation_m":8,"terrain_relief_m":21,"source_note":"OSM道路与设施聚合；SRTM高程采样；均为教学裁剪","accessibility_proxy":0.5414,"osm_intensity_class":"高","core_zone":"核心"},"geometry":{"type":"Polygon","coordinates":[[[121.4662,31.2179],[121.4737,31.2179],[121.4737,31.22415],[121.4662,31.22415],[121.4662,31.2179]]]}},{"type":"Feature","properties":{"cell_id":"shanghai_06_05","city_id":"shanghai","city_name_zh":"上海","row":6,"column":5,"area_km2":0.4956,"center_lon":121.47745,"center_lat":31.221025,"distance_to_center_km":1.102,"facility_count":10,"transit_count":10,"healthcare_count":0,"education_count":0,"park_count":0,"service_diversity":1,"facility_density_km2":20.1759,"road_segment_count":160,"road_length_m":7537.95,"road_density_km_km2":15.2085,"intersection_count":39,"elevation_m":15,"terrain_relief_m":14,"source_note":"OSM道路与设施聚合；SRTM高程采样；均为教学裁剪","accessibility_proxy":0.5853,"osm_intensity_class":"高","core_zone":"核心"},"geometry":{"type":"Polygon","coordinates":[[[121.4737,31.2179],[121.4812,31.2179],[121.4812,31.22415],[121.4737,31.22415],[121.4737,31.2179]]]}},{"type":"Feature","properties":{"cell_id":"shanghai_06_06","city_id":"shanghai","city_name_zh":"上海","row":6,"column":6,"area_km2":0.4956,"center_lon":121.48495,"center_lat":31.221025,"distance_to_center_km":1.494,"facility_count":1,"transit_count":0,"healthcare_count":1,"education_count":0,"park_count":0,"service_diversity":1,"facility_density_km2":2.0176,"road_segment_count":324,"road_length_m":10115.45,"road_density_km_km2":20.4088,"intersection_count":53,"elevation_m":5,"terrain_relief_m":11,"source_note":"OSM道路与设施聚合；SRTM高程采样；均为教学裁剪","accessibility_proxy":0.4436,"osm_intensity_class":"较高","core_zone":"核心"},"geometry":{"type":"Polygon","coordinates":[[[121.4812,31.2179],[121.4887,31.2179],[121.4887,31.22415],[121.4812,31.22415],[121.4812,31.2179]]]}},{"type":"Feature","properties":{"cell_id":"shanghai_06_07","city_id":"shanghai","city_name_zh":"上海","row":6,"column":7,"area_km2":0.4956,"center_lon":121.49245,"center_lat":31.221025,"distance_to_center_km":2.065,"facility_count":4,"transit_count":4,"healthcare_count":0,"education_count":0,"park_count":0,"service_diversity":1,"facility_density_km2":8.0704,"road_segment_count":305,"road_length_m":8838.56,"road_density_km_km2":17.8326,"intersection_count":36,"elevation_m":13,"terrain_relief_m":8,"source_note":"OSM道路与设施聚合；SRTM高程采样；均为教学裁剪","accessibility_proxy":0.4463,"osm_intensity_class":"较高","core_zone":"内圈"},"geometry":{"type":"Polygon","coordinates":[[[121.4887,31.2179],[121.4962,31.2179],[121.4962,31.22415],[121.4887,31.22415],[121.4887,31.2179]]]}},{"type":"Feature","properties":{"cell_id":"shanghai_06_08","city_id":"shanghai","city_name_zh":"上海","row":6,"column":8,"area_km2":0.4956,"center_lon":121.49995,"center_lat":31.221025,"distance_to_center_km":2.705,"facility_count":0,"transit_count":0,"healthcare_count":0,"education_count":0,"park_count":0,"service_diversity":0,"facility_density_km2":0.0,"road_segment_count":207,"road_length_m":10324.23,"road_density_km_km2":20.8301,"intersection_count":39,"elevation_m":8,"terrain_relief_m":6,"source_note":"OSM道路与设施聚合；SRTM高程采样；均为教学裁剪","accessibility_proxy":0.3777,"osm_intensity_class":"较低","core_zone":"内圈"},"geometry":{"type":"Polygon","coordinates":[[[121.4962,31.2179],[121.5037,31.2179],[121.5037,31.22415],[121.4962,31.22415],[121.4962,31.2179]]]}},{"type":"Feature","properties":{"cell_id":"shanghai_07_01","city_id":"shanghai","city_name_zh":"上海","row":7,"column":1,"area_km2":0.4957,"center_lon":121.44745,"center_lat":31.214775,"distance_to_center_km":3.041,"facility_count":8,"transit_count":8,"healthcare_count":0,"education_count":0,"park_count":0,"service_diversity":1,"facility_density_km2":16.1397,"road_segment_count":90,"road_length_m":4856.53,"road_density_km_km2":9.7978,"intersection_count":14,"elevation_m":11,"terrain_relief_m":13,"source_note":"OSM道路与设施聚合；SRTM高程采样；均为教学裁剪","accessibility_proxy":0.389,"osm_intensity_class":"较低","core_zone":"外圈"},"geometry":{"type":"Polygon","coordinates":[[[121.4437,31.21165],[121.4512,31.21165],[121.4512,31.2179],[121.4437,31.2179],[121.4437,31.21165]]]}},{"type":"Feature","properties":{"cell_id":"shanghai_07_02","city_id":"shanghai","city_name_zh":"上海","row":7,"column":2,"area_km2":0.4957,"center_lon":121.45495,"center_lat":31.214775,"distance_to_center_km":2.489,"facility_count":6,"transit_count":5,"healthcare_count":0,"education_count":1,"park_count":0,"service_diversity":2,"facility_density_km2":12.1047,"road_segment_count":130,"road_length_m":4488.72,"road_density_km_km2":9.0558,"intersection_count":11,"elevation_m":13,"terrain_relief_m":6,"source_note":"OSM道路与设施聚合；SRTM高程采样；均为教学裁剪","accessibility_proxy":0.3554,"osm_intensity_class":"较低","core_zone":"内圈"},"geometry":{"type":"Polygon","coordinates":[[[121.4512,31.21165],[121.4587,31.21165],[121.4587,31.2179],[121.4512,31.2179],[121.4512,31.21165]]]}},{"type":"Feature","properties":{"cell_id":"shanghai_07_03","city_id":"shanghai","city_name_zh":"上海","row":7,"column":3,"area_km2":0.4957,"center_lon":121.46245,"center_lat":31.214775,"distance_to_center_km":2.04,"facility_count":2,"transit_count":0,"healthcare_count":1,"education_count":1,"park_count":0,"service_diversity":2,"facility_density_km2":4.0349,"road_segment_count":157,"road_length_m":4873.62,"road_density_km_km2":9.8323,"intersection_count":40,"elevation_m":3,"terrain_relief_m":12,"source_note":"OSM道路与设施聚合；SRTM高程采样；均为教学裁剪","accessibility_proxy":0.2991,"osm_intensity_class":"低","core_zone":"内圈"},"geometry":{"type":"Polygon","coordinates":[[[121.4587,31.21165],[121.4662,31.21165],[121.4662,31.2179],[121.4587,31.2179],[121.4587,31.21165]]]}},{"type":"Feature","properties":{"cell_id":"shanghai_07_04","city_id":"shanghai","city_name_zh":"上海","row":7,"column":4,"area_km2":0.4957,"center_lon":121.46995,"center_lat":31.214775,"distance_to_center_km":1.774,"facility_count":7,"transit_count":6,"healthcare_count":0,"education_count":1,"park_count":0,"service_diversity":2,"facility_density_km2":14.1222,"road_segment_count":85,"road_length_m":5937.6,"road_density_km_km2":11.9789,"intersection_count":18,"elevation_m":27,"terrain_relief_m":17,"source_note":"OSM道路与设施聚合；SRTM高程采样；均为教学裁剪","accessibility_proxy":0.4446,"osm_intensity_class":"较高","core_zone":"内圈"},"geometry":{"type":"Polygon","coordinates":[[[121.4662,31.21165],[121.4737,31.21165],[121.4737,31.2179],[121.4662,31.2179],[121.4662,31.21165]]]}},{"type":"Feature","properties":{"cell_id":"shanghai_07_05","city_id":"shanghai","city_name_zh":"上海","row":7,"column":5,"area_km2":0.4957,"center_lon":121.47745,"center_lat":31.214775,"distance_to_center_km":1.774,"facility_count":8,"transit_count":3,"healthcare_count":2,"education_count":0,"park_count":0,"service_diversity":3,"facility_density_km2":16.1397,"road_segment_count":137,"road_length_m":7124.05,"road_density_km_km2":14.3725,"intersection_count":26,"elevation_m":11,"terrain_relief_m":5,"source_note":"OSM道路与设施聚合；SRTM高程采样；均为教学裁剪","accessibility_proxy":0.4974,"osm_intensity_class":"高","core_zone":"内圈"},"geometry":{"type":"Polygon","coordinates":[[[121.4737,31.21165],[121.4812,31.21165],[121.4812,31.2179],[121.4737,31.2179],[121.4737,31.21165]]]}},{"type":"Feature","properties":{"cell_id":"shanghai_07_06","city_id":"shanghai","city_name_zh":"上海","row":7,"column":6,"area_km2":0.4957,"center_lon":121.48495,"center_lat":31.214775,"distance_to_center_km":2.04,"facility_count":6,"transit_count":5,"healthcare_count":0,"education_count":1,"park_count":0,"service_diversity":2,"facility_density_km2":12.1047,"road_segment_count":213,"road_length_m":8780.31,"road_density_km_km2":17.7139,"intersection_count":50,"elevation_m":6,"terrain_relief_m":8,"source_note":"OSM道路与设施聚合；SRTM高程采样；均为教学裁剪","accessibility_proxy":0.4878,"osm_intensity_class":"较高","core_zone":"内圈"},"geometry":{"type":"Polygon","coordinates":[[[121.4812,31.21165],[121.4887,31.21165],[121.4887,31.2179],[121.4812,31.2179],[121.4812,31.21165]]]}},{"type":"Feature","properties":{"cell_id":"shanghai_07_07","city_id":"shanghai","city_name_zh":"上海","row":7,"column":7,"area_km2":0.4957,"center_lon":121.49245,"center_lat":31.214775,"distance_to_center_km":2.489,"facility_count":0,"transit_count":0,"healthcare_count":0,"education_count":0,"park_count":0,"service_diversity":0,"facility_density_km2":0.0,"road_segment_count":232,"road_length_m":7520.64,"road_density_km_km2":15.1726,"intersection_count":36,"elevation_m":11,"terrain_relief_m":5,"source_note":"OSM道路与设施聚合；SRTM高程采样；均为教学裁剪","accessibility_proxy":0.3102,"osm_intensity_class":"低","core_zone":"内圈"},"geometry":{"type":"Polygon","coordinates":[[[121.4887,31.21165],[121.4962,31.21165],[121.4962,31.2179],[121.4887,31.2179],[121.4887,31.21165]]]}},{"type":"Feature","properties":{"cell_id":"shanghai_07_08","city_id":"shanghai","city_name_zh":"上海","row":7,"column":8,"area_km2":0.4957,"center_lon":121.49995,"center_lat":31.214775,"distance_to_center_km":3.041,"facility_count":0,"transit_count":0,"healthcare_count":0,"education_count":0,"park_count":0,"service_diversity":0,"facility_density_km2":0.0,"road_segment_count":267,"road_length_m":8391.48,"road_density_km_km2":16.9295,"intersection_count":28,"elevation_m":10,"terrain_relief_m":8,"source_note":"OSM道路与设施聚合；SRTM高程采样；均为教学裁剪","accessibility_proxy":0.3152,"osm_intensity_class":"较低","core_zone":"外圈"},"geometry":{"type":"Polygon","coordinates":[[[121.4962,31.21165],[121.5037,31.21165],[121.5037,31.2179],[121.4962,31.2179],[121.4962,31.21165]]]}},{"type":"Feature","properties":{"cell_id":"shanghai_08_01","city_id":"shanghai","city_name_zh":"上海","row":8,"column":1,"area_km2":0.4957,"center_lon":121.44745,"center_lat":31.208525,"distance_to_center_km":3.485,"facility_count":1,"transit_count":0,"healthcare_count":1,"education_count":0,"park_count":0,"service_diversity":1,"facility_density_km2":2.0173,"road_segment_count":77,"road_length_m":4646.22,"road_density_km_km2":9.3729,"intersection_count":13,"elevation_m":9,"terrain_relief_m":18,"source_note":"OSM道路与设施聚合；SRTM高程采样；均为教学裁剪","accessibility_proxy":0.2236,"osm_intensity_class":"低","core_zone":"外圈"},"geometry":{"type":"Polygon","coordinates":[[[121.4437,31.2054],[121.4512,31.2054],[121.4512,31.21165],[121.4437,31.21165],[121.4437,31.2054]]]}},{"type":"Feature","properties":{"cell_id":"shanghai_08_02","city_id":"shanghai","city_name_zh":"上海","row":8,"column":2,"area_km2":0.4957,"center_lon":121.45495,"center_lat":31.208525,"distance_to_center_km":3.016,"facility_count":0,"transit_count":0,"healthcare_count":0,"education_count":0,"park_count":0,"service_diversity":0,"facility_density_km2":0.0,"road_segment_count":72,"road_length_m":4226.04,"road_density_km_km2":8.5253,"intersection_count":11,"elevation_m":11,"terrain_relief_m":12,"source_note":"OSM道路与设施聚合；SRTM高程采样；均为教学裁剪","accessibility_proxy":0.2045,"osm_intensity_class":"低","core_zone":"外圈"},"geometry":{"type":"Polygon","coordinates":[[[121.4512,31.2054],[121.4587,31.2054],[121.4587,31.21165],[121.4512,31.21165],[121.4512,31.2054]]]}},{"type":"Feature","properties":{"cell_id":"shanghai_08_03","city_id":"shanghai","city_name_zh":"上海","row":8,"column":3,"area_km2":0.4957,"center_lon":121.46245,"center_lat":31.208525,"distance_to_center_km":2.657,"facility_count":6,"transit_count":5,"healthcare_count":0,"education_count":0,"park_count":0,"service_diversity":2,"facility_density_km2":12.1039,"road_segment_count":109,"road_length_m":4718.65,"road_density_km_km2":9.519,"intersection_count":17,"elevation_m":10,"terrain_relief_m":6,"source_note":"OSM道路与设施聚合；SRTM高程采样；均为教学裁剪","accessibility_proxy":0.3556,"osm_intensity_class":"较低","core_zone":"内圈"},"geometry":{"type":"Polygon","coordinates":[[[121.4587,31.2054],[121.4662,31.2054],[121.4662,31.21165],[121.4587,31.21165],[121.4587,31.2054]]]}},{"type":"Feature","properties":{"cell_id":"shanghai_08_04","city_id":"shanghai","city_name_zh":"上海","row":8,"column":4,"area_km2":0.4957,"center_lon":121.46995,"center_lat":31.208525,"distance_to_center_km":2.458,"facility_count":6,"transit_count":4,"healthcare_count":0,"education_count":1,"park_count":0,"service_diversity":3,"facility_density_km2":12.1039,"road_segment_count":245,"road_length_m":9970.05,"road_density_km_km2":20.1128,"intersection_count":46,"elevation_m":17,"terrain_relief_m":10,"source_note":"OSM道路与设施聚合；SRTM高程采样；均为教学裁剪","accessibility_proxy":0.5032,"osm_intensity_class":"高","core_zone":"内圈"},"geometry":{"type":"Polygon","coordinates":[[[121.4662,31.2054],[121.4737,31.2054],[121.4737,31.21165],[121.4662,31.21165],[121.4662,31.2054]]]}},{"type":"Feature","properties":{"cell_id":"shanghai_08_05","city_id":"shanghai","city_name_zh":"上海","row":8,"column":5,"area_km2":0.4957,"center_lon":121.47745,"center_lat":31.208525,"distance_to_center_km":2.458,"facility_count":4,"transit_count":0,"healthcare_count":2,"education_count":0,"park_count":0,"service_diversity":2,"facility_density_km2":8.0693,"road_segment_count":114,"road_length_m":4808.66,"road_density_km_km2":9.7006,"intersection_count":16,"elevation_m":18,"terrain_relief_m":13,"source_note":"OSM道路与设施聚合；SRTM高程采样；均为教学裁剪","accessibility_proxy":0.323,"osm_intensity_class":"较低","core_zone":"内圈"},"geometry":{"type":"Polygon","coordinates":[[[121.4737,31.2054],[121.4812,31.2054],[121.4812,31.21165],[121.4737,31.21165],[121.4737,31.2054]]]}},{"type":"Feature","properties":{"cell_id":"shanghai_08_06","city_id":"shanghai","city_name_zh":"上海","row":8,"column":6,"area_km2":0.4957,"center_lon":121.48495,"center_lat":31.208525,"distance_to_center_km":2.657,"facility_count":2,"transit_count":0,"healthcare_count":2,"education_count":0,"park_count":0,"service_diversity":1,"facility_density_km2":4.0346,"road_segment_count":98,"road_length_m":4928.83,"road_density_km_km2":9.943,"intersection_count":15,"elevation_m":16,"terrain_relief_m":7,"source_note":"OSM道路与设施聚合；SRTM高程采样；均为教学裁剪","accessibility_proxy":0.2771,"osm_intensity_class":"低","core_zone":"内圈"},"geometry":{"type":"Polygon","coordinates":[[[121.4812,31.2054],[121.4887,31.2054],[121.4887,31.21165],[121.4812,31.21165],[121.4812,31.2054]]]}},{"type":"Feature","properties":{"cell_id":"shanghai_08_07","city_id":"shanghai","city_name_zh":"上海","row":8,"column":7,"area_km2":0.4957,"center_lon":121.49245,"center_lat":31.208525,"distance_to_center_km":3.016,"facility_count":3,"transit_count":2,"healthcare_count":1,"education_count":0,"park_count":0,"service_diversity":2,"facility_density_km2":6.052,"road_segment_count":176,"road_length_m":6647.5,"road_density_km_km2":13.4102,"intersection_count":21,"elevation_m":5,"terrain_relief_m":9,"source_note":"OSM道路与设施聚合；SRTM高程采样；均为教学裁剪","accessibility_proxy":0.3324,"osm_intensity_class":"较低","core_zone":"外圈"},"geometry":{"type":"Polygon","coordinates":[[[121.4887,31.2054],[121.4962,31.2054],[121.4962,31.21165],[121.4887,31.21165],[121.4887,31.2054]]]}},{"type":"Feature","properties":{"cell_id":"shanghai_08_08","city_id":"shanghai","city_name_zh":"上海","row":8,"column":8,"area_km2":0.4957,"center_lon":121.49995,"center_lat":31.208525,"distance_to_center_km":3.485,"facility_count":1,"transit_count":1,"healthcare_count":0,"education_count":0,"park_count":0,"service_diversity":1,"facility_density_km2":2.0173,"road_segment_count":168,"road_length_m":4038.87,"road_density_km_km2":8.1477,"intersection_count":23,"elevation_m":1,"terrain_relief_m":11,"source_note":"OSM道路与设施聚合；SRTM高程采样；均为教学裁剪","accessibility_proxy":0.2073,"osm_intensity_class":"低","core_zone":"外圈"},"geometry":{"type":"Polygon","coordinates":[[[121.4962,31.2054],[121.5037,31.2054],[121.5037,31.21165],[121.4962,31.21165],[121.4962,31.2054]]]}}]}