{"type":"FeatureCollection","name":"shanghai_ghsl_boundary","crs":{"type":"name","properties":{"name":"urn:ogc:def:crs:OGC:1.3:CRS84"}},"features":[{"type":"Feature","properties":{"uc_id":11345,"city_name_en":"Shanghai","city_name_zh":"上海","country":"China","urban_area_km2_2025":3128,"population_2025":30678616,"population_density_km2_2025":9807.74,"gdp_average_ppp_1990":11527180,"gdp_average_ppp_2000":46541300,"gdp_average_ppp_2010":111760200,"gdp_average_ppp_2020":232499400,"gdp_total_ppp_1990":48598577152,"gdp_total_ppp_2000":197000000000,"gdp_total_ppp_2010":473000000000,"gdp_total_ppp_2020":984000000000,"hdi_1990":0.617225,"hdi_2000":0.7268308,"hdi_2010":0.8064516,"hdi_2020":0.8719335},"geometry":{"type":"Polygon","coordinates":[[[121.127956788271,31.5006282305268],[121.138970422912,31.5006282305268],[121.132043892845,31.4920349990786],[121.143056897767,31.4920349990786],[121.136132739253,31.4834420666109],[121.147145114455,31.4834420666109],[121.140223327493,31.4748494312458],[121.162246820258,31.4748494312458],[121.169169865759,31.4834420666109],[121.18018224186,31.4834420666109],[121.187108918353,31.4920349990786],[121.231160938938,31.4920349990786],[121.224231744468,31.4834420666109],[121.235244120569,31.4834420666109],[121.228317299448,31.4748494312458],[121.250340792213,31.4748494312458],[121.24341571562,31.4662570949359],[121.276449068304,31.4662570949359],[121.269525106521,31.4576650558028],[121.280535595261,31.4576650558028],[121.308251975188,31.4920349990786],[121.352303995773,31.4920349990786],[121.345367877089,31.4834420666109],[121.367392629291,31.4834420666109],[121.374330006515,31.4920349990786],[121.385343011437,31.4920349990786],[121.392284025939,31.5006282305268],[121.403297661478,31.5006282305268],[121.396356016359,31.4920349990786],[121.407369022179,31.4920349990786],[121.400429755798,31.4834420666109],[121.433466883203,31.4834420666109],[121.426528737021,31.4748494312458],[121.448552229785,31.4748494312458],[121.434682440326,31.4576650558028],[121.445692929067,31.4576650558028],[121.438761913712,31.4490733150327],[121.46078163445,31.4490733150327],[121.453852366318,31.4404818715125],[121.475870831212,31.4404818715125],[121.468943310304,31.4318907256617],[121.490960519352,31.4318907256617],[121.484034745667,31.4232998771333],[121.506050699769,31.4232998771333],[121.499126672409,31.4147093263462],[121.510134021538,31.4147093263462],[121.503212368425,31.4061190721863],[121.514219090529,31.4061190721863],[121.507299809867,31.3975291150722],[121.540318097804,31.3975291150722],[121.533399936442,31.3889394554224],[121.577421814957,31.3889394554224],[121.57050414677,31.3803500921216],[121.603518677054,31.3803500921216],[121.596602129067,31.371761025588],[121.618610563372,31.371761025588],[121.611695761709,31.3631722554724],[121.63370294556,31.3631722554724],[121.626789890222,31.3545837821927],[121.648795822719,31.3545837821927],[121.641884512808,31.3459956053994],[121.663889195749,31.3459956053994],[121.656979631264,31.3374077247425],[121.678983064648,31.3374077247425],[121.672075246489,31.3288201398722],[121.694077429418,31.3288201398722],[121.687171356685,31.3202328512053],[121.709172291854,31.3202328512053],[121.681572930969,31.2858866546255],[121.692570903482,31.2858866546255],[121.68567791561,31.2773008440137],[121.751662015498,31.2773008440137],[121.744768279329,31.268715329033],[121.755765006778,31.268715329033],[121.748873635873,31.2601301093313],[121.759869740789,31.2601301093313],[121.752980735149,31.2515451845561],[121.763976217533,31.2515451845561],[121.757089576258,31.2429605543546],[121.768084437007,31.2429605543546],[121.7612001592,31.23437621991],[121.772194398315,31.23437621991],[121.765312483077,31.2257921793329],[121.776306101457,31.2257921793329],[121.769426548788,31.217208433806],[121.791412542279,31.217208433806],[121.784534729647,31.2086249822073],[121.795527105656,31.2086249822073],[121.788651654695,31.2000418249511],[121.799643409969,31.2000418249511],[121.792770318881,31.1914589624515],[121.803761454318,31.1914589624515],[121.790022969807,31.1742941195353],[121.779033074046,31.1742941195353],[121.765307738176,31.1571304521566],[121.77629639516,31.1571304521566],[121.769437570218,31.1485490588857],[121.780425608263,31.1485490588857],[121.773569137805,31.1399679590089],[121.78455655781,31.1399679590089],[121.77085129749,31.1228066395507],[121.781837480514,31.1228066395507],[121.774988688855,31.1142264200254],[121.785974254737,31.1142264200254],[121.779127814867,31.1056464932371],[121.812082657491,31.1056464932371],[121.805237334227,31.0970668595979],[121.816221664027,31.0970668595979],[121.809378691654,31.088487517981],[121.82036240521,31.088487517981],[121.806684126688,31.0713297147683],[121.817666606856,31.0713297147683],[121.81083129891,31.0627512516872],[121.799849435884,31.0627512516872],[121.779363138437,31.03701761532],[121.790343154527,31.03701761532],[121.769881651481,31.0112866084227],[121.780859823329,31.0112866084227],[121.760423085038,30.9855582251317],[121.771399414442,30.9855582251317],[121.764592462716,30.9769826810199],[121.77556817857,30.9769826810199],[121.768763565159,30.9684074269774],[121.779738668362,30.9684074269774],[121.772936392367,30.9598324649535],[121.783910882021,30.9598324649535],[121.77031395583,30.9426834124337],[121.748367427126,30.9426834124337],[121.741574610391,30.9341093227549],[121.73060195869,30.9341093227549],[121.723812700181,30.9255355236472],[121.701868620285,30.9255355236472],[121.69508352996,30.916962014748],[121.684112101764,30.916962014748],[121.670551970567,30.8998158684353],[121.615700941726,30.8998158684353],[121.608928342475,30.8912432302954],[121.597958747741,30.8912432302954],[121.604730736138,30.8998158684353],[121.593760530549,30.8998158684353],[121.600534846481,30.908388796465],[121.589564030038,30.908388796465],[121.596340674403,30.916962014748],[121.541483532527,30.916962014748],[121.548260059213,30.9255355236472],[121.537288018367,30.9255355236472],[121.544066873486,30.9341093227549],[121.587957482086,30.9341093227549],[121.581176179058,30.9255355236472],[121.603120258954,30.9255355236472],[121.609902785488,30.9341093227549],[121.620875438087,30.9341093227549],[121.641242517417,30.9598324649535],[121.652217007071,30.9598324649535],[121.645424423,30.9512577930459],[121.656398299105,30.9512577930459],[121.649608047958,30.9426834124337],[121.66058131231,30.9426834124337],[121.653793394088,30.9341093227549],[121.675738698388,30.9341093227549],[121.682527841014,30.9426834124337],[121.693501105366,30.9426834124337],[121.700293807117,30.9512577930459],[121.711267683221,30.9512577930459],[121.72486315504,30.9684074269774],[121.713888052735,30.9684074269774],[121.720689599298,30.9769826810199],[121.709713883444,30.9769826810199],[121.723324603267,30.994134061214],[121.712347660314,30.994134061214],[121.71915683537,31.0027101888576],[121.708179277969,31.0027101888576],[121.714990792239,31.0112866084227],[121.682056276694,31.0112866084227],[121.688868903077,31.0198633187299],[121.666911330485,31.0198633187299],[121.660099933895,31.0112866084227],[121.649121762047,31.0112866084227],[121.642313932667,31.0027101888576],[121.631336375266,31.0027101888576],[121.638143590199,31.0112866084227],[121.62716541835,31.0112866084227],[121.633974970699,31.0198633187299],[121.601038611811,31.0198633187299],[121.594230902805,31.0112866084227],[121.583252730957,31.0112866084227],[121.576448588263,31.0027101888576],[121.565471030862,31.0027101888576],[121.572274559108,31.0112866084227],[121.550318215412,31.0112866084227],[121.543515916061,31.0027101888576],[121.53253835866,31.0027101888576],[121.512150996269,30.9769826810199],[121.523126712123,30.9769826810199],[121.516336204957,30.9684074269774],[121.52731130816,30.9684074269774],[121.513737900761,30.9512577930459],[121.502764023758,30.9512577930459],[121.489203613184,30.9341093227549],[121.500176264885,30.9341093227549],[121.493399858574,30.9255355236472],[121.526315978418,30.9255355236472],[121.499232394236,30.8912432302954],[121.477293204768,30.8912432302954],[121.484058472869,30.8998158684353],[121.429207444028,30.8998158684353],[121.435972592653,30.908388796465],[121.403060142426,30.908388796465],[121.396296827263,30.8998158684353],[121.363386209599,30.8998158684353],[121.370147691301,30.908388796465],[121.381118508642,30.908388796465],[121.401422396882,30.9341093227549],[121.412395048583,30.9341093227549],[121.425946886534,30.9512577930459],[121.414973009531,30.9512577930459],[121.428535383821,30.9684074269774],[121.417560281516,30.9684074269774],[121.424345269434,30.9769826810199],[121.413369553579,30.9769826810199],[121.420156870828,30.9855582251317],[121.387227882617,30.9855582251317],[121.380442405118,30.9769826810199],[121.325563825846,30.9769826810199],[121.339131586435,30.994134061214],[121.328154643482,30.994134061214],[121.334942324549,31.0027101888576],[121.312987209747,31.0027101888576],[121.306200756678,30.994134061214],[121.295223813725,30.994134061214],[121.288440917085,30.9855582251317],[121.255511928874,30.9855582251317],[121.248733813967,30.9769826810199],[121.226782382258,30.9769826810199],[121.220008434636,30.9684074269774],[121.187083126823,30.9684074269774],[121.180313955542,30.9598324649535],[121.169339465888,30.9598324649535],[121.176108023619,30.9684074269774],[121.154157819009,30.9684074269774],[121.167701292746,30.9855582251317],[121.156724963343,30.9855582251317],[121.163500493797,30.994134061214],[121.141546606992,30.994134061214],[121.134772303637,30.9855582251317],[121.123795974233,30.9855582251317],[121.117025222816,30.9769826810199],[121.106049506962,30.9769826810199],[121.11281964483,30.9855582251317],[121.101843315426,30.9855582251317],[121.135735016449,31.028440320909],[121.146714417192,31.028440320909],[121.153502197074,31.03701761532],[121.164482214062,31.03701761532],[121.184865073198,31.0627512516872],[121.173883209274,31.0627512516872],[121.187485289999,31.0799084703366],[121.176502193586,31.0799084703366],[121.183307043254,31.088487517981],[121.161339617042,31.088487517981],[121.168146183391,31.0970668595979],[121.157161853591,31.0970668595979],[121.16397075556,31.1056464932371],[121.152985807719,31.1056464932371],[121.173428385958,31.131387152939],[121.162441584893,31.131387152939],[121.16926107171,31.1399679590089],[121.125311394388,31.1399679590089],[121.118494381531,31.131387152939],[121.063560376206,31.131387152939],[121.084011006943,31.1571304521566],[121.073022349958,31.1571304521566],[121.07984452184,31.1657121384088],[121.068855245018,31.1657121384088],[121.082507227157,31.182876394354],[121.071516712457,31.182876394354],[121.085179298309,31.2000418249511],[121.074187543035,31.2000418249511],[121.081022659641,31.2086249822073],[121.070030283631,31.2086249822073],[121.076867744839,31.217208433806],[121.131832728566,31.217208433806],[121.124992164577,31.2086249822073],[121.135984540587,31.2086249822073],[121.129146321201,31.2000418249511],[121.16212158792,31.2000418249511],[121.168961668616,31.2086249822073],[121.179954044625,31.2086249822073],[121.193644349793,31.2257921793329],[121.182650731413,31.2257921793329],[121.189499716209,31.23437621991],[121.178505477094,31.23437621991],[121.185356809188,31.2429605543546],[121.174361948438,31.2429605543546],[121.181215630526,31.2515451845561],[121.15922466486,31.2515451845561],[121.152372226939,31.2429605543546],[121.141377366189,31.2429605543546],[121.134528519733,31.23437621991],[121.123534280618,31.23437621991],[121.13038250544,31.2429605543546],[121.11938764469,31.2429605543546],[121.12623821681,31.2515451845561],[121.115242734426,31.2515451845561],[121.128951548481,31.268715329033],[121.117954821032,31.268715329033],[121.124813064764,31.2773008440137],[121.080823664839,31.2773008440137],[121.073967912135,31.268715329033],[121.062971184686,31.268715329033],[121.069826314857,31.2773008440137],[121.058828964876,31.2773008440137],[121.065686444142,31.2858866546255],[121.054688471628,31.2858866546255],[121.061548301785,31.2944727604525],[121.05054970584,31.2944727604525],[121.057411886888,31.3030591618464],[121.035413447239,31.3030591618464],[121.042277356646,31.3116458583911],[121.064277044055,31.3116458583911],[121.07114517734,31.3202328512053],[121.082145644476,31.3202328512053],[121.089017380903,31.3288201398722],[121.122020656195,31.3288201398722],[121.115147047678,31.3202328512053],[121.137147981949,31.3202328512053],[121.144022840022,31.3288201398722],[121.155023931487,31.3288201398722],[121.168783840817,31.3459956053994],[121.157781499796,31.3459956053994],[121.164665304191,31.3545837821927],[121.153662337044,31.3545837821927],[121.160548501314,31.3631722554724],[121.138541317464,31.3631722554724],[121.152320100398,31.3803500921216],[121.141315257569,31.3803500921216],[121.148208503258,31.3889394554224],[121.137203033405,31.3889394554224],[121.144098642561,31.3975291150722],[121.15510473854,31.3975291150722],[121.162003963415,31.4061190721863],[121.17301068552,31.4061190721863],[121.186819364387,31.4232998771333],[121.175811387336,31.4232998771333],[121.182719589974,31.4318907256617],[121.160702380926,31.4318907256617],[121.153795433234,31.4232998771333],[121.142787456182,31.4232998771333],[121.135884129599,31.4147093263462],[121.080847381261,31.4147093263462],[121.087747570927,31.4232998771333],[121.076739593875,31.4232998771333],[121.083642148806,31.4318907256617],[121.061624939757,31.4318907256617],[121.068529230232,31.4404818715125],[121.057519998235,31.4404818715125],[121.071336305595,31.4576650558028],[121.060325816854,31.4576650558028],[121.067237833739,31.4662570949359],[121.034204481055,31.4662570949359],[121.048033733139,31.4834420666109],[121.070058484443,31.4834420666109],[121.07697886644,31.4920349990786],[121.08799187226,31.4920349990786],[121.09491588345,31.5006282305268],[121.105929518091,31.5006282305268],[121.112857162069,31.5092217597687],[121.134885691687,31.5092217597687],[121.127956788271,31.5006282305268]],[[121.680263286997,31.1056464932371],[121.647308445272,31.1056464932371],[121.640472380945,31.0970668595979],[121.629488051145,31.0970668595979],[121.602175890639,31.0627512516872],[121.613157753665,31.0627512516872],[121.599518199718,31.0455952023218],[121.610498831154,31.0455952023218],[121.603682873817,31.03701761532],[121.636622923882,31.03701761532],[121.643440727257,31.0455952023218],[121.654421359591,31.0455952023218],[121.647602939972,31.03701761532],[121.669562973049,31.03701761532],[121.67638262336,31.0455952023218],[121.687363254796,31.0455952023218],[121.701012663261,31.0627512516872],[121.690030799337,31.0627512516872],[121.703690819601,31.0799084703366],[121.692707723188,31.0799084703366],[121.699541560593,31.088487517981],[121.688557847037,31.088487517981],[121.695394031739,31.0970668595979],[121.67342537214,31.0970668595979],[121.680263286997,31.1056464932371]]]}}]}