{"type":"FeatureCollection","name":"shanghai_facilities","crs":{"type":"name","properties":{"name":"urn:ogc:def:crs:OGC:1.3:CRS84"}},"features":[{"type":"Feature","properties":{"facility_id":"osm_node_11224212181","osm_id":"11224212181","name":"青少年活动中心","category":"community","category_zh":"社区服务","amenity":"community_centre","railway":null,"source":"OpenStreetMap"},"geometry":{"type":"Point","coordinates":[121.4588799,31.2086928]}},{"type":"Feature","properties":{"facility_id":"osm_node_13816433415","osm_id":"13816433415","name":"未命名设施","category":"community","category_zh":"社区服务","amenity":"community_centre","railway":null,"source":"OpenStreetMap"},"geometry":{"type":"Point","coordinates":[121.4779149,31.2118242]}},{"type":"Feature","properties":{"facility_id":"osm_node_13819790431","osm_id":"13819790431","name":"上海公共交通卡服务中心","category":"community","category_zh":"社区服务","amenity":"community_centre","railway":null,"source":"OpenStreetMap"},"geometry":{"type":"Point","coordinates":[121.4796814,31.2132881]}},{"type":"Feature","properties":{"facility_id":"osm_node_13819790441","osm_id":"13819790441","name":"COMA club","category":"community","category_zh":"社区服务","amenity":"community_centre","railway":null,"source":"OpenStreetMap"},"geometry":{"type":"Point","coordinates":[121.4804854,31.2139409]}},{"type":"Feature","properties":{"facility_id":"osm_node_13826596459","osm_id":"13826596459","name":"上海市档案服务和教育中心","category":"community","category_zh":"社区服务","amenity":"community_centre","railway":null,"source":"OpenStreetMap"},"geometry":{"type":"Point","coordinates":[121.4810983,31.2089122]}},{"type":"Feature","properties":{"facility_id":"osm_node_13826596460","osm_id":"13826596460","name":"上铁文旅传媒火车票代售处","category":"community","category_zh":"社区服务","amenity":"community_centre","railway":null,"source":"OpenStreetMap"},"geometry":{"type":"Point","coordinates":[121.4810056,31.2088448]}},{"type":"Feature","properties":{"facility_id":"osm_node_4404128889","osm_id":"4404128889","name":"人才发展服务中心","category":"community","category_zh":"社区服务","amenity":"community_centre","railway":null,"source":"OpenStreetMap"},"geometry":{"type":"Point","coordinates":[121.4787198,31.229013]}},{"type":"Feature","properties":{"facility_id":"osm_node_5040967722","osm_id":"5040967722","name":"思南88","category":"community","category_zh":"社区服务","amenity":"community_centre","railway":null,"source":"OpenStreetMap"},"geometry":{"type":"Point","coordinates":[121.4662939,31.2107036]}},{"type":"Feature","properties":{"facility_id":"osm_node_6878130760","osm_id":"6878130760","name":"上海市科协一门式服务中心","category":"community","category_zh":"社区服务","amenity":"community_centre","railway":null,"source":"OpenStreetMap"},"geometry":{"type":"Point","coordinates":[121.4626331,31.2203317]}},{"type":"Feature","properties":{"facility_id":"osm_node_12564874570","osm_id":"12564874570","name":"城市书房","category":"culture","category_zh":"文化","amenity":"library","railway":null,"source":"OpenStreetMap"},"geometry":{"type":"Point","coordinates":[121.4741785,31.2338809]}},{"type":"Feature","properties":{"facility_id":"osm_node_11182234176","osm_id":"11182234176","name":"星光幼儿园","category":"education","category_zh":"教育","amenity":"kindergarten","railway":null,"source":"OpenStreetMap"},"geometry":{"type":"Point","coordinates":[121.4735888,31.2401078]}},{"type":"Feature","properties":{"facility_id":"osm_node_12314039289","osm_id":"12314039289","name":"同济黄浦设计创意中学","category":"education","category_zh":"教育","amenity":"school","railway":null,"source":"OpenStreetMap"},"geometry":{"type":"Point","coordinates":[121.4816287,31.2439413]}},{"type":"Feature","properties":{"facility_id":"osm_node_12314101777","osm_id":"12314101777","name":"同济黄浦设计创意中学（虎丘路校区）","category":"education","category_zh":"教育","amenity":"school","railway":null,"source":"OpenStreetMap"},"geometry":{"type":"Point","coordinates":[121.4827178,31.2444389]}},{"type":"Feature","properties":{"facility_id":"osm_node_12409735001","osm_id":"12409735001","name":"九龙路幼儿园","category":"education","category_zh":"教育","amenity":"kindergarten","railway":null,"source":"OpenStreetMap"},"geometry":{"type":"Point","coordinates":[121.4812655,31.2540587]}},{"type":"Feature","properties":{"facility_id":"osm_node_13816404364","osm_id":"13816404364","name":"上海建设管理职业技术学校","category":"education","category_zh":"教育","amenity":"university","railway":null,"source":"OpenStreetMap"},"geometry":{"type":"Point","coordinates":[121.48154,31.2117103]}},{"type":"Feature","properties":{"facility_id":"osm_node_4352634947","osm_id":"4352634947","name":"未命名设施","category":"education","category_zh":"教育","amenity":"school","railway":null,"source":"OpenStreetMap"},"geometry":{"type":"Point","coordinates":[121.4578279,31.2351863]}},{"type":"Feature","properties":{"facility_id":"osm_node_4366077862","osm_id":"4366077862","name":"未命名设施","category":"education","category_zh":"教育","amenity":"school","railway":null,"source":"OpenStreetMap"},"geometry":{"type":"Point","coordinates":[121.4648142,31.2300656]}},{"type":"Feature","properties":{"facility_id":"osm_node_4450117996","osm_id":"4450117996","name":"未命名设施","category":"education","category_zh":"教育","amenity":"school","railway":null,"source":"OpenStreetMap"},"geometry":{"type":"Point","coordinates":[121.4799108,31.2459802]}},{"type":"Feature","properties":{"facility_id":"osm_node_4588193790","osm_id":"4588193790","name":"上海交通大学医学院（西院）","category":"education","category_zh":"教育","amenity":"school","railway":null,"source":"OpenStreetMap"},"geometry":{"type":"Point","coordinates":[121.4653415,31.213944]}},{"type":"Feature","properties":{"facility_id":"osm_node_4588228289","osm_id":"4588228289","name":"上海交通大学医学院(东院)","category":"education","category_zh":"教育","amenity":"school","railway":null,"source":"OpenStreetMap"},"geometry":{"type":"Point","coordinates":[121.4680316,31.2143785]}},{"type":"Feature","properties":{"facility_id":"osm_node_4765651024","osm_id":"4765651024","name":"未命名设施","category":"education","category_zh":"教育","amenity":"school","railway":null,"source":"OpenStreetMap"},"geometry":{"type":"Point","coordinates":[121.4849977,31.2503941]}},{"type":"Feature","properties":{"facility_id":"osm_node_5034681528","osm_id":"5034681528","name":"汉院中国语学校","category":"education","category_zh":"教育","amenity":"school","railway":null,"source":"OpenStreetMap"},"geometry":{"type":"Point","coordinates":[121.4601378,31.2185995]}},{"type":"Feature","properties":{"facility_id":"osm_node_5042033125","osm_id":"5042033125","name":"上海市老年大学","category":"education","category_zh":"教育","amenity":"college","railway":null,"source":"OpenStreetMap"},"geometry":{"type":"Point","coordinates":[121.4721526,31.2065877]}},{"type":"Feature","properties":{"facility_id":"osm_node_6330060685","osm_id":"6330060685","name":"静教院附校","category":"education","category_zh":"教育","amenity":"school","railway":null,"source":"OpenStreetMap"},"geometry":{"type":"Point","coordinates":[121.4447706,31.2397172]}},{"type":"Feature","properties":{"facility_id":"osm_node_6885245483","osm_id":"6885245483","name":"未命名设施","category":"education","category_zh":"教育","amenity":"school","railway":null,"source":"OpenStreetMap"},"geometry":{"type":"Point","coordinates":[121.4809485,31.2255119]}},{"type":"Feature","properties":{"facility_id":"osm_node_8324181606","osm_id":"8324181606","name":"未命名设施","category":"education","category_zh":"教育","amenity":"school","railway":null,"source":"OpenStreetMap"},"geometry":{"type":"Point","coordinates":[121.4584051,31.2163693]}},{"type":"Feature","properties":{"facility_id":"osm_node_13472892028","osm_id":"13472892028","name":"湖南街道社区卫生服务中心","category":"healthcare","category_zh":"医疗","amenity":"hospital","railway":null,"source":"OpenStreetMap"},"geometry":{"type":"Point","coordinates":[121.4533023,31.2189706]}},{"type":"Feature","properties":{"facility_id":"osm_node_13814190888","osm_id":"13814190888","name":"上海市黄浦区顺昌医院","category":"healthcare","category_zh":"医疗","amenity":"hospital","railway":null,"source":"OpenStreetMap"},"geometry":{"type":"Point","coordinates":[121.4775963,31.2098007]}},{"type":"Feature","properties":{"facility_id":"osm_node_13819790443","osm_id":"13819790443","name":"德馨医院","category":"healthcare","category_zh":"医疗","amenity":"hospital","railway":null,"source":"OpenStreetMap"},"geometry":{"type":"Point","coordinates":[121.4799987,31.2137733]}},{"type":"Feature","properties":{"facility_id":"osm_node_13819915103","osm_id":"13819915103","name":"艾香堂寇式减肥","category":"healthcare","category_zh":"医疗","amenity":"hospital","railway":null,"source":"OpenStreetMap"},"geometry":{"type":"Point","coordinates":[121.480459,31.2143533]}},{"type":"Feature","properties":{"facility_id":"osm_node_13826596431","osm_id":"13826596431","name":"铂悦佳门诊部","category":"healthcare","category_zh":"医疗","amenity":"hospital","railway":null,"source":"OpenStreetMap"},"geometry":{"type":"Point","coordinates":[121.4815096,31.2094087]}},{"type":"Feature","properties":{"facility_id":"osm_node_1812133572","osm_id":"1812133572","name":"未命名设施","category":"healthcare","category_zh":"医疗","amenity":"hospital","railway":null,"source":"OpenStreetMap"},"geometry":{"type":"Point","coordinates":[121.4905969,31.2242716]}},{"type":"Feature","properties":{"facility_id":"osm_node_4397361410","osm_id":"4397361410","name":"未命名设施","category":"healthcare","category_zh":"医疗","amenity":"clinic","railway":null,"source":"OpenStreetMap"},"geometry":{"type":"Point","coordinates":[121.4629295,31.2308041]}},{"type":"Feature","properties":{"facility_id":"osm_node_4397361423","osm_id":"4397361423","name":"未命名设施","category":"healthcare","category_zh":"医疗","amenity":"clinic","railway":null,"source":"OpenStreetMap"},"geometry":{"type":"Point","coordinates":[121.4629612,31.2316712]}},{"type":"Feature","properties":{"facility_id":"osm_node_4794353921","osm_id":"4794353921","name":"上海国宾医疗中心","category":"healthcare","category_zh":"医疗","amenity":"hospital","railway":null,"source":"OpenStreetMap"},"geometry":{"type":"Point","coordinates":[121.4462509,31.2317825]}},{"type":"Feature","properties":{"facility_id":"osm_node_5063146321","osm_id":"5063146321","name":"瑞金医院感染门诊","category":"healthcare","category_zh":"医疗","amenity":"hospital","railway":null,"source":"OpenStreetMap"},"geometry":{"type":"Point","coordinates":[121.4649069,31.2124281]}},{"type":"Feature","properties":{"facility_id":"osm_node_6168043743","osm_id":"6168043743","name":"第九人民医院黄浦区分院","category":"healthcare","category_zh":"医疗","amenity":"hospital","railway":null,"source":"OpenStreetMap"},"geometry":{"type":"Point","coordinates":[121.4903402,31.2114562]}},{"type":"Feature","properties":{"facility_id":"osm_node_6467392385","osm_id":"6467392385","name":"未命名设施","category":"healthcare","category_zh":"医疗","amenity":"clinic","railway":null,"source":"OpenStreetMap"},"geometry":{"type":"Point","coordinates":[121.4466278,31.2079979]}},{"type":"Feature","properties":{"facility_id":"osm_node_7099706378","osm_id":"7099706378","name":"未命名设施","category":"healthcare","category_zh":"医疗","amenity":"clinic","railway":null,"source":"OpenStreetMap"},"geometry":{"type":"Point","coordinates":[121.4742449,31.224446]}},{"type":"Feature","properties":{"facility_id":"osm_node_7597767859","osm_id":"7597767859","name":"半淞园社区卫生中心","category":"healthcare","category_zh":"医疗","amenity":"hospital","railway":null,"source":"OpenStreetMap"},"geometry":{"type":"Point","coordinates":[121.4827826,31.2088351]}},{"type":"Feature","properties":{"facility_id":"osm_node_7597767860","osm_id":"7597767860","name":"打浦桥社区卫生中心","category":"healthcare","category_zh":"医疗","amenity":"hospital","railway":null,"source":"OpenStreetMap"},"geometry":{"type":"Point","coordinates":[121.4743614,31.2086587]}},{"type":"Feature","properties":{"facility_id":"osm_node_7597767862","osm_id":"7597767862","name":"老西门社区卫生中心","category":"healthcare","category_zh":"医疗","amenity":"hospital","railway":null,"source":"OpenStreetMap"},"geometry":{"type":"Point","coordinates":[121.4850195,31.2183126]}},{"type":"Feature","properties":{"facility_id":"osm_node_7727711485","osm_id":"7727711485","name":"优复门诊","category":"healthcare","category_zh":"医疗","amenity":"clinic","railway":null,"source":"OpenStreetMap"},"geometry":{"type":"Point","coordinates":[121.4601854,31.2273286]}},{"type":"Feature","properties":{"facility_id":"osm_node_9076216313","osm_id":"9076216313","name":"睿宝儿科","category":"healthcare","category_zh":"医疗","amenity":"clinic","railway":null,"source":"OpenStreetMap"},"geometry":{"type":"Point","coordinates":[121.480432,31.2275085]}},{"type":"Feature","properties":{"facility_id":"osm_node_13787302801","osm_id":"13787302801","name":"未命名设施","category":"park","category_zh":"公园","amenity":null,"railway":null,"source":"OpenStreetMap"},"geometry":{"type":"Point","coordinates":[121.4600765,31.2325197]}},{"type":"Feature","properties":{"facility_id":"osm_node_14026617302","osm_id":"14026617302","name":"fudeli","category":"park","category_zh":"公园","amenity":null,"railway":null,"source":"OpenStreetMap"},"geometry":{"type":"Point","coordinates":[121.4609112,31.2261221]}},{"type":"Feature","properties":{"facility_id":"osm_node_14026617303","osm_id":"14026617303","name":"сад юйюань","category":"park","category_zh":"公园","amenity":null,"railway":null,"source":"OpenStreetMap"},"geometry":{"type":"Point","coordinates":[121.487284,31.2295575]}},{"type":"Feature","properties":{"facility_id":"osm_node_11201862443","osm_id":"11201862443","name":"天潼路","category":"transit","category_zh":"公共交通","amenity":null,"railway":"station","source":"OpenStreetMap"},"geometry":{"type":"Point","coordinates":[121.4779624,31.2457831]}},{"type":"Feature","properties":{"facility_id":"osm_node_1168461412","osm_id":"1168461412","name":"未命名设施","category":"transit","category_zh":"公共交通","amenity":null,"railway":"subway_entrance","source":"OpenStreetMap"},"geometry":{"type":"Point","coordinates":[121.4448992,31.2152134]}},{"type":"Feature","properties":{"facility_id":"osm_node_1172174594","osm_id":"1172174594","name":"20","category":"transit","category_zh":"公共交通","amenity":null,"railway":"subway_entrance","source":"OpenStreetMap"},"geometry":{"type":"Point","coordinates":[121.4702595,31.2352305]}},{"type":"Feature","properties":{"facility_id":"osm_node_1172174596","osm_id":"1172174596","name":"电梯","category":"transit","category_zh":"公共交通","amenity":null,"railway":"subway_entrance","source":"OpenStreetMap"},"geometry":{"type":"Point","coordinates":[121.4706298,31.2346896]}},{"type":"Feature","properties":{"facility_id":"osm_node_1172174599","osm_id":"1172174599","name":"11","category":"transit","category_zh":"公共交通","amenity":null,"railway":"subway_entrance","source":"OpenStreetMap"},"geometry":{"type":"Point","coordinates":[121.4666349,31.2339643]}},{"type":"Feature","properties":{"facility_id":"osm_node_13463724558","osm_id":"13463724558","name":"7","category":"transit","category_zh":"公共交通","amenity":null,"railway":"subway_entrance","source":"OpenStreetMap"},"geometry":{"type":"Point","coordinates":[121.4988593,31.2383774]}},{"type":"Feature","properties":{"facility_id":"osm_node_13523609128","osm_id":"13523609128","name":"未命名设施","category":"transit","category_zh":"公共交通","amenity":null,"railway":"subway_entrance","source":"OpenStreetMap"},"geometry":{"type":"Point","coordinates":[121.4717697,31.2536714]}},{"type":"Feature","properties":{"facility_id":"osm_node_1774541411","osm_id":"1774541411","name":"未命名设施","category":"transit","category_zh":"公共交通","amenity":null,"railway":"subway_entrance","source":"OpenStreetMap"},"geometry":{"type":"Point","coordinates":[121.4756074,31.2288566]}},{"type":"Feature","properties":{"facility_id":"osm_node_1779952822","osm_id":"1779952822","name":"6","category":"transit","category_zh":"公共交通","amenity":null,"railway":"subway_entrance","source":"OpenStreetMap"},"geometry":{"type":"Point","coordinates":[121.498392,31.2392297]}},{"type":"Feature","properties":{"facility_id":"osm_node_1779952830","osm_id":"1779952830","name":"2","category":"transit","category_zh":"公共交通","amenity":null,"railway":"subway_entrance","source":"OpenStreetMap"},"geometry":{"type":"Point","coordinates":[121.4976354,31.2405112]}},{"type":"Feature","properties":{"facility_id":"osm_node_1880216515","osm_id":"1880216515","name":"未命名设施","category":"transit","category_zh":"公共交通","amenity":null,"railway":"subway_entrance","source":"OpenStreetMap"},"geometry":{"type":"Point","coordinates":[121.4800636,31.2540456]}},{"type":"Feature","properties":{"facility_id":"osm_node_1880216520","osm_id":"1880216520","name":"未命名设施","category":"transit","category_zh":"公共交通","amenity":null,"railway":"subway_entrance","source":"OpenStreetMap"},"geometry":{"type":"Point","coordinates":[121.4793354,31.2533426]}},{"type":"Feature","properties":{"facility_id":"osm_node_1890935410","osm_id":"1890935410","name":"2","category":"transit","category_zh":"公共交通","amenity":null,"railway":"subway_entrance","source":"OpenStreetMap"},"geometry":{"type":"Point","coordinates":[121.4709588,31.2337177]}},{"type":"Feature","properties":{"facility_id":"osm_node_1990174510","osm_id":"1990174510","name":"16","category":"transit","category_zh":"公共交通","amenity":null,"railway":"subway_entrance","source":"OpenStreetMap"},"geometry":{"type":"Point","coordinates":[121.4707883,31.2344383]}},{"type":"Feature","properties":{"facility_id":"osm_node_1990203580","osm_id":"1990203580","name":"14","category":"transit","category_zh":"公共交通","amenity":null,"railway":"subway_entrance","source":"OpenStreetMap"},"geometry":{"type":"Point","coordinates":[121.4714177,31.2349588]}},{"type":"Feature","properties":{"facility_id":"osm_node_1990203594","osm_id":"1990203594","name":"17","category":"transit","category_zh":"公共交通","amenity":null,"railway":"subway_entrance","source":"OpenStreetMap"},"geometry":{"type":"Point","coordinates":[121.4699181,31.2348496]}},{"type":"Feature","properties":{"facility_id":"osm_node_1990203597","osm_id":"1990203597","name":"18","category":"transit","category_zh":"公共交通","amenity":null,"railway":"subway_entrance","source":"OpenStreetMap"},"geometry":{"type":"Point","coordinates":[121.4692669,31.2349836]}},{"type":"Feature","properties":{"facility_id":"osm_node_1990203599","osm_id":"1990203599","name":"19","category":"transit","category_zh":"公共交通","amenity":null,"railway":"subway_entrance","source":"OpenStreetMap"},"geometry":{"type":"Point","coordinates":[121.4697987,31.2359577]}},{"type":"Feature","properties":{"facility_id":"osm_node_1990203600","osm_id":"1990203600","name":"8","category":"transit","category_zh":"公共交通","amenity":"bus_station","railway":"subway_entrance","source":"OpenStreetMap"},"geometry":{"type":"Point","coordinates":[121.4679833,31.2354919]}},{"type":"Feature","properties":{"facility_id":"osm_node_2055145678","osm_id":"2055145678","name":"未命名设施","category":"transit","category_zh":"公共交通","amenity":null,"railway":"subway_entrance","source":"OpenStreetMap"},"geometry":{"type":"Point","coordinates":[121.4645219,31.2090026]}},{"type":"Feature","properties":{"facility_id":"osm_node_2613109944","osm_id":"2613109944","name":"9","category":"transit","category_zh":"公共交通","amenity":null,"railway":"subway_entrance","source":"OpenStreetMap"},"geometry":{"type":"Point","coordinates":[121.443982,31.2241486]}},{"type":"Feature","properties":{"facility_id":"osm_node_2613111185","osm_id":"2613111185","name":"未命名设施","category":"transit","category_zh":"公共交通","amenity":null,"railway":"subway_entrance","source":"OpenStreetMap"},"geometry":{"type":"Point","coordinates":[121.4439228,31.2256176]}},{"type":"Feature","properties":{"facility_id":"osm_node_2613113524","osm_id":"2613113524","name":"8","category":"transit","category_zh":"公共交通","amenity":null,"railway":"subway_entrance","source":"OpenStreetMap"},"geometry":{"type":"Point","coordinates":[121.4447225,31.2241317]}},{"type":"Feature","properties":{"facility_id":"osm_node_2629533653","osm_id":"2629533653","name":"未命名设施","category":"transit","category_zh":"公共交通","amenity":null,"railway":"subway_entrance","source":"OpenStreetMap"},"geometry":{"type":"Point","coordinates":[121.471016,31.2185872]}},{"type":"Feature","properties":{"facility_id":"osm_node_2629533658","osm_id":"2629533658","name":"未命名设施","category":"transit","category_zh":"公共交通","amenity":null,"railway":"subway_entrance","source":"OpenStreetMap"},"geometry":{"type":"Point","coordinates":[121.4712814,31.2183563]}},{"type":"Feature","properties":{"facility_id":"osm_node_2629533667","osm_id":"2629533667","name":"未命名设施","category":"transit","category_zh":"公共交通","amenity":null,"railway":"subway_entrance","source":"OpenStreetMap"},"geometry":{"type":"Point","coordinates":[121.4701791,31.2184083]}},{"type":"Feature","properties":{"facility_id":"osm_node_2629537093","osm_id":"2629537093","name":"1","category":"transit","category_zh":"公共交通","amenity":null,"railway":"subway_entrance","source":"OpenStreetMap"},"geometry":{"type":"Point","coordinates":[121.4785355,31.2212096]}},{"type":"Feature","properties":{"facility_id":"osm_node_2629537094","osm_id":"2629537094","name":"5","category":"transit","category_zh":"公共交通","amenity":null,"railway":"subway_entrance","source":"OpenStreetMap"},"geometry":{"type":"Point","coordinates":[121.4778854,31.2211806]}},{"type":"Feature","properties":{"facility_id":"osm_node_2629537095","osm_id":"2629537095","name":"4","category":"transit","category_zh":"公共交通","amenity":null,"railway":"subway_entrance","source":"OpenStreetMap"},"geometry":{"type":"Point","coordinates":[121.4782963,31.2206077]}},{"type":"Feature","properties":{"facility_id":"osm_node_2629537096","osm_id":"2629537096","name":"3","category":"transit","category_zh":"公共交通","amenity":null,"railway":"subway_entrance","source":"OpenStreetMap"},"geometry":{"type":"Point","coordinates":[121.4784739,31.2203902]}},{"type":"Feature","properties":{"facility_id":"osm_node_2629537097","osm_id":"2629537097","name":"未命名设施","category":"transit","category_zh":"公共交通","amenity":null,"railway":"subway_entrance","source":"OpenStreetMap"},"geometry":{"type":"Point","coordinates":[121.4788789,31.2206431]}},{"type":"Feature","properties":{"facility_id":"osm_node_2629537098","osm_id":"2629537098","name":"未命名设施","category":"transit","category_zh":"公共交通","amenity":null,"railway":"subway_entrance","source":"OpenStreetMap"},"geometry":{"type":"Point","coordinates":[121.480039,31.2208434]}},{"type":"Feature","properties":{"facility_id":"osm_node_2629537099","osm_id":"2629537099","name":"6","category":"transit","category_zh":"公共交通","amenity":null,"railway":"subway_entrance","source":"OpenStreetMap"},"geometry":{"type":"Point","coordinates":[121.4799558,31.2215442]}},{"type":"Feature","properties":{"facility_id":"osm_node_2703743734","osm_id":"2703743734","name":"1","category":"transit","category_zh":"公共交通","amenity":null,"railway":"subway_entrance","source":"OpenStreetMap"},"geometry":{"type":"Point","coordinates":[121.4971344,31.2407209]}},{"type":"Feature","properties":{"facility_id":"osm_node_2703743735","osm_id":"2703743735","name":"3","category":"transit","category_zh":"公共交通","amenity":null,"railway":"subway_entrance","source":"OpenStreetMap"},"geometry":{"type":"Point","coordinates":[121.4984289,31.2402422]}},{"type":"Feature","properties":{"facility_id":"osm_node_2703744769","osm_id":"2703744769","name":"5","category":"transit","category_zh":"公共交通","amenity":null,"railway":"subway_entrance","source":"OpenStreetMap"},"geometry":{"type":"Point","coordinates":[121.4988172,31.239681]}},{"type":"Feature","properties":{"facility_id":"osm_node_3045679345","osm_id":"3045679345","name":"6号口","category":"transit","category_zh":"公共交通","amenity":null,"railway":"subway_entrance","source":"OpenStreetMap"},"geometry":{"type":"Point","coordinates":[121.4721713,31.2116455]}},{"type":"Feature","properties":{"facility_id":"osm_node_3045714550","osm_id":"3045714550","name":"3号口","category":"transit","category_zh":"公共交通","amenity":null,"railway":"subway_entrance","source":"OpenStreetMap"},"geometry":{"type":"Point","coordinates":[121.4724503,31.2107921]}},{"type":"Feature","properties":{"facility_id":"osm_node_3045720533","osm_id":"3045720533","name":"1号口","category":"transit","category_zh":"公共交通","amenity":null,"railway":"subway_entrance","source":"OpenStreetMap"},"geometry":{"type":"Point","coordinates":[121.4736841,31.212141]}},{"type":"Feature","properties":{"facility_id":"osm_node_3045722133","osm_id":"3045722133","name":"未命名设施","category":"transit","category_zh":"公共交通","amenity":null,"railway":"subway_entrance","source":"OpenStreetMap"},"geometry":{"type":"Point","coordinates":[121.4647791,31.2077364]}},{"type":"Feature","properties":{"facility_id":"osm_node_3045722233","osm_id":"3045722233","name":"未命名设施","category":"transit","category_zh":"公共交通","amenity":null,"railway":"subway_entrance","source":"OpenStreetMap"},"geometry":{"type":"Point","coordinates":[121.4635346,31.2075988]}},{"type":"Feature","properties":{"facility_id":"osm_node_3045722433","osm_id":"3045722433","name":"未命名设施","category":"transit","category_zh":"公共交通","amenity":null,"railway":"subway_entrance","source":"OpenStreetMap"},"geometry":{"type":"Point","coordinates":[121.4629552,31.2080851]}},{"type":"Feature","properties":{"facility_id":"osm_node_3047840134","osm_id":"3047840134","name":"未命名设施","category":"transit","category_zh":"公共交通","amenity":null,"railway":"subway_entrance","source":"OpenStreetMap"},"geometry":{"type":"Point","coordinates":[121.4563479,31.2197247]}},{"type":"Feature","properties":{"facility_id":"osm_node_3047840135","osm_id":"3047840135","name":"未命名设施","category":"transit","category_zh":"公共交通","amenity":null,"railway":"subway_entrance","source":"OpenStreetMap"},"geometry":{"type":"Point","coordinates":[121.4545294,31.2170801]}},{"type":"Feature","properties":{"facility_id":"osm_node_3047840534","osm_id":"3047840534","name":"未命名设施","category":"transit","category_zh":"公共交通","amenity":null,"railway":"subway_entrance","source":"OpenStreetMap"},"geometry":{"type":"Point","coordinates":[121.4548835,31.2186879]}},{"type":"Feature","properties":{"facility_id":"osm_node_3047841033","osm_id":"3047841033","name":"未命名设施","category":"transit","category_zh":"公共交通","amenity":null,"railway":"subway_entrance","source":"OpenStreetMap"},"geometry":{"type":"Point","coordinates":[121.4944088,31.2189758]}},{"type":"Feature","properties":{"facility_id":"osm_node_3047841133","osm_id":"3047841133","name":"未命名设施","category":"transit","category_zh":"公共交通","amenity":null,"railway":"subway_entrance","source":"OpenStreetMap"},"geometry":{"type":"Point","coordinates":[121.4941672,31.2183881]}},{"type":"Feature","properties":{"facility_id":"osm_node_3047841233","osm_id":"3047841233","name":"未命名设施","category":"transit","category_zh":"公共交通","amenity":null,"railway":"subway_entrance","source":"OpenStreetMap"},"geometry":{"type":"Point","coordinates":[121.4938654,31.2193784]}},{"type":"Feature","properties":{"facility_id":"osm_node_3047851433","osm_id":"3047851433","name":"未命名设施","category":"transit","category_zh":"公共交通","amenity":null,"railway":"subway_entrance","source":"OpenStreetMap"},"geometry":{"type":"Point","coordinates":[121.4547172,31.2190136]}},{"type":"Feature","properties":{"facility_id":"osm_node_3047851434","osm_id":"3047851434","name":"未命名设施","category":"transit","category_zh":"公共交通","amenity":null,"railway":"subway_entrance","source":"OpenStreetMap"},"geometry":{"type":"Point","coordinates":[121.4804627,31.2402361]}},{"type":"Feature","properties":{"facility_id":"osm_node_3047851533","osm_id":"3047851533","name":"未命名设施","category":"transit","category_zh":"公共交通","amenity":null,"railway":"subway_entrance","source":"OpenStreetMap"},"geometry":{"type":"Point","coordinates":[121.4566001,31.2193898]}},{"type":"Feature","properties":{"facility_id":"osm_node_3047851933","osm_id":"3047851933","name":"未命名设施","category":"transit","category_zh":"公共交通","amenity":null,"railway":"subway_entrance","source":"OpenStreetMap"},"geometry":{"type":"Point","coordinates":[121.4533439,31.2165271]}},{"type":"Feature","properties":{"facility_id":"osm_node_3047854933","osm_id":"3047854933","name":"15","category":"transit","category_zh":"公共交通","amenity":null,"railway":"subway_entrance","source":"OpenStreetMap"},"geometry":{"type":"Point","coordinates":[121.4717924,31.2340099]}},{"type":"Feature","properties":{"facility_id":"osm_node_3047864433","osm_id":"3047864433","name":"未命名设施","category":"transit","category_zh":"公共交通","amenity":null,"railway":"subway_entrance","source":"OpenStreetMap"},"geometry":{"type":"Point","coordinates":[121.479658,31.2401719]}},{"type":"Feature","properties":{"facility_id":"osm_node_3047865033","osm_id":"3047865033","name":"未命名设施","category":"transit","category_zh":"公共交通","amenity":null,"railway":"subway_entrance","source":"OpenStreetMap"},"geometry":{"type":"Point","coordinates":[121.4801515,31.2410342]}},{"type":"Feature","properties":{"facility_id":"osm_node_3047894533","osm_id":"3047894533","name":"7","category":"transit","category_zh":"公共交通","amenity":null,"railway":"subway_entrance","source":"OpenStreetMap"},"geometry":{"type":"Point","coordinates":[121.444239,31.2248439]}},{"type":"Feature","properties":{"facility_id":"osm_node_3053401337","osm_id":"3053401337","name":"未命名设施","category":"transit","category_zh":"公共交通","amenity":null,"railway":"subway_entrance","source":"OpenStreetMap"},"geometry":{"type":"Point","coordinates":[121.4695783,31.2249341]}},{"type":"Feature","properties":{"facility_id":"osm_node_3053402436","osm_id":"3053402436","name":"未命名设施","category":"transit","category_zh":"公共交通","amenity":null,"railway":"subway_entrance","source":"OpenStreetMap"},"geometry":{"type":"Point","coordinates":[121.4445425,31.2146212]}},{"type":"Feature","properties":{"facility_id":"osm_node_3053424537","osm_id":"3053424537","name":"未命名设施","category":"transit","category_zh":"公共交通","amenity":null,"railway":"subway_entrance","source":"OpenStreetMap"},"geometry":{"type":"Point","coordinates":[121.451828,31.2496348]}},{"type":"Feature","properties":{"facility_id":"osm_node_3053426934","osm_id":"3053426934","name":"未命名设施","category":"transit","category_zh":"公共交通","amenity":null,"railway":"subway_entrance","source":"OpenStreetMap"},"geometry":{"type":"Point","coordinates":[121.4685952,31.2249581]}},{"type":"Feature","properties":{"facility_id":"osm_node_3053453933","osm_id":"3053453933","name":"未命名设施","category":"transit","category_zh":"公共交通","amenity":null,"railway":"subway_entrance","source":"OpenStreetMap"},"geometry":{"type":"Point","coordinates":[121.4440919,31.2158966]}},{"type":"Feature","properties":{"facility_id":"osm_node_3053453934","osm_id":"3053453934","name":"未命名设施","category":"transit","category_zh":"公共交通","amenity":null,"railway":"subway_entrance","source":"OpenStreetMap"},"geometry":{"type":"Point","coordinates":[121.4459862,31.2153736]}},{"type":"Feature","properties":{"facility_id":"osm_node_3053454133","osm_id":"3053454133","name":"未命名设施","category":"transit","category_zh":"公共交通","amenity":null,"railway":"subway_entrance","source":"OpenStreetMap"},"geometry":{"type":"Point","coordinates":[121.4454974,31.2146671]}},{"type":"Feature","properties":{"facility_id":"osm_node_3053454134","osm_id":"3053454134","name":"未命名设施","category":"transit","category_zh":"公共交通","amenity":null,"railway":"subway_entrance","source":"OpenStreetMap"},"geometry":{"type":"Point","coordinates":[121.4629769,31.2409303]}},{"type":"Feature","properties":{"facility_id":"osm_node_3053454135","osm_id":"3053454135","name":"未命名设施","category":"transit","category_zh":"公共交通","amenity":null,"railway":"subway_entrance","source":"OpenStreetMap"},"geometry":{"type":"Point","coordinates":[121.4533503,31.2442231]}},{"type":"Feature","properties":{"facility_id":"osm_node_3053454333","osm_id":"3053454333","name":"未命名设施","category":"transit","category_zh":"公共交通","amenity":null,"railway":"subway_entrance","source":"OpenStreetMap"},"geometry":{"type":"Point","coordinates":[121.4468063,31.2155388]}},{"type":"Feature","properties":{"facility_id":"osm_node_3053454334","osm_id":"3053454334","name":"未命名设施","category":"transit","category_zh":"公共交通","amenity":null,"railway":"subway_entrance","source":"OpenStreetMap"},"geometry":{"type":"Point","coordinates":[121.4549586,31.2436814]}},{"type":"Feature","properties":{"facility_id":"osm_node_3053454533","osm_id":"3053454533","name":"未命名设施","category":"transit","category_zh":"公共交通","amenity":null,"railway":"subway_entrance","source":"OpenStreetMap"},"geometry":{"type":"Point","coordinates":[121.4473319,31.2155226]}},{"type":"Feature","properties":{"facility_id":"osm_node_3053456433","osm_id":"3053456433","name":"未命名设施","category":"transit","category_zh":"公共交通","amenity":null,"railway":"subway_entrance","source":"OpenStreetMap"},"geometry":{"type":"Point","coordinates":[121.4680065,31.2242368]}},{"type":"Feature","properties":{"facility_id":"osm_node_3053458733","osm_id":"3053458733","name":"未命名设施","category":"transit","category_zh":"公共交通","amenity":null,"railway":"subway_entrance","source":"OpenStreetMap"},"geometry":{"type":"Point","coordinates":[121.4649356,31.2402763]}},{"type":"Feature","properties":{"facility_id":"osm_node_3053458734","osm_id":"3053458734","name":"未命名设施","category":"transit","category_zh":"公共交通","amenity":null,"railway":"subway_entrance","source":"OpenStreetMap"},"geometry":{"type":"Point","coordinates":[121.4510389,31.249844]}},{"type":"Feature","properties":{"facility_id":"osm_node_3053459833","osm_id":"3053459833","name":"未命名设施","category":"transit","category_zh":"公共交通","amenity":null,"railway":"subway_entrance","source":"OpenStreetMap"},"geometry":{"type":"Point","coordinates":[121.4640361,31.2405004]}},{"type":"Feature","properties":{"facility_id":"osm_node_3053462333","osm_id":"3053462333","name":"未命名设施","category":"transit","category_zh":"公共交通","amenity":null,"railway":"subway_entrance","source":"OpenStreetMap"},"geometry":{"type":"Point","coordinates":[121.4534991,31.2436306]}},{"type":"Feature","properties":{"facility_id":"osm_node_3053472133","osm_id":"3053472133","name":"未命名设施","category":"transit","category_zh":"公共交通","amenity":null,"railway":"subway_entrance","source":"OpenStreetMap"},"geometry":{"type":"Point","coordinates":[121.452744,31.2496079]}},{"type":"Feature","properties":{"facility_id":"osm_node_3053472233","osm_id":"3053472233","name":"未命名设施","category":"transit","category_zh":"公共交通","amenity":null,"railway":"subway_entrance","source":"OpenStreetMap"},"geometry":{"type":"Point","coordinates":[121.4508914,31.2494997]}},{"type":"Feature","properties":{"facility_id":"osm_node_3053472333","osm_id":"3053472333","name":"未命名设施","category":"transit","category_zh":"公共交通","amenity":null,"railway":"subway_entrance","source":"OpenStreetMap"},"geometry":{"type":"Point","coordinates":[121.450658,31.2485421]}},{"type":"Feature","properties":{"facility_id":"osm_node_3053472433","osm_id":"3053472433","name":"未命名设施","category":"transit","category_zh":"公共交通","amenity":null,"railway":"subway_entrance","source":"OpenStreetMap"},"geometry":{"type":"Point","coordinates":[121.4513607,31.248406]}},{"type":"Feature","properties":{"facility_id":"osm_node_3053472633","osm_id":"3053472633","name":"未命名设施","category":"transit","category_zh":"公共交通","amenity":null,"railway":"subway_entrance","source":"OpenStreetMap"},"geometry":{"type":"Point","coordinates":[121.4515297,31.2492635]}},{"type":"Feature","properties":{"facility_id":"osm_node_3053474233","osm_id":"3053474233","name":"未命名设施","category":"transit","category_zh":"公共交通","amenity":null,"railway":"subway_entrance","source":"OpenStreetMap"},"geometry":{"type":"Point","coordinates":[121.4525263,31.2522936]}},{"type":"Feature","properties":{"facility_id":"osm_node_3053474533","osm_id":"3053474533","name":"未命名设施","category":"transit","category_zh":"公共交通","amenity":null,"railway":"subway_entrance","source":"OpenStreetMap"},"geometry":{"type":"Point","coordinates":[121.4531391,31.2519129]}},{"type":"Feature","properties":{"facility_id":"osm_node_3053474633","osm_id":"3053474633","name":"未命名设施","category":"transit","category_zh":"公共交通","amenity":null,"railway":"subway_entrance","source":"OpenStreetMap"},"geometry":{"type":"Point","coordinates":[121.4541985,31.2515001]}},{"type":"Feature","properties":{"facility_id":"osm_node_3080447434","osm_id":"3080447434","name":"未命名设施","category":"transit","category_zh":"公共交通","amenity":null,"railway":"subway_entrance","source":"OpenStreetMap"},"geometry":{"type":"Point","coordinates":[121.4548476,31.2311359]}},{"type":"Feature","properties":{"facility_id":"osm_node_3080460435","osm_id":"3080460435","name":"未命名设施","category":"transit","category_zh":"公共交通","amenity":null,"railway":"subway_entrance","source":"OpenStreetMap"},"geometry":{"type":"Point","coordinates":[121.4560814,31.2320808]}},{"type":"Feature","properties":{"facility_id":"osm_node_3080466733","osm_id":"3080466733","name":"未命名设施","category":"transit","category_zh":"公共交通","amenity":null,"railway":"subway_entrance","source":"OpenStreetMap"},"geometry":{"type":"Point","coordinates":[121.4562638,31.2316864]}},{"type":"Feature","properties":{"facility_id":"osm_node_3080467133","osm_id":"3080467133","name":"未命名设施","category":"transit","category_zh":"公共交通","amenity":null,"railway":"subway_entrance","source":"OpenStreetMap"},"geometry":{"type":"Point","coordinates":[121.4547725,31.2314754]}},{"type":"Feature","properties":{"facility_id":"osm_node_3082184635","osm_id":"3082184635","name":"未命名设施","category":"transit","category_zh":"公共交通","amenity":null,"railway":"subway_entrance","source":"OpenStreetMap"},"geometry":{"type":"Point","coordinates":[121.4710128,31.2532031]}},{"type":"Feature","properties":{"facility_id":"osm_node_3082221135","osm_id":"3082221135","name":"未命名设施","category":"transit","category_zh":"公共交通","amenity":null,"railway":"subway_entrance","source":"OpenStreetMap"},"geometry":{"type":"Point","coordinates":[121.4724076,31.2540103]}},{"type":"Feature","properties":{"facility_id":"osm_node_3100335532","osm_id":"3100335532","name":"公交枢纽","category":"transit","category_zh":"公共交通","amenity":null,"railway":"subway_entrance","source":"OpenStreetMap"},"geometry":{"type":"Point","coordinates":[121.4963704,31.2103813]}},{"type":"Feature","properties":{"facility_id":"osm_node_3100337829","osm_id":"3100337829","name":"未命名设施","category":"transit","category_zh":"公共交通","amenity":null,"railway":"subway_entrance","source":"OpenStreetMap"},"geometry":{"type":"Point","coordinates":[121.4954639,31.2109594]}},{"type":"Feature","properties":{"facility_id":"osm_node_3100337929","osm_id":"3100337929","name":"未命名设施","category":"transit","category_zh":"公共交通","amenity":null,"railway":"subway_entrance","source":"OpenStreetMap"},"geometry":{"type":"Point","coordinates":[121.4940892,31.2101875]}},{"type":"Feature","properties":{"facility_id":"osm_node_3114664536","osm_id":"3114664536","name":"未命名设施","category":"transit","category_zh":"公共交通","amenity":null,"railway":"subway_entrance","source":"OpenStreetMap"},"geometry":{"type":"Point","coordinates":[121.4816148,31.214467]}},{"type":"Feature","properties":{"facility_id":"osm_node_3114664748","osm_id":"3114664748","name":"未命名设施","category":"transit","category_zh":"公共交通","amenity":null,"railway":"subway_entrance","source":"OpenStreetMap"},"geometry":{"type":"Point","coordinates":[121.4746839,31.2284772]}},{"type":"Feature","properties":{"facility_id":"osm_node_3114681035","osm_id":"3114681035","name":"未命名设施","category":"transit","category_zh":"公共交通","amenity":null,"railway":"subway_entrance","source":"OpenStreetMap"},"geometry":{"type":"Point","coordinates":[121.466294,31.2443933]}},{"type":"Feature","properties":{"facility_id":"osm_node_3114681132","osm_id":"3114681132","name":"未命名设施","category":"transit","category_zh":"公共交通","amenity":null,"railway":"subway_entrance","source":"OpenStreetMap"},"geometry":{"type":"Point","coordinates":[121.4789999,31.2205596]}},{"type":"Feature","properties":{"facility_id":"osm_node_3114683433","osm_id":"3114683433","name":"未命名设施","category":"transit","category_zh":"公共交通","amenity":null,"railway":"subway_entrance","source":"OpenStreetMap"},"geometry":{"type":"Point","coordinates":[121.4809925,31.2134944]}},{"type":"Feature","properties":{"facility_id":"osm_node_3114683434","osm_id":"3114683434","name":"未命名设施","category":"transit","category_zh":"公共交通","amenity":null,"railway":"subway_entrance","source":"OpenStreetMap"},"geometry":{"type":"Point","coordinates":[121.4740872,31.2294783]}},{"type":"Feature","properties":{"facility_id":"osm_node_3114683731","osm_id":"3114683731","name":"未命名设施","category":"transit","category_zh":"公共交通","amenity":null,"railway":"subway_entrance","source":"OpenStreetMap"},"geometry":{"type":"Point","coordinates":[121.4682681,31.2445767]}},{"type":"Feature","properties":{"facility_id":"osm_node_3114687033","osm_id":"3114687033","name":"未命名设施","category":"transit","category_zh":"公共交通","amenity":null,"railway":"subway_entrance","source":"OpenStreetMap"},"geometry":{"type":"Point","coordinates":[121.4815745,31.2132805]}},{"type":"Feature","properties":{"facility_id":"osm_node_3114688337","osm_id":"3114688337","name":"未命名设施","category":"transit","category_zh":"公共交通","amenity":null,"railway":"subway_entrance","source":"OpenStreetMap"},"geometry":{"type":"Point","coordinates":[121.4751667,31.2296148]}},{"type":"Feature","properties":{"facility_id":"osm_node_3114703330","osm_id":"3114703330","name":"未命名设施","category":"transit","category_zh":"公共交通","amenity":null,"railway":"subway_entrance","source":"OpenStreetMap"},"geometry":{"type":"Point","coordinates":[121.4649752,31.2550814]}},{"type":"Feature","properties":{"facility_id":"osm_node_3114703429","osm_id":"3114703429","name":"未命名设施","category":"transit","category_zh":"公共交通","amenity":null,"railway":"subway_entrance","source":"OpenStreetMap"},"geometry":{"type":"Point","coordinates":[121.4641686,31.2544748]}},{"type":"Feature","properties":{"facility_id":"osm_node_3114703529","osm_id":"3114703529","name":"未命名设施","category":"transit","category_zh":"公共交通","amenity":null,"railway":"subway_entrance","source":"OpenStreetMap"},"geometry":{"type":"Point","coordinates":[121.4637548,31.2552231]}},{"type":"Feature","properties":{"facility_id":"osm_node_3114843230","osm_id":"3114843230","name":"未命名设施","category":"transit","category_zh":"公共交通","amenity":null,"railway":"subway_entrance","source":"OpenStreetMap"},"geometry":{"type":"Point","coordinates":[121.476962,31.2454663]}},{"type":"Feature","properties":{"facility_id":"osm_node_3114859835","osm_id":"3114859835","name":"未命名设施","category":"transit","category_zh":"公共交通","amenity":null,"railway":"subway_entrance","source":"OpenStreetMap"},"geometry":{"type":"Point","coordinates":[121.4780087,31.2460462]}},{"type":"Feature","properties":{"facility_id":"osm_node_3114871429","osm_id":"3114871429","name":"未命名设施","category":"transit","category_zh":"公共交通","amenity":null,"railway":"subway_entrance","source":"OpenStreetMap"},"geometry":{"type":"Point","coordinates":[121.4778901,31.2471816]}},{"type":"Feature","properties":{"facility_id":"osm_node_3114871629","osm_id":"3114871629","name":"未命名设施","category":"transit","category_zh":"公共交通","amenity":null,"railway":"subway_entrance","source":"OpenStreetMap"},"geometry":{"type":"Point","coordinates":[121.4784533,31.2457782]}},{"type":"Feature","properties":{"facility_id":"osm_node_3114872029","osm_id":"3114872029","name":"未命名设施","category":"transit","category_zh":"公共交通","amenity":null,"railway":"subway_entrance","source":"OpenStreetMap"},"geometry":{"type":"Point","coordinates":[121.4764255,31.2454021]}},{"type":"Feature","properties":{"facility_id":"osm_node_3114872229","osm_id":"3114872229","name":"未命名设施","category":"transit","category_zh":"公共交通","amenity":null,"railway":"subway_entrance","source":"OpenStreetMap"},"geometry":{"type":"Point","coordinates":[121.4775091,31.2459341]}},{"type":"Feature","properties":{"facility_id":"osm_node_3114872429","osm_id":"3114872429","name":"未命名设施","category":"transit","category_zh":"公共交通","amenity":null,"railway":"subway_entrance","source":"OpenStreetMap"},"geometry":{"type":"Point","coordinates":[121.4772785,31.2467322]}},{"type":"Feature","properties":{"facility_id":"osm_node_3114873929","osm_id":"3114873929","name":"未命名设施","category":"transit","category_zh":"公共交通","amenity":null,"railway":"subway_entrance","source":"OpenStreetMap"},"geometry":{"type":"Point","coordinates":[121.4793784,31.2540305]}},{"type":"Feature","properties":{"facility_id":"osm_node_3116485255","osm_id":"3116485255","name":"未命名设施","category":"transit","category_zh":"公共交通","amenity":null,"railway":"subway_entrance","source":"OpenStreetMap"},"geometry":{"type":"Point","coordinates":[121.4940917,31.2526171]}},{"type":"Feature","properties":{"facility_id":"osm_node_3116498432","osm_id":"3116498432","name":"未命名设施","category":"transit","category_zh":"公共交通","amenity":null,"railway":"subway_entrance","source":"OpenStreetMap"},"geometry":{"type":"Point","coordinates":[121.5017647,31.2551045]}},{"type":"Feature","properties":{"facility_id":"osm_node_3116528829","osm_id":"3116528829","name":"未命名设施","category":"transit","category_zh":"公共交通","amenity":null,"railway":"subway_entrance","source":"OpenStreetMap"},"geometry":{"type":"Point","coordinates":[121.494289,31.2521954]}},{"type":"Feature","properties":{"facility_id":"osm_node_3116529229","osm_id":"3116529229","name":"未命名设施","category":"transit","category_zh":"公共交通","amenity":null,"railway":"subway_entrance","source":"OpenStreetMap"},"geometry":{"type":"Point","coordinates":[121.492622,31.2520724]}},{"type":"Feature","properties":{"facility_id":"osm_node_3116529329","osm_id":"3116529329","name":"未命名设施","category":"transit","category_zh":"公共交通","amenity":null,"railway":"subway_entrance","source":"OpenStreetMap"},"geometry":{"type":"Point","coordinates":[121.4929987,31.2516825]}},{"type":"Feature","properties":{"facility_id":"osm_node_3116531429","osm_id":"3116531429","name":"未命名设施","category":"transit","category_zh":"公共交通","amenity":null,"railway":"subway_entrance","source":"OpenStreetMap"},"geometry":{"type":"Point","coordinates":[121.500968,31.2545477]}},{"type":"Feature","properties":{"facility_id":"osm_node_3923186571","osm_id":"3923186571","name":"未命名设施","category":"transit","category_zh":"公共交通","amenity":null,"railway":"subway_entrance","source":"OpenStreetMap"},"geometry":{"type":"Point","coordinates":[121.4549334,31.2174832]}},{"type":"Feature","properties":{"facility_id":"osm_node_3923186767","osm_id":"3923186767","name":"未命名设施","category":"transit","category_zh":"公共交通","amenity":null,"railway":"subway_entrance","source":"OpenStreetMap"},"geometry":{"type":"Point","coordinates":[121.4546437,31.2179328]}},{"type":"Feature","properties":{"facility_id":"osm_node_3923186770","osm_id":"3923186770","name":"未命名设施","category":"transit","category_zh":"公共交通","amenity":null,"railway":"subway_entrance","source":"OpenStreetMap"},"geometry":{"type":"Point","coordinates":[121.455064,31.2426268]}},{"type":"Feature","properties":{"facility_id":"osm_node_3923186771","osm_id":"3923186771","name":"未命名设施","category":"transit","category_zh":"公共交通","amenity":null,"railway":"subway_entrance","source":"OpenStreetMap"},"geometry":{"type":"Point","coordinates":[121.4551962,31.2433496]}},{"type":"Feature","properties":{"facility_id":"osm_node_3923187963","osm_id":"3923187963","name":"未命名设施","category":"transit","category_zh":"公共交通","amenity":null,"railway":"subway_entrance","source":"OpenStreetMap"},"geometry":{"type":"Point","coordinates":[121.4543339,31.2182838]}},{"type":"Feature","properties":{"facility_id":"osm_node_3923187964","osm_id":"3923187964","name":"未命名设施","category":"transit","category_zh":"公共交通","amenity":null,"railway":"subway_entrance","source":"OpenStreetMap"},"geometry":{"type":"Point","coordinates":[121.4544935,31.2428387]}},{"type":"Feature","properties":{"facility_id":"osm_node_3923187965","osm_id":"3923187965","name":"未命名设施","category":"transit","category_zh":"公共交通","amenity":null,"railway":"subway_entrance","source":"OpenStreetMap"},"geometry":{"type":"Point","coordinates":[121.4574036,31.2389125]}},{"type":"Feature","properties":{"facility_id":"osm_node_3923187966","osm_id":"3923187966","name":"未命名设施","category":"transit","category_zh":"公共交通","amenity":null,"railway":"subway_entrance","source":"OpenStreetMap"},"geometry":{"type":"Point","coordinates":[121.4577576,31.2386328]}},{"type":"Feature","properties":{"facility_id":"osm_node_3923187967","osm_id":"3923187967","name":"未命名设施","category":"transit","category_zh":"公共交通","amenity":null,"railway":"subway_entrance","source":"OpenStreetMap"},"geometry":{"type":"Point","coordinates":[121.4583799,31.237454]}},{"type":"Feature","properties":{"facility_id":"osm_node_3923187968","osm_id":"3923187968","name":"未命名设施","category":"transit","category_zh":"公共交通","amenity":null,"railway":"subway_entrance","source":"OpenStreetMap"},"geometry":{"type":"Point","coordinates":[121.4572012,31.2320501]}},{"type":"Feature","properties":{"facility_id":"osm_node_3923187969","osm_id":"3923187969","name":"未命名设施","category":"transit","category_zh":"公共交通","amenity":null,"railway":"subway_entrance","source":"OpenStreetMap"},"geometry":{"type":"Point","coordinates":[121.4584938,31.2293479]}},{"type":"Feature","properties":{"facility_id":"osm_node_3923187970","osm_id":"3923187970","name":"未命名设施","category":"transit","category_zh":"公共交通","amenity":null,"railway":"subway_entrance","source":"OpenStreetMap"},"geometry":{"type":"Point","coordinates":[121.4581118,31.2304084]}},{"type":"Feature","properties":{"facility_id":"osm_node_3923187971","osm_id":"3923187971","name":"未命名设施","category":"transit","category_zh":"公共交通","amenity":null,"railway":"subway_entrance","source":"OpenStreetMap"},"geometry":{"type":"Point","coordinates":[121.457316,31.2312339]}},{"type":"Feature","properties":{"facility_id":"osm_node_3923189262","osm_id":"3923189262","name":"未命名设施","category":"transit","category_zh":"公共交通","amenity":null,"railway":"subway_entrance","source":"OpenStreetMap"},"geometry":{"type":"Point","coordinates":[121.4602683,31.221344]}},{"type":"Feature","properties":{"facility_id":"osm_node_3923189263","osm_id":"3923189263","name":"未命名设施","category":"transit","category_zh":"公共交通","amenity":null,"railway":"subway_entrance","source":"OpenStreetMap"},"geometry":{"type":"Point","coordinates":[121.4594636,31.2216009]}},{"type":"Feature","properties":{"facility_id":"osm_node_3923189264","osm_id":"3923189264","name":"5号口","category":"transit","category_zh":"公共交通","amenity":null,"railway":"subway_entrance","source":"OpenStreetMap"},"geometry":{"type":"Point","coordinates":[121.4717374,31.2128843]}},{"type":"Feature","properties":{"facility_id":"osm_node_3923199259","osm_id":"3923199259","name":"未命名设施","category":"transit","category_zh":"公共交通","amenity":null,"railway":"subway_entrance","source":"OpenStreetMap"},"geometry":{"type":"Point","coordinates":[121.4537149,31.2432316]}},{"type":"Feature","properties":{"facility_id":"osm_node_3923199260","osm_id":"3923199260","name":"未命名设施","category":"transit","category_zh":"公共交通","amenity":null,"railway":"subway_entrance","source":"OpenStreetMap"},"geometry":{"type":"Point","coordinates":[121.4546276,31.2414829]}},{"type":"Feature","properties":{"facility_id":"osm_node_3923199261","osm_id":"3923199261","name":"未命名设施","category":"transit","category_zh":"公共交通","amenity":null,"railway":"subway_entrance","source":"OpenStreetMap"},"geometry":{"type":"Point","coordinates":[121.4577576,31.238908]}},{"type":"Feature","properties":{"facility_id":"osm_node_3923199262","osm_id":"3923199262","name":"未命名设施","category":"transit","category_zh":"公共交通","amenity":null,"railway":"subway_entrance","source":"OpenStreetMap"},"geometry":{"type":"Point","coordinates":[121.4575592,31.2375732]}},{"type":"Feature","properties":{"facility_id":"osm_node_3923199263","osm_id":"3923199263","name":"未命名设施","category":"transit","category_zh":"公共交通","amenity":null,"railway":"subway_entrance","source":"OpenStreetMap"},"geometry":{"type":"Point","coordinates":[121.4580341,31.2311607]}},{"type":"Feature","properties":{"facility_id":"osm_node_3923199264","osm_id":"3923199264","name":"未命名设施","category":"transit","category_zh":"公共交通","amenity":null,"railway":"subway_entrance","source":"OpenStreetMap"},"geometry":{"type":"Point","coordinates":[121.4575764,31.2305132]}},{"type":"Feature","properties":{"facility_id":"osm_node_3923199265","osm_id":"3923199265","name":"未命名设施","category":"transit","category_zh":"公共交通","amenity":null,"railway":"subway_entrance","source":"OpenStreetMap"},"geometry":{"type":"Point","coordinates":[121.4543891,31.2304377]}},{"type":"Feature","properties":{"facility_id":"osm_node_3923207757","osm_id":"3923207757","name":"未命名设施","category":"transit","category_zh":"公共交通","amenity":null,"railway":"subway_entrance","source":"OpenStreetMap"},"geometry":{"type":"Point","coordinates":[121.4539356,31.2424965]}},{"type":"Feature","properties":{"facility_id":"osm_node_3923207957","osm_id":"3923207957","name":"未命名设施","category":"transit","category_zh":"公共交通","amenity":null,"railway":"subway_entrance","source":"OpenStreetMap"},"geometry":{"type":"Point","coordinates":[121.4543679,31.242282]}},{"type":"Feature","properties":{"facility_id":"osm_node_3923207958","osm_id":"3923207958","name":"未命名设施","category":"transit","category_zh":"公共交通","amenity":null,"railway":"subway_entrance","source":"OpenStreetMap"},"geometry":{"type":"Point","coordinates":[121.4581653,31.2379218]}},{"type":"Feature","properties":{"facility_id":"osm_node_3923207959","osm_id":"3923207959","name":"未命名设施","category":"transit","category_zh":"公共交通","amenity":null,"railway":"subway_entrance","source":"OpenStreetMap"},"geometry":{"type":"Point","coordinates":[121.4576998,31.2317021]}},{"type":"Feature","properties":{"facility_id":"osm_node_3923207960","osm_id":"3923207960","name":"未命名设施","category":"transit","category_zh":"公共交通","amenity":null,"railway":"subway_entrance","source":"OpenStreetMap"},"geometry":{"type":"Point","coordinates":[121.4548083,31.2296295]}},{"type":"Feature","properties":{"facility_id":"osm_node_3923215257","osm_id":"3923215257","name":"未命名设施","category":"transit","category_zh":"公共交通","amenity":null,"railway":"subway_entrance","source":"OpenStreetMap"},"geometry":{"type":"Point","coordinates":[121.4551098,31.2286777]}},{"type":"Feature","properties":{"facility_id":"osm_node_3923215658","osm_id":"3923215658","name":"未命名设施","category":"transit","category_zh":"公共交通","amenity":null,"railway":"subway_entrance","source":"OpenStreetMap"},"geometry":{"type":"Point","coordinates":[121.4704929,31.2170683]}},{"type":"Feature","properties":{"facility_id":"osm_node_3923215659","osm_id":"3923215659","name":"未命名设施","category":"transit","category_zh":"公共交通","amenity":null,"railway":"subway_entrance","source":"OpenStreetMap"},"geometry":{"type":"Point","coordinates":[121.4703856,31.2177565]}},{"type":"Feature","properties":{"facility_id":"osm_node_3923223758","osm_id":"3923223758","name":"未命名设施","category":"transit","category_zh":"公共交通","amenity":null,"railway":"subway_entrance","source":"OpenStreetMap"},"geometry":{"type":"Point","coordinates":[121.4591632,31.2226193]}},{"type":"Feature","properties":{"facility_id":"osm_node_3923223759","osm_id":"3923223759","name":"未命名设施","category":"transit","category_zh":"公共交通","amenity":null,"railway":"subway_entrance","source":"OpenStreetMap"},"geometry":{"type":"Point","coordinates":[121.4699028,31.2178207]}},{"type":"Feature","properties":{"facility_id":"osm_node_3923223760","osm_id":"3923223760","name":"4号口","category":"transit","category_zh":"公共交通","amenity":null,"railway":"subway_entrance","source":"OpenStreetMap"},"geometry":{"type":"Point","coordinates":[121.4714799,31.2115996]}},{"type":"Feature","properties":{"facility_id":"osm_node_4571430228","osm_id":"4571430228","name":"常熟路","category":"transit","category_zh":"公共交通","amenity":null,"railway":"station","source":"OpenStreetMap"},"geometry":{"type":"Point","coordinates":[121.4464856,31.2151666]}},{"type":"Feature","properties":{"facility_id":"osm_node_468916502","osm_id":"468916502","name":"南京东路","category":"transit","category_zh":"公共交通","amenity":null,"railway":"station","source":"OpenStreetMap"},"geometry":{"type":"Point","coordinates":[121.4792291,31.2391239]}},{"type":"Feature","properties":{"facility_id":"osm_node_469787970","osm_id":"469787970","name":"新闸路","category":"transit","category_zh":"公共交通","amenity":null,"railway":"station","source":"OpenStreetMap"},"geometry":{"type":"Point","coordinates":[121.4636467,31.2405472]}},{"type":"Feature","properties":{"facility_id":"osm_node_471015395","osm_id":"471015395","name":"陕西南路","category":"transit","category_zh":"公共交通","amenity":null,"railway":"station","source":"OpenStreetMap"},"geometry":{"type":"Point","coordinates":[121.4552697,31.2188995]}},{"type":"Feature","properties":{"facility_id":"osm_node_471016169","osm_id":"471016169","name":"一大会址·黄陂南路","category":"transit","category_zh":"公共交通","amenity":null,"railway":"station","source":"OpenStreetMap"},"geometry":{"type":"Point","coordinates":[121.4693495,31.2249337]}},{"type":"Feature","properties":{"facility_id":"osm_node_471088265","osm_id":"471088265","name":"南京西路","category":"transit","category_zh":"公共交通","amenity":null,"railway":"station","source":"OpenStreetMap"},"geometry":{"type":"Point","coordinates":[121.4560232,31.2318255]}},{"type":"Feature","properties":{"facility_id":"osm_node_476808220","osm_id":"476808220","name":"浦西 (外滩)","category":"transit","category_zh":"公共交通","amenity":null,"railway":"tram_stop","source":"OpenStreetMap"},"geometry":{"type":"Point","coordinates":[121.4860922,31.2415533]}},{"type":"Feature","properties":{"facility_id":"osm_node_477665815","osm_id":"477665815","name":"6","category":"transit","category_zh":"公共交通","amenity":null,"railway":"subway_entrance","source":"OpenStreetMap"},"geometry":{"type":"Point","coordinates":[121.4694502,31.2357182]}},{"type":"Feature","properties":{"facility_id":"osm_node_477665906","osm_id":"477665906","name":"7","category":"transit","category_zh":"公共交通","amenity":null,"railway":"subway_entrance","source":"OpenStreetMap"},"geometry":{"type":"Point","coordinates":[121.4692783,31.2360742]}},{"type":"Feature","properties":{"facility_id":"osm_node_477666011","osm_id":"477666011","name":"5","category":"transit","category_zh":"公共交通","amenity":null,"railway":"subway_entrance","source":"OpenStreetMap"},"geometry":{"type":"Point","coordinates":[121.4696168,31.2357977]}},{"type":"Feature","properties":{"facility_id":"osm_node_477666101","osm_id":"477666101","name":"10","category":"transit","category_zh":"公共交通","amenity":null,"railway":"subway_entrance","source":"OpenStreetMap"},"geometry":{"type":"Point","coordinates":[121.4670516,31.2345004]}},{"type":"Feature","properties":{"facility_id":"osm_node_477666311","osm_id":"477666311","name":"9","category":"transit","category_zh":"公共交通","amenity":null,"railway":"subway_entrance","source":"OpenStreetMap"},"geometry":{"type":"Point","coordinates":[121.4673277,31.2348099]}},{"type":"Feature","properties":{"facility_id":"osm_node_477666373","osm_id":"477666373","name":"12","category":"transit","category_zh":"公共交通","amenity":null,"railway":"subway_entrance","source":"OpenStreetMap"},"geometry":{"type":"Point","coordinates":[121.468795,31.2352389]}},{"type":"Feature","properties":{"facility_id":"osm_node_477666637","osm_id":"477666637","name":"1","category":"transit","category_zh":"公共交通","amenity":null,"railway":"subway_entrance","source":"OpenStreetMap"},"geometry":{"type":"Point","coordinates":[121.4718627,31.2328635]}},{"type":"Feature","properties":{"facility_id":"osm_node_477666889","osm_id":"477666889","name":"3","category":"transit","category_zh":"公共交通","amenity":null,"railway":"subway_entrance","source":"OpenStreetMap"},"geometry":{"type":"Point","coordinates":[121.4711908,31.2338542]}},{"type":"Feature","properties":{"facility_id":"osm_node_5021424179","osm_id":"5021424179","name":"未命名设施","category":"transit","category_zh":"公共交通","amenity":null,"railway":"subway_entrance","source":"OpenStreetMap"},"geometry":{"type":"Point","coordinates":[121.4527121,31.2520924]}},{"type":"Feature","properties":{"facility_id":"osm_node_5289202477","osm_id":"5289202477","name":"浦东 (陆家嘴)","category":"transit","category_zh":"公共交通","amenity":null,"railway":"tram_stop","source":"OpenStreetMap"},"geometry":{"type":"Point","coordinates":[121.4931402,31.2405754]}},{"type":"Feature","properties":{"facility_id":"osm_node_5306355596","osm_id":"5306355596","name":"陆家浜路","category":"transit","category_zh":"公共交通","amenity":null,"railway":"station","source":"OpenStreetMap"},"geometry":{"type":"Point","coordinates":[121.4814802,31.2138544]}},{"type":"Feature","properties":{"facility_id":"osm_node_5306355597","osm_id":"5306355597","name":"老西门","category":"transit","category_zh":"公共交通","amenity":null,"railway":"station","source":"OpenStreetMap"},"geometry":{"type":"Point","coordinates":[121.4784338,31.2208466]}},{"type":"Feature","properties":{"facility_id":"osm_node_5306355598","osm_id":"5306355598","name":"大世界","category":"transit","category_zh":"公共交通","amenity":null,"railway":"station","source":"OpenStreetMap"},"geometry":{"type":"Point","coordinates":[121.4749289,31.2291468]}},{"type":"Feature","properties":{"facility_id":"osm_node_5306355599","osm_id":"5306355599","name":"曲阜路","category":"transit","category_zh":"公共交通","amenity":null,"railway":"station","source":"OpenStreetMap"},"geometry":{"type":"Point","coordinates":[121.4669569,31.244194]}},{"type":"Feature","properties":{"facility_id":"osm_node_5306355600","osm_id":"5306355600","name":"中兴路","category":"transit","category_zh":"公共交通","amenity":null,"railway":"station","source":"OpenStreetMap"},"geometry":{"type":"Point","coordinates":[121.4643534,31.255078]}},{"type":"Feature","properties":{"facility_id":"osm_node_5306402952","osm_id":"5306402952","name":"打浦桥","category":"transit","category_zh":"公共交通","amenity":null,"railway":"station","source":"OpenStreetMap"},"geometry":{"type":"Point","coordinates":[121.4640097,31.2082336]}},{"type":"Feature","properties":{"facility_id":"osm_node_5306402955","osm_id":"5306402955","name":"马当路","category":"transit","category_zh":"公共交通","amenity":null,"railway":"station","source":"OpenStreetMap"},"geometry":{"type":"Point","coordinates":[121.4720292,31.2112829]}},{"type":"Feature","properties":{"facility_id":"osm_node_5306402956","osm_id":"5306402956","name":"小南门","category":"transit","category_zh":"公共交通","amenity":null,"railway":"station","source":"OpenStreetMap"},"geometry":{"type":"Point","coordinates":[121.4940577,31.2190076]}},{"type":"Feature","properties":{"facility_id":"osm_node_5306444961","osm_id":"5306444961","name":"陕西南路","category":"transit","category_zh":"公共交通","amenity":null,"railway":"station","source":"OpenStreetMap"},"geometry":{"type":"Point","coordinates":[121.4540097,31.2168438]}},{"type":"Feature","properties":{"facility_id":"osm_node_5306444964","osm_id":"5306444964","name":"一大会址·新天地","category":"transit","category_zh":"公共交通","amenity":null,"railway":"station","source":"OpenStreetMap"},"geometry":{"type":"Point","coordinates":[121.4699438,31.2180993]}},{"type":"Feature","properties":{"facility_id":"osm_node_5306444965","osm_id":"5306444965","name":"豫园","category":"transit","category_zh":"公共交通","amenity":null,"railway":"station","source":"OpenStreetMap"},"geometry":{"type":"Point","coordinates":[121.4828695,31.2299254]}},{"type":"Feature","properties":{"facility_id":"osm_node_5306444966","osm_id":"5306444966","name":"天潼路","category":"transit","category_zh":"公共交通","amenity":null,"railway":"station","source":"OpenStreetMap"},"geometry":{"type":"Point","coordinates":[121.4778075,31.2457501]}},{"type":"Feature","properties":{"facility_id":"osm_node_5306444967","osm_id":"5306444967","name":"四川北路","category":"transit","category_zh":"公共交通","amenity":null,"railway":"station","source":"OpenStreetMap"},"geometry":{"type":"Point","coordinates":[121.4794725,31.2537236]}},{"type":"Feature","properties":{"facility_id":"osm_node_5306464712","osm_id":"5306464712","name":"南京西路","category":"transit","category_zh":"公共交通","amenity":null,"railway":"station","source":"OpenStreetMap"},"geometry":{"type":"Point","coordinates":[121.4579532,31.2304667]}},{"type":"Feature","properties":{"facility_id":"osm_node_5306464713","osm_id":"5306464713","name":"南京西路","category":"transit","category_zh":"公共交通","amenity":null,"railway":"station","source":"OpenStreetMap"},"geometry":{"type":"Point","coordinates":[121.4547881,31.2294277]}},{"type":"Feature","properties":{"facility_id":"osm_node_5306464714","osm_id":"5306464714","name":"国际客运中心","category":"transit","category_zh":"公共交通","amenity":null,"railway":"station","source":"OpenStreetMap"},"geometry":{"type":"Point","coordinates":[121.4939618,31.2521438]}},{"type":"Feature","properties":{"facility_id":"osm_node_5306477815","osm_id":"5306477815","name":"自然博物馆","category":"transit","category_zh":"公共交通","amenity":null,"railway":"station","source":"OpenStreetMap"},"geometry":{"type":"Point","coordinates":[121.457925,31.2377862]}},{"type":"Feature","properties":{"facility_id":"osm_node_5306477816","osm_id":"5306477816","name":"淮海中路","category":"transit","category_zh":"公共交通","amenity":null,"railway":"station","source":"OpenStreetMap"},"geometry":{"type":"Point","coordinates":[121.4598334,31.2218467]}},{"type":"Feature","properties":{"facility_id":"osm_node_5308432220","osm_id":"5308432220","name":"陕西南路","category":"transit","category_zh":"公共交通","amenity":null,"railway":"station","source":"OpenStreetMap"},"geometry":{"type":"Point","coordinates":[121.4546929,31.2177863]}},{"type":"Feature","properties":{"facility_id":"osm_node_5308572447","osm_id":"5308572447","name":"4","category":"transit","category_zh":"公共交通","amenity":null,"railway":"subway_entrance","source":"OpenStreetMap"},"geometry":{"type":"Point","coordinates":[121.4984304,31.2398322]}},{"type":"Feature","properties":{"facility_id":"osm_node_5310149678","osm_id":"5310149678","name":"未命名设施","category":"transit","category_zh":"公共交通","amenity":null,"railway":"subway_entrance","source":"OpenStreetMap"},"geometry":{"type":"Point","coordinates":[121.4821484,31.2132435]}},{"type":"Feature","properties":{"facility_id":"osm_node_5310149679","osm_id":"5310149679","name":"未命名设施","category":"transit","category_zh":"公共交通","amenity":null,"railway":"subway_entrance","source":"OpenStreetMap"},"geometry":{"type":"Point","coordinates":[121.4807394,31.2145988]}},{"type":"Feature","properties":{"facility_id":"osm_node_5310149680","osm_id":"5310149680","name":"未命名设施","category":"transit","category_zh":"公共交通","amenity":null,"railway":"subway_entrance","source":"OpenStreetMap"},"geometry":{"type":"Point","coordinates":[121.4824347,31.2136553]}},{"type":"Feature","properties":{"facility_id":"osm_node_5312197688","osm_id":"5312197688","name":"未命名设施","category":"transit","category_zh":"公共交通","amenity":null,"railway":"subway_entrance","source":"OpenStreetMap"},"geometry":{"type":"Point","coordinates":[121.4800318,31.2544331]}},{"type":"Feature","properties":{"facility_id":"osm_node_5313859997","osm_id":"5313859997","name":"曲阜路","category":"transit","category_zh":"公共交通","amenity":null,"railway":"station","source":"OpenStreetMap"},"geometry":{"type":"Point","coordinates":[121.4672532,31.2444162]}},{"type":"Feature","properties":{"facility_id":"osm_node_5314250339","osm_id":"5314250339","name":"南京东路","category":"transit","category_zh":"公共交通","amenity":null,"railway":"station","source":"OpenStreetMap"},"geometry":{"type":"Point","coordinates":[121.4801505,31.2402537]}},{"type":"Feature","properties":{"facility_id":"osm_node_5314250343","osm_id":"5314250343","name":"老西门","category":"transit","category_zh":"公共交通","amenity":null,"railway":"station","source":"OpenStreetMap"},"geometry":{"type":"Point","coordinates":[121.479018,31.2209254]}},{"type":"Feature","properties":{"facility_id":"osm_node_5314254694","osm_id":"5314254694","name":"陆家浜路","category":"transit","category_zh":"公共交通","amenity":null,"railway":"station","source":"OpenStreetMap"},"geometry":{"type":"Point","coordinates":[121.4811496,31.213813]}},{"type":"Feature","properties":{"facility_id":"osm_node_5314254695","osm_id":"5314254695","name":"马当路","category":"transit","category_zh":"公共交通","amenity":null,"railway":"station","source":"OpenStreetMap"},"geometry":{"type":"Point","coordinates":[121.4717526,31.2116709]}},{"type":"Feature","properties":{"facility_id":"osm_node_5314264654","osm_id":"5314264654","name":"一大会址·新天地","category":"transit","category_zh":"公共交通","amenity":null,"railway":"station","source":"OpenStreetMap"},"geometry":{"type":"Point","coordinates":[121.469819,31.2179361]}},{"type":"Feature","properties":{"facility_id":"osm_node_638736455","osm_id":"638736455","name":"未命名设施","category":"transit","category_zh":"公共交通","amenity":null,"railway":"subway_entrance","source":"OpenStreetMap"},"geometry":{"type":"Point","coordinates":[121.4800572,31.2391291]}},{"type":"Feature","properties":{"facility_id":"osm_node_638736456","osm_id":"638736456","name":"未命名设施","category":"transit","category_zh":"公共交通","amenity":null,"railway":"subway_entrance","source":"OpenStreetMap"},"geometry":{"type":"Point","coordinates":[121.4779328,31.238331]}},{"type":"Feature","properties":{"facility_id":"osm_node_638736463","osm_id":"638736463","name":"未命名设施","category":"transit","category_zh":"公共交通","amenity":null,"railway":"subway_entrance","source":"OpenStreetMap"},"geometry":{"type":"Point","coordinates":[121.4781152,31.2388722]}},{"type":"Feature","properties":{"facility_id":"osm_node_638736464","osm_id":"638736464","name":"未命名设施","category":"transit","category_zh":"公共交通","amenity":null,"railway":"subway_entrance","source":"OpenStreetMap"},"geometry":{"type":"Point","coordinates":[121.4800628,31.2396735]}},{"type":"Feature","properties":{"facility_id":"osm_node_639309861","osm_id":"639309861","name":"未命名设施","category":"transit","category_zh":"公共交通","amenity":null,"railway":"subway_entrance","source":"OpenStreetMap"},"geometry":{"type":"Point","coordinates":[121.4673247,31.2444596]}},{"type":"Feature","properties":{"facility_id":"osm_node_639309862","osm_id":"639309862","name":"未命名设施","category":"transit","category_zh":"公共交通","amenity":null,"railway":"subway_entrance","source":"OpenStreetMap"},"geometry":{"type":"Point","coordinates":[121.4673792,31.2438809]}},{"type":"Feature","properties":{"facility_id":"osm_node_639309863","osm_id":"639309863","name":"未命名设施","category":"transit","category_zh":"公共交通","amenity":null,"railway":"subway_entrance","source":"OpenStreetMap"},"geometry":{"type":"Point","coordinates":[121.4665868,31.243975]}},{"type":"Feature","properties":{"facility_id":"osm_node_6946751613","osm_id":"6946751613","name":"未命名设施","category":"transit","category_zh":"公共交通","amenity":null,"railway":"subway_entrance","source":"OpenStreetMap"},"geometry":{"type":"Point","coordinates":[121.4545078,31.2316626]}},{"type":"Feature","properties":{"facility_id":"osm_node_7030931605","osm_id":"7030931605","name":"未命名设施","category":"transit","category_zh":"公共交通","amenity":null,"railway":"subway_entrance","source":"OpenStreetMap"},"geometry":{"type":"Point","coordinates":[121.4548498,31.2294461]}},{"type":"Feature","properties":{"facility_id":"osm_node_7161749775","osm_id":"7161749775","name":"上海","category":"transit","category_zh":"公共交通","amenity":null,"railway":"station","source":"OpenStreetMap"},"geometry":{"type":"Point","coordinates":[121.4511645,31.2515568]}},{"type":"Feature","properties":{"facility_id":"osm_node_773662890","osm_id":"773662890","name":"未命名设施","category":"transit","category_zh":"公共交通","amenity":null,"railway":"subway_entrance","source":"OpenStreetMap"},"geometry":{"type":"Point","coordinates":[121.4830677,31.2305487]}},{"type":"Feature","properties":{"facility_id":"osm_node_882614353","osm_id":"882614353","name":"未命名设施","category":"transit","category_zh":"公共交通","amenity":null,"railway":"subway_entrance","source":"OpenStreetMap"},"geometry":{"type":"Point","coordinates":[121.4825013,31.2304078]}},{"type":"Feature","properties":{"facility_id":"osm_node_882614360","osm_id":"882614360","name":"未命名设施","category":"transit","category_zh":"公共交通","amenity":null,"railway":"subway_entrance","source":"OpenStreetMap"},"geometry":{"type":"Point","coordinates":[121.4828346,31.2293501]}},{"type":"Feature","properties":{"facility_id":"osm_node_9381941590","osm_id":"9381941590","name":"豫园","category":"transit","category_zh":"公共交通","amenity":null,"railway":"station","source":"OpenStreetMap"},"geometry":{"type":"Point","coordinates":[121.4842395,31.2314615]}},{"type":"Feature","properties":{"facility_id":"osm_node_9381954260","osm_id":"9381954260","name":"一大会址·黄陂南路","category":"transit","category_zh":"公共交通","amenity":null,"railway":"station","source":"OpenStreetMap"},"geometry":{"type":"Point","coordinates":[121.4679564,31.2256562]}},{"type":"Feature","properties":{"facility_id":"osm_node_9381954263","osm_id":"9381954263","name":"大世界","category":"transit","category_zh":"公共交通","amenity":null,"railway":"station","source":"OpenStreetMap"},"geometry":{"type":"Point","coordinates":[121.4751877,31.2286365]}},{"type":"Feature","properties":{"facility_id":"osm_node_9381985702","osm_id":"9381985702","name":"陆家嘴","category":"transit","category_zh":"公共交通","amenity":null,"railway":"station","source":"OpenStreetMap"},"geometry":{"type":"Point","coordinates":[121.4979194,31.2369216]}},{"type":"Feature","properties":{"facility_id":"osm_node_9385162263","osm_id":"9385162263","name":"未命名设施","category":"transit","category_zh":"公共交通","amenity":null,"railway":"subway_entrance","source":"OpenStreetMap"},"geometry":{"type":"Point","coordinates":[121.4666945,31.2250986]}},{"type":"Feature","properties":{"facility_id":"osm_node_9385177484","osm_id":"9385177484","name":"未命名设施","category":"transit","category_zh":"公共交通","amenity":null,"railway":"subway_entrance","source":"OpenStreetMap"},"geometry":{"type":"Point","coordinates":[121.4693941,31.2263589]}},{"type":"Feature","properties":{"facility_id":"osm_node_9385177485","osm_id":"9385177485","name":"未命名设施","category":"transit","category_zh":"公共交通","amenity":null,"railway":"subway_entrance","source":"OpenStreetMap"},"geometry":{"type":"Point","coordinates":[121.4686498,31.226188]}},{"type":"Feature","properties":{"facility_id":"osm_node_9385177486","osm_id":"9385177486","name":"未命名设施","category":"transit","category_zh":"公共交通","amenity":null,"railway":"subway_entrance","source":"OpenStreetMap"},"geometry":{"type":"Point","coordinates":[121.4682113,31.2256215]}}]}