{"type":"FeatureCollection","name":"beijing_analysis_grid","crs":{"type":"name","properties":{"name":"urn:ogc:def:crs:OGC:1.3:CRS84"}},"features":[{"type":"Feature","properties":{"cell_id":"beijing_01_01","city_id":"beijing","city_name_zh":"北京","row":1,"column":1,"area_km2":0.4445,"center_lon":116.38115,"center_lat":39.926075,"distance_to_center_km":3.306,"facility_count":1,"transit_count":0,"healthcare_count":1,"education_count":0,"park_count":0,"service_diversity":1,"facility_density_km2":2.2499,"road_segment_count":23,"road_length_m":940.37,"road_density_km_km2":2.1157,"intersection_count":1,"elevation_m":46,"terrain_relief_m":11,"source_note":"OSM道路与设施聚合；SRTM高程采样；均为教学裁剪","accessibility_proxy":0.1417,"osm_intensity_class":"低","core_zone":"外圈"},"geometry":{"type":"Polygon","coordinates":[[[116.3774,39.92295],[116.3849,39.92295],[116.3849,39.9292],[116.3774,39.9292],[116.3774,39.92295]]]}},{"type":"Feature","properties":{"cell_id":"beijing_01_02","city_id":"beijing","city_name_zh":"北京","row":1,"column":2,"area_km2":0.4445,"center_lon":116.38865,"center_lat":39.926075,"distance_to_center_km":2.911,"facility_count":0,"transit_count":0,"healthcare_count":0,"education_count":0,"park_count":0,"service_diversity":0,"facility_density_km2":0.0,"road_segment_count":120,"road_length_m":1522.58,"road_density_km_km2":3.4257,"intersection_count":1,"elevation_m":47,"terrain_relief_m":17,"source_note":"OSM道路与设施聚合；SRTM高程采样；均为教学裁剪","accessibility_proxy":0.1308,"osm_intensity_class":"低","core_zone":"内圈"},"geometry":{"type":"Polygon","coordinates":[[[116.3849,39.92295],[116.3924,39.92295],[116.3924,39.9292],[116.3849,39.9292],[116.3849,39.92295]]]}},{"type":"Feature","properties":{"cell_id":"beijing_01_03","city_id":"beijing","city_name_zh":"北京","row":1,"column":3,"area_km2":0.4445,"center_lon":116.39615,"center_lat":39.926075,"distance_to_center_km":2.615,"facility_count":0,"transit_count":0,"healthcare_count":0,"education_count":0,"park_count":0,"service_diversity":0,"facility_density_km2":0.0,"road_segment_count":77,"road_length_m":2831.82,"road_density_km_km2":6.3713,"intersection_count":12,"elevation_m":52,"terrain_relief_m":12,"source_note":"OSM道路与设施聚合；SRTM高程采样；均为教学裁剪","accessibility_proxy":0.1717,"osm_intensity_class":"低","core_zone":"内圈"},"geometry":{"type":"Polygon","coordinates":[[[116.3924,39.92295],[116.3999,39.92295],[116.3999,39.9292],[116.3924,39.9292],[116.3924,39.92295]]]}},{"type":"Feature","properties":{"cell_id":"beijing_01_04","city_id":"beijing","city_name_zh":"北京","row":1,"column":4,"area_km2":0.4445,"center_lon":116.40365,"center_lat":39.926075,"distance_to_center_km":2.453,"facility_count":4,"transit_count":3,"healthcare_count":1,"education_count":0,"park_count":0,"service_diversity":2,"facility_density_km2":8.9996,"road_segment_count":115,"road_length_m":6076.88,"road_density_km_km2":13.6724,"intersection_count":24,"elevation_m":54,"terrain_relief_m":4,"source_note":"OSM道路与设施聚合；SRTM高程采样；均为教学裁剪","accessibility_proxy":0.3999,"osm_intensity_class":"高","core_zone":"内圈"},"geometry":{"type":"Polygon","coordinates":[[[116.3999,39.92295],[116.4074,39.92295],[116.4074,39.9292],[116.3999,39.9292],[116.3999,39.92295]]]}},{"type":"Feature","properties":{"cell_id":"beijing_01_05","city_id":"beijing","city_name_zh":"北京","row":1,"column":5,"area_km2":0.4445,"center_lon":116.41115,"center_lat":39.926075,"distance_to_center_km":2.453,"facility_count":4,"transit_count":3,"healthcare_count":1,"education_count":0,"park_count":0,"service_diversity":2,"facility_density_km2":8.9996,"road_segment_count":82,"road_length_m":4020.31,"road_density_km_km2":9.0453,"intersection_count":19,"elevation_m":50,"terrain_relief_m":7,"source_note":"OSM道路与设施聚合；SRTM高程采样；均为教学裁剪","accessibility_proxy":0.3511,"osm_intensity_class":"较高","core_zone":"内圈"},"geometry":{"type":"Polygon","coordinates":[[[116.4074,39.92295],[116.4149,39.92295],[116.4149,39.9292],[116.4074,39.9292],[116.4074,39.92295]]]}},{"type":"Feature","properties":{"cell_id":"beijing_01_06","city_id":"beijing","city_name_zh":"北京","row":1,"column":6,"area_km2":0.4445,"center_lon":116.41865,"center_lat":39.926075,"distance_to_center_km":2.615,"facility_count":0,"transit_count":0,"healthcare_count":0,"education_count":0,"park_count":0,"service_diversity":0,"facility_density_km2":0.0,"road_segment_count":69,"road_length_m":4676.78,"road_density_km_km2":10.5223,"intersection_count":22,"elevation_m":52,"terrain_relief_m":4,"source_note":"OSM道路与设施聚合；SRTM高程采样；均为教学裁剪","accessibility_proxy":0.2154,"osm_intensity_class":"低","core_zone":"内圈"},"geometry":{"type":"Polygon","coordinates":[[[116.4149,39.92295],[116.4224,39.92295],[116.4224,39.9292],[116.4149,39.9292],[116.4149,39.92295]]]}},{"type":"Feature","properties":{"cell_id":"beijing_01_07","city_id":"beijing","city_name_zh":"北京","row":1,"column":7,"area_km2":0.4445,"center_lon":116.42615,"center_lat":39.926075,"distance_to_center_km":2.911,"facility_count":4,"transit_count":4,"healthcare_count":0,"education_count":0,"park_count":0,"service_diversity":1,"facility_density_km2":8.9996,"road_segment_count":115,"road_length_m":6825.05,"road_density_km_km2":15.3557,"intersection_count":32,"elevation_m":51,"terrain_relief_m":5,"source_note":"OSM道路与设施聚合；SRTM高程采样；均为教学裁剪","accessibility_proxy":0.402,"osm_intensity_class":"高","core_zone":"内圈"},"geometry":{"type":"Polygon","coordinates":[[[116.4224,39.92295],[116.4299,39.92295],[116.4299,39.9292],[116.4224,39.9292],[116.4224,39.92295]]]}},{"type":"Feature","properties":{"cell_id":"beijing_01_08","city_id":"beijing","city_name_zh":"北京","row":1,"column":8,"area_km2":0.4445,"center_lon":116.43365,"center_lat":39.926075,"distance_to_center_km":3.306,"facility_count":1,"transit_count":0,"healthcare_count":1,"education_count":0,"park_count":0,"service_diversity":1,"facility_density_km2":2.2499,"road_segment_count":73,"road_length_m":4106.34,"road_density_km_km2":9.2389,"intersection_count":12,"elevation_m":48,"terrain_relief_m":5,"source_note":"OSM道路与设施聚合；SRTM高程采样；均为教学裁剪","accessibility_proxy":0.2167,"osm_intensity_class":"低","core_zone":"外圈"},"geometry":{"type":"Polygon","coordinates":[[[116.4299,39.92295],[116.4374,39.92295],[116.4374,39.9292],[116.4299,39.9292],[116.4299,39.92295]]]}},{"type":"Feature","properties":{"cell_id":"beijing_02_01","city_id":"beijing","city_name_zh":"北京","row":2,"column":1,"area_km2":0.4445,"center_lon":116.38115,"center_lat":39.919825,"distance_to_center_km":2.834,"facility_count":0,"transit_count":0,"healthcare_count":0,"education_count":0,"park_count":0,"service_diversity":0,"facility_density_km2":0.0,"road_segment_count":103,"road_length_m":2116.2,"road_density_km_km2":4.7608,"intersection_count":7,"elevation_m":47,"terrain_relief_m":9,"source_note":"OSM道路与设施聚合；SRTM高程采样；均为教学裁剪","accessibility_proxy":0.1473,"osm_intensity_class":"低","core_zone":"内圈"},"geometry":{"type":"Polygon","coordinates":[[[116.3774,39.9167],[116.3849,39.9167],[116.3849,39.92295],[116.3774,39.92295],[116.3774,39.9167]]]}},{"type":"Feature","properties":{"cell_id":"beijing_02_02","city_id":"beijing","city_name_zh":"北京","row":2,"column":2,"area_km2":0.4445,"center_lon":116.38865,"center_lat":39.919825,"distance_to_center_km":2.361,"facility_count":0,"transit_count":0,"healthcare_count":0,"education_count":0,"park_count":0,"service_diversity":0,"facility_density_km2":0.0,"road_segment_count":1338,"road_length_m":11584.05,"road_density_km_km2":26.0606,"intersection_count":356,"elevation_m":51,"terrain_relief_m":14,"source_note":"OSM道路与设施聚合；SRTM高程采样；均为教学裁剪","accessibility_proxy":0.3883,"osm_intensity_class":"较高","core_zone":"内圈"},"geometry":{"type":"Polygon","coordinates":[[[116.3849,39.9167],[116.3924,39.9167],[116.3924,39.92295],[116.3849,39.92295],[116.3849,39.9167]]]}},{"type":"Feature","properties":{"cell_id":"beijing_02_03","city_id":"beijing","city_name_zh":"北京","row":2,"column":3,"area_km2":0.4445,"center_lon":116.39615,"center_lat":39.919825,"distance_to_center_km":1.985,"facility_count":0,"transit_count":0,"healthcare_count":0,"education_count":0,"park_count":0,"service_diversity":0,"facility_density_km2":0.0,"road_segment_count":336,"road_length_m":6229.78,"road_density_km_km2":14.0151,"intersection_count":51,"elevation_m":54,"terrain_relief_m":14,"source_note":"OSM道路与设施聚合；SRTM高程采样；均为教学裁剪","accessibility_proxy":0.2766,"osm_intensity_class":"较低","core_zone":"内圈"},"geometry":{"type":"Polygon","coordinates":[[[116.3924,39.9167],[116.3999,39.9167],[116.3999,39.92295],[116.3924,39.92295],[116.3924,39.9167]]]}},{"type":"Feature","properties":{"cell_id":"beijing_02_04","city_id":"beijing","city_name_zh":"北京","row":2,"column":4,"area_km2":0.4445,"center_lon":116.40365,"center_lat":39.919825,"distance_to_center_km":1.767,"facility_count":2,"transit_count":2,"healthcare_count":0,"education_count":0,"park_count":0,"service_diversity":1,"facility_density_km2":4.4994,"road_segment_count":155,"road_length_m":6701.8,"road_density_km_km2":15.077,"intersection_count":29,"elevation_m":71,"terrain_relief_m":20,"source_note":"OSM道路与设施聚合；SRTM高程采样；均为教学裁剪","accessibility_proxy":0.3703,"osm_intensity_class":"较高","core_zone":"内圈"},"geometry":{"type":"Polygon","coordinates":[[[116.3999,39.9167],[116.4074,39.9167],[116.4074,39.92295],[116.3999,39.92295],[116.3999,39.9167]]]}},{"type":"Feature","properties":{"cell_id":"beijing_02_05","city_id":"beijing","city_name_zh":"北京","row":2,"column":5,"area_km2":0.4445,"center_lon":116.41115,"center_lat":39.919825,"distance_to_center_km":1.767,"facility_count":4,"transit_count":3,"healthcare_count":1,"education_count":0,"park_count":0,"service_diversity":2,"facility_density_km2":8.9988,"road_segment_count":74,"road_length_m":3819.09,"road_density_km_km2":8.5918,"intersection_count":13,"elevation_m":54,"terrain_relief_m":10,"source_note":"OSM道路与设施聚合；SRTM高程采样；均为教学裁剪","accessibility_proxy":0.3747,"osm_intensity_class":"较高","core_zone":"内圈"},"geometry":{"type":"Polygon","coordinates":[[[116.4074,39.9167],[116.4149,39.9167],[116.4149,39.92295],[116.4074,39.92295],[116.4074,39.9167]]]}},{"type":"Feature","properties":{"cell_id":"beijing_02_06","city_id":"beijing","city_name_zh":"北京","row":2,"column":6,"area_km2":0.4445,"center_lon":116.41865,"center_lat":39.919825,"distance_to_center_km":1.985,"facility_count":1,"transit_count":0,"healthcare_count":0,"education_count":1,"park_count":0,"service_diversity":1,"facility_density_km2":2.2497,"road_segment_count":81,"road_length_m":5295.13,"road_density_km_km2":11.9124,"intersection_count":27,"elevation_m":56,"terrain_relief_m":7,"source_note":"OSM道路与设施聚合；SRTM高程采样；均为教学裁剪","accessibility_proxy":0.2908,"osm_intensity_class":"较低","core_zone":"内圈"},"geometry":{"type":"Polygon","coordinates":[[[116.4149,39.9167],[116.4224,39.9167],[116.4224,39.92295],[116.4149,39.92295],[116.4149,39.9167]]]}},{"type":"Feature","properties":{"cell_id":"beijing_02_07","city_id":"beijing","city_name_zh":"北京","row":2,"column":7,"area_km2":0.4445,"center_lon":116.42615,"center_lat":39.919825,"distance_to_center_km":2.361,"facility_count":4,"transit_count":2,"healthcare_count":1,"education_count":0,"park_count":0,"service_diversity":3,"facility_density_km2":8.9988,"road_segment_count":94,"road_length_m":5453.65,"road_density_km_km2":12.2691,"intersection_count":29,"elevation_m":49,"terrain_relief_m":15,"source_note":"OSM道路与设施聚合；SRTM高程采样；均为教学裁剪","accessibility_proxy":0.3885,"osm_intensity_class":"较高","core_zone":"内圈"},"geometry":{"type":"Polygon","coordinates":[[[116.4224,39.9167],[116.4299,39.9167],[116.4299,39.92295],[116.4224,39.92295],[116.4224,39.9167]]]}},{"type":"Feature","properties":{"cell_id":"beijing_02_08","city_id":"beijing","city_name_zh":"北京","row":2,"column":8,"area_km2":0.4445,"center_lon":116.43365,"center_lat":39.919825,"distance_to_center_km":2.834,"facility_count":0,"transit_count":0,"healthcare_count":0,"education_count":0,"park_count":0,"service_diversity":0,"facility_density_km2":0.0,"road_segment_count":99,"road_length_m":5379.63,"road_density_km_km2":12.1025,"intersection_count":19,"elevation_m":61,"terrain_relief_m":18,"source_note":"OSM道路与设施聚合；SRTM高程采样；均为教学裁剪","accessibility_proxy":0.2247,"osm_intensity_class":"低","core_zone":"内圈"},"geometry":{"type":"Polygon","coordinates":[[[116.4299,39.9167],[116.4374,39.9167],[116.4374,39.92295],[116.4299,39.92295],[116.4299,39.9167]]]}},{"type":"Feature","properties":{"cell_id":"beijing_03_01","city_id":"beijing","city_name_zh":"北京","row":3,"column":1,"area_km2":0.4445,"center_lon":116.38115,"center_lat":39.913575,"distance_to_center_km":2.47,"facility_count":0,"transit_count":0,"healthcare_count":0,"education_count":0,"park_count":0,"service_diversity":0,"facility_density_km2":0.0,"road_segment_count":29,"road_length_m":1013.14,"road_density_km_km2":2.2791,"intersection_count":4,"elevation_m":42,"terrain_relief_m":12,"source_note":"OSM道路与设施聚合；SRTM高程采样；均为教学裁剪","accessibility_proxy":0.1337,"osm_intensity_class":"低","core_zone":"内圈"},"geometry":{"type":"Polygon","coordinates":[[[116.3774,39.91045],[116.3849,39.91045],[116.3849,39.9167],[116.3774,39.9167],[116.3774,39.91045]]]}},{"type":"Feature","properties":{"cell_id":"beijing_03_02","city_id":"beijing","city_name_zh":"北京","row":3,"column":2,"area_km2":0.4445,"center_lon":116.38865,"center_lat":39.913575,"distance_to_center_km":1.909,"facility_count":0,"transit_count":0,"healthcare_count":0,"education_count":0,"park_count":0,"service_diversity":0,"facility_density_km2":0.0,"road_segment_count":1404,"road_length_m":14773.75,"road_density_km_km2":33.2335,"intersection_count":456,"elevation_m":55,"terrain_relief_m":5,"source_note":"OSM道路与设施聚合；SRTM高程采样；均为教学裁剪","accessibility_proxy":0.4823,"osm_intensity_class":"高","core_zone":"内圈"},"geometry":{"type":"Polygon","coordinates":[[[116.3849,39.91045],[116.3924,39.91045],[116.3924,39.9167],[116.3849,39.9167],[116.3849,39.91045]]]}},{"type":"Feature","properties":{"cell_id":"beijing_03_03","city_id":"beijing","city_name_zh":"北京","row":3,"column":3,"area_km2":0.4445,"center_lon":116.39615,"center_lat":39.913575,"distance_to_center_km":1.417,"facility_count":0,"transit_count":0,"healthcare_count":0,"education_count":0,"park_count":0,"service_diversity":0,"facility_density_km2":0.0,"road_segment_count":187,"road_length_m":4082.13,"road_density_km_km2":9.1827,"intersection_count":41,"elevation_m":51,"terrain_relief_m":2,"source_note":"OSM道路与设施聚合；SRTM高程采样；均为教学裁剪","accessibility_proxy":0.2526,"osm_intensity_class":"较低","core_zone":"核心"},"geometry":{"type":"Polygon","coordinates":[[[116.3924,39.91045],[116.3999,39.91045],[116.3999,39.9167],[116.3924,39.9167],[116.3924,39.91045]]]}},{"type":"Feature","properties":{"cell_id":"beijing_03_04","city_id":"beijing","city_name_zh":"北京","row":3,"column":4,"area_km2":0.4445,"center_lon":116.40365,"center_lat":39.913575,"distance_to_center_km":1.09,"facility_count":2,"transit_count":2,"healthcare_count":0,"education_count":0,"park_count":0,"service_diversity":1,"facility_density_km2":4.499,"road_segment_count":140,"road_length_m":7983.91,"road_density_km_km2":17.9598,"intersection_count":38,"elevation_m":56,"terrain_relief_m":11,"source_note":"OSM道路与设施聚合；SRTM高程采样；均为教学裁剪","accessibility_proxy":0.4357,"osm_intensity_class":"高","core_zone":"核心"},"geometry":{"type":"Polygon","coordinates":[[[116.3999,39.91045],[116.4074,39.91045],[116.4074,39.9167],[116.3999,39.9167],[116.3999,39.91045]]]}},{"type":"Feature","properties":{"cell_id":"beijing_03_05","city_id":"beijing","city_name_zh":"北京","row":3,"column":5,"area_km2":0.4445,"center_lon":116.41115,"center_lat":39.913575,"distance_to_center_km":1.09,"facility_count":3,"transit_count":3,"healthcare_count":0,"education_count":0,"park_count":0,"service_diversity":1,"facility_density_km2":6.7485,"road_segment_count":117,"road_length_m":5975.65,"road_density_km_km2":13.4422,"intersection_count":27,"elevation_m":60,"terrain_relief_m":10,"source_note":"OSM道路与设施聚合；SRTM高程采样；均为教学裁剪","accessibility_proxy":0.4245,"osm_intensity_class":"高","core_zone":"核心"},"geometry":{"type":"Polygon","coordinates":[[[116.4074,39.91045],[116.4149,39.91045],[116.4149,39.9167],[116.4074,39.9167],[116.4074,39.91045]]]}},{"type":"Feature","properties":{"cell_id":"beijing_03_06","city_id":"beijing","city_name_zh":"北京","row":3,"column":6,"area_km2":0.4445,"center_lon":116.41865,"center_lat":39.913575,"distance_to_center_km":1.417,"facility_count":0,"transit_count":0,"healthcare_count":0,"education_count":0,"park_count":0,"service_diversity":0,"facility_density_km2":0.0,"road_segment_count":81,"road_length_m":6534.05,"road_density_km_km2":14.6983,"intersection_count":34,"elevation_m":51,"terrain_relief_m":4,"source_note":"OSM道路与设施聚合；SRTM高程采样；均为教学裁剪","accessibility_proxy":0.3107,"osm_intensity_class":"较低","core_zone":"核心"},"geometry":{"type":"Polygon","coordinates":[[[116.4149,39.91045],[116.4224,39.91045],[116.4224,39.9167],[116.4149,39.9167],[116.4149,39.91045]]]}},{"type":"Feature","properties":{"cell_id":"beijing_03_07","city_id":"beijing","city_name_zh":"北京","row":3,"column":7,"area_km2":0.4445,"center_lon":116.42615,"center_lat":39.913575,"distance_to_center_km":1.909,"facility_count":0,"transit_count":0,"healthcare_count":0,"education_count":0,"park_count":0,"service_diversity":0,"facility_density_km2":0.0,"road_segment_count":112,"road_length_m":6445.32,"road_density_km_km2":14.4987,"intersection_count":33,"elevation_m":53,"terrain_relief_m":16,"source_note":"OSM道路与设施聚合；SRTM高程采样；均为教学裁剪","accessibility_proxy":0.285,"osm_intensity_class":"较低","core_zone":"内圈"},"geometry":{"type":"Polygon","coordinates":[[[116.4224,39.91045],[116.4299,39.91045],[116.4299,39.9167],[116.4224,39.9167],[116.4224,39.91045]]]}},{"type":"Feature","properties":{"cell_id":"beijing_03_08","city_id":"beijing","city_name_zh":"北京","row":3,"column":8,"area_km2":0.4445,"center_lon":116.43365,"center_lat":39.913575,"distance_to_center_km":2.47,"facility_count":0,"transit_count":0,"healthcare_count":0,"education_count":0,"park_count":0,"service_diversity":0,"facility_density_km2":0.0,"road_segment_count":74,"road_length_m":4275.08,"road_density_km_km2":9.6168,"intersection_count":12,"elevation_m":45,"terrain_relief_m":22,"source_note":"OSM道路与设施聚合；SRTM高程采样；均为教学裁剪","accessibility_proxy":0.211,"osm_intensity_class":"低","core_zone":"内圈"},"geometry":{"type":"Polygon","coordinates":[[[116.4299,39.91045],[116.4374,39.91045],[116.4374,39.9167],[116.4299,39.9167],[116.4299,39.91045]]]}},{"type":"Feature","properties":{"cell_id":"beijing_04_01","city_id":"beijing","city_name_zh":"北京","row":4,"column":1,"area_km2":0.4446,"center_lon":116.38115,"center_lat":39.907325,"distance_to_center_km":2.266,"facility_count":2,"transit_count":2,"healthcare_count":0,"education_count":0,"park_count":0,"service_diversity":1,"facility_density_km2":4.4986,"road_segment_count":13,"road_length_m":490.72,"road_density_km_km2":1.1038,"intersection_count":0,"elevation_m":46,"terrain_relief_m":8,"source_note":"OSM道路与设施聚合；SRTM高程采样；均为教学裁剪","accessibility_proxy":0.2018,"osm_intensity_class":"低","core_zone":"内圈"},"geometry":{"type":"Polygon","coordinates":[[[116.3774,39.9042],[116.3849,39.9042],[116.3849,39.91045],[116.3774,39.91045],[116.3774,39.9042]]]}},{"type":"Feature","properties":{"cell_id":"beijing_04_02","city_id":"beijing","city_name_zh":"北京","row":4,"column":2,"area_km2":0.4446,"center_lon":116.38865,"center_lat":39.907325,"distance_to_center_km":1.637,"facility_count":3,"transit_count":3,"healthcare_count":0,"education_count":0,"park_count":0,"service_diversity":1,"facility_density_km2":6.7479,"road_segment_count":100,"road_length_m":2870.42,"road_density_km_km2":6.4564,"intersection_count":7,"elevation_m":50,"terrain_relief_m":10,"source_note":"OSM道路与设施聚合；SRTM高程采样；均为教学裁剪","accessibility_proxy":0.322,"osm_intensity_class":"较高","core_zone":"内圈"},"geometry":{"type":"Polygon","coordinates":[[[116.3849,39.9042],[116.3924,39.9042],[116.3924,39.91045],[116.3849,39.91045],[116.3849,39.9042]]]}},{"type":"Feature","properties":{"cell_id":"beijing_04_03","city_id":"beijing","city_name_zh":"北京","row":4,"column":3,"area_km2":0.4446,"center_lon":116.39615,"center_lat":39.907325,"distance_to_center_km":1.021,"facility_count":5,"transit_count":5,"healthcare_count":0,"education_count":0,"park_count":0,"service_diversity":1,"facility_density_km2":11.2464,"road_segment_count":174,"road_length_m":2702.48,"road_density_km_km2":6.0787,"intersection_count":40,"elevation_m":49,"terrain_relief_m":7,"source_note":"OSM道路与设施聚合；SRTM高程采样；均为教学裁剪","accessibility_proxy":0.4237,"osm_intensity_class":"高","core_zone":"核心"},"geometry":{"type":"Polygon","coordinates":[[[116.3924,39.9042],[116.3999,39.9042],[116.3999,39.91045],[116.3924,39.91045],[116.3924,39.9042]]]}},{"type":"Feature","properties":{"cell_id":"beijing_04_04","city_id":"beijing","city_name_zh":"北京","row":4,"column":4,"area_km2":0.4446,"center_lon":116.40365,"center_lat":39.907325,"distance_to_center_km":0.472,"facility_count":7,"transit_count":7,"healthcare_count":0,"education_count":0,"park_count":0,"service_diversity":1,"facility_density_km2":15.745,"road_segment_count":87,"road_length_m":4222.62,"road_density_km_km2":9.4979,"intersection_count":22,"elevation_m":66,"terrain_relief_m":17,"source_note":"OSM道路与设施聚合；SRTM高程采样；均为教学裁剪","accessibility_proxy":0.5682,"osm_intensity_class":"高","core_zone":"核心"},"geometry":{"type":"Polygon","coordinates":[[[116.3999,39.9042],[116.4074,39.9042],[116.4074,39.91045],[116.3999,39.91045],[116.3999,39.9042]]]}},{"type":"Feature","properties":{"cell_id":"beijing_04_05","city_id":"beijing","city_name_zh":"北京","row":4,"column":5,"area_km2":0.4446,"center_lon":116.41115,"center_lat":39.907325,"distance_to_center_km":0.472,"facility_count":9,"transit_count":8,"healthcare_count":0,"education_count":1,"park_count":0,"service_diversity":2,"facility_density_km2":20.2436,"road_segment_count":92,"road_length_m":4070.14,"road_density_km_km2":9.1549,"intersection_count":15,"elevation_m":58,"terrain_relief_m":8,"source_note":"OSM道路与设施聚合；SRTM高程采样；均为教学裁剪","accessibility_proxy":0.6373,"osm_intensity_class":"高","core_zone":"核心"},"geometry":{"type":"Polygon","coordinates":[[[116.4074,39.9042],[116.4149,39.9042],[116.4149,39.91045],[116.4074,39.91045],[116.4074,39.9042]]]}},{"type":"Feature","properties":{"cell_id":"beijing_04_06","city_id":"beijing","city_name_zh":"北京","row":4,"column":6,"area_km2":0.4446,"center_lon":116.41865,"center_lat":39.907325,"distance_to_center_km":1.021,"facility_count":2,"transit_count":1,"healthcare_count":1,"education_count":0,"park_count":0,"service_diversity":2,"facility_density_km2":4.4986,"road_segment_count":90,"road_length_m":4836.49,"road_density_km_km2":10.8787,"intersection_count":18,"elevation_m":56,"terrain_relief_m":14,"source_note":"OSM道路与设施聚合；SRTM高程采样；均为教学裁剪","accessibility_proxy":0.3652,"osm_intensity_class":"较高","core_zone":"核心"},"geometry":{"type":"Polygon","coordinates":[[[116.4149,39.9042],[116.4224,39.9042],[116.4224,39.91045],[116.4149,39.91045],[116.4149,39.9042]]]}},{"type":"Feature","properties":{"cell_id":"beijing_04_07","city_id":"beijing","city_name_zh":"北京","row":4,"column":7,"area_km2":0.4446,"center_lon":116.42615,"center_lat":39.907325,"distance_to_center_km":1.637,"facility_count":3,"transit_count":3,"healthcare_count":0,"education_count":0,"park_count":0,"service_diversity":1,"facility_density_km2":6.7479,"road_segment_count":104,"road_length_m":5298.21,"road_density_km_km2":11.9172,"intersection_count":16,"elevation_m":56,"terrain_relief_m":18,"source_note":"OSM道路与设施聚合；SRTM高程采样；均为教学裁剪","accessibility_proxy":0.3795,"osm_intensity_class":"较高","core_zone":"内圈"},"geometry":{"type":"Polygon","coordinates":[[[116.4224,39.9042],[116.4299,39.9042],[116.4299,39.91045],[116.4224,39.91045],[116.4224,39.9042]]]}},{"type":"Feature","properties":{"cell_id":"beijing_04_08","city_id":"beijing","city_name_zh":"北京","row":4,"column":8,"area_km2":0.4446,"center_lon":116.43365,"center_lat":39.907325,"distance_to_center_km":2.266,"facility_count":1,"transit_count":1,"healthcare_count":0,"education_count":0,"park_count":0,"service_diversity":1,"facility_density_km2":2.2493,"road_segment_count":102,"road_length_m":5300.38,"road_density_km_km2":11.9221,"intersection_count":25,"elevation_m":47,"terrain_relief_m":13,"source_note":"OSM道路与设施聚合；SRTM高程采样；均为教学裁剪","accessibility_proxy":0.2794,"osm_intensity_class":"较低","core_zone":"内圈"},"geometry":{"type":"Polygon","coordinates":[[[116.4299,39.9042],[116.4374,39.9042],[116.4374,39.91045],[116.4299,39.91045],[116.4299,39.9042]]]}},{"type":"Feature","properties":{"cell_id":"beijing_05_01","city_id":"beijing","city_name_zh":"北京","row":5,"column":1,"area_km2":0.4446,"center_lon":116.38115,"center_lat":39.901075,"distance_to_center_km":2.266,"facility_count":6,"transit_count":6,"healthcare_count":0,"education_count":0,"park_count":0,"service_diversity":1,"facility_density_km2":13.4945,"road_segment_count":250,"road_length_m":6533.85,"road_density_km_km2":14.6952,"intersection_count":28,"elevation_m":54,"terrain_relief_m":13,"source_note":"OSM道路与设施聚合；SRTM高程采样；均为教学裁剪","accessibility_proxy":0.4904,"osm_intensity_class":"高","core_zone":"内圈"},"geometry":{"type":"Polygon","coordinates":[[[116.3774,39.89795],[116.3849,39.89795],[116.3849,39.9042],[116.3774,39.9042],[116.3774,39.89795]]]}},{"type":"Feature","properties":{"cell_id":"beijing_05_02","city_id":"beijing","city_name_zh":"北京","row":5,"column":2,"area_km2":0.4446,"center_lon":116.38865,"center_lat":39.901075,"distance_to_center_km":1.637,"facility_count":2,"transit_count":2,"healthcare_count":0,"education_count":0,"park_count":0,"service_diversity":1,"facility_density_km2":4.4982,"road_segment_count":226,"road_length_m":6519.0,"road_density_km_km2":14.6618,"intersection_count":23,"elevation_m":54,"terrain_relief_m":17,"source_note":"OSM道路与设施聚合；SRTM高程采样；均为教学裁剪","accessibility_proxy":0.372,"osm_intensity_class":"较高","core_zone":"内圈"},"geometry":{"type":"Polygon","coordinates":[[[116.3849,39.89795],[116.3924,39.89795],[116.3924,39.9042],[116.3849,39.9042],[116.3849,39.89795]]]}},{"type":"Feature","properties":{"cell_id":"beijing_05_03","city_id":"beijing","city_name_zh":"北京","row":5,"column":3,"area_km2":0.4446,"center_lon":116.39615,"center_lat":39.901075,"distance_to_center_km":1.021,"facility_count":6,"transit_count":6,"healthcare_count":0,"education_count":0,"park_count":0,"service_diversity":1,"facility_density_km2":13.4945,"road_segment_count":94,"road_length_m":4321.31,"road_density_km_km2":9.719,"intersection_count":10,"elevation_m":52,"terrain_relief_m":11,"source_note":"OSM道路与设施聚合；SRTM高程采样；均为教学裁剪","accessibility_proxy":0.4984,"osm_intensity_class":"高","core_zone":"核心"},"geometry":{"type":"Polygon","coordinates":[[[116.3924,39.89795],[116.3999,39.89795],[116.3999,39.9042],[116.3924,39.9042],[116.3924,39.89795]]]}},{"type":"Feature","properties":{"cell_id":"beijing_05_04","city_id":"beijing","city_name_zh":"北京","row":5,"column":4,"area_km2":0.4446,"center_lon":116.40365,"center_lat":39.901075,"distance_to_center_km":0.472,"facility_count":0,"transit_count":0,"healthcare_count":0,"education_count":0,"park_count":0,"service_diversity":0,"facility_density_km2":0.0,"road_segment_count":118,"road_length_m":5644.7,"road_density_km_km2":12.6954,"intersection_count":26,"elevation_m":53,"terrain_relief_m":7,"source_note":"OSM道路与设施聚合；SRTM高程采样；均为教学裁剪","accessibility_proxy":0.3473,"osm_intensity_class":"较高","core_zone":"核心"},"geometry":{"type":"Polygon","coordinates":[[[116.3999,39.89795],[116.4074,39.89795],[116.4074,39.9042],[116.3999,39.9042],[116.3999,39.89795]]]}},{"type":"Feature","properties":{"cell_id":"beijing_05_05","city_id":"beijing","city_name_zh":"北京","row":5,"column":5,"area_km2":0.4446,"center_lon":116.41115,"center_lat":39.901075,"distance_to_center_km":0.472,"facility_count":11,"transit_count":11,"healthcare_count":0,"education_count":0,"park_count":0,"service_diversity":1,"facility_density_km2":24.7399,"road_segment_count":147,"road_length_m":6717.58,"road_density_km_km2":15.1084,"intersection_count":26,"elevation_m":59,"terrain_relief_m":13,"source_note":"OSM道路与设施聚合；SRTM高程采样；均为教学裁剪","accessibility_proxy":0.7727,"osm_intensity_class":"高","core_zone":"核心"},"geometry":{"type":"Polygon","coordinates":[[[116.4074,39.89795],[116.4149,39.89795],[116.4149,39.9042],[116.4074,39.9042],[116.4074,39.89795]]]}},{"type":"Feature","properties":{"cell_id":"beijing_05_06","city_id":"beijing","city_name_zh":"北京","row":5,"column":6,"area_km2":0.4446,"center_lon":116.41865,"center_lat":39.901075,"distance_to_center_km":1.021,"facility_count":6,"transit_count":6,"healthcare_count":0,"education_count":0,"park_count":0,"service_diversity":1,"facility_density_km2":13.4945,"road_segment_count":173,"road_length_m":6619.04,"road_density_km_km2":14.8868,"intersection_count":22,"elevation_m":46,"terrain_relief_m":20,"source_note":"OSM道路与设施聚合；SRTM高程采样；均为教学裁剪","accessibility_proxy":0.5528,"osm_intensity_class":"高","core_zone":"核心"},"geometry":{"type":"Polygon","coordinates":[[[116.4149,39.89795],[116.4224,39.89795],[116.4224,39.9042],[116.4149,39.9042],[116.4149,39.89795]]]}},{"type":"Feature","properties":{"cell_id":"beijing_05_07","city_id":"beijing","city_name_zh":"北京","row":5,"column":7,"area_km2":0.4446,"center_lon":116.42615,"center_lat":39.901075,"distance_to_center_km":1.637,"facility_count":0,"transit_count":0,"healthcare_count":0,"education_count":0,"park_count":0,"service_diversity":0,"facility_density_km2":0.0,"road_segment_count":151,"road_length_m":5397.26,"road_density_km_km2":12.1389,"intersection_count":16,"elevation_m":45,"terrain_relief_m":21,"source_note":"OSM道路与设施聚合；SRTM高程采样；均为教学裁剪","accessibility_proxy":0.2727,"osm_intensity_class":"较低","core_zone":"内圈"},"geometry":{"type":"Polygon","coordinates":[[[116.4224,39.89795],[116.4299,39.89795],[116.4299,39.9042],[116.4224,39.9042],[116.4224,39.89795]]]}},{"type":"Feature","properties":{"cell_id":"beijing_05_08","city_id":"beijing","city_name_zh":"北京","row":5,"column":8,"area_km2":0.4446,"center_lon":116.43365,"center_lat":39.901075,"distance_to_center_km":2.266,"facility_count":0,"transit_count":0,"healthcare_count":0,"education_count":0,"park_count":0,"service_diversity":0,"facility_density_km2":0.0,"road_segment_count":83,"road_length_m":3273.1,"road_density_km_km2":7.3615,"intersection_count":8,"elevation_m":44,"terrain_relief_m":12,"source_note":"OSM道路与设施聚合；SRTM高程采样；均为教学裁剪","accessibility_proxy":0.195,"osm_intensity_class":"低","core_zone":"内圈"},"geometry":{"type":"Polygon","coordinates":[[[116.4299,39.89795],[116.4374,39.89795],[116.4374,39.9042],[116.4299,39.9042],[116.4299,39.89795]]]}},{"type":"Feature","properties":{"cell_id":"beijing_06_01","city_id":"beijing","city_name_zh":"北京","row":6,"column":1,"area_km2":0.4447,"center_lon":116.38115,"center_lat":39.894825,"distance_to_center_km":2.47,"facility_count":3,"transit_count":0,"healthcare_count":0,"education_count":2,"park_count":0,"service_diversity":2,"facility_density_km2":6.7466,"road_segment_count":35,"road_length_m":2514.03,"road_density_km_km2":5.6537,"intersection_count":8,"elevation_m":51,"terrain_relief_m":10,"source_note":"OSM道路与设施聚合；SRTM高程采样；均为教学裁剪","accessibility_proxy":0.2784,"osm_intensity_class":"较低","core_zone":"内圈"},"geometry":{"type":"Polygon","coordinates":[[[116.3774,39.8917],[116.3849,39.8917],[116.3849,39.89795],[116.3774,39.89795],[116.3774,39.8917]]]}},{"type":"Feature","properties":{"cell_id":"beijing_06_02","city_id":"beijing","city_name_zh":"北京","row":6,"column":2,"area_km2":0.4447,"center_lon":116.38865,"center_lat":39.894825,"distance_to_center_km":1.909,"facility_count":6,"transit_count":5,"healthcare_count":0,"education_count":0,"park_count":0,"service_diversity":2,"facility_density_km2":13.4933,"road_segment_count":114,"road_length_m":4006.0,"road_density_km_km2":9.009,"intersection_count":13,"elevation_m":53,"terrain_relief_m":14,"source_note":"OSM道路与设施聚合；SRTM高程采样；均为教学裁剪","accessibility_proxy":0.4453,"osm_intensity_class":"高","core_zone":"内圈"},"geometry":{"type":"Polygon","coordinates":[[[116.3849,39.8917],[116.3924,39.8917],[116.3924,39.89795],[116.3849,39.89795],[116.3849,39.8917]]]}},{"type":"Feature","properties":{"cell_id":"beijing_06_03","city_id":"beijing","city_name_zh":"北京","row":6,"column":3,"area_km2":0.4447,"center_lon":116.39615,"center_lat":39.894825,"distance_to_center_km":1.417,"facility_count":1,"transit_count":1,"healthcare_count":0,"education_count":0,"park_count":0,"service_diversity":1,"facility_density_km2":2.2489,"road_segment_count":100,"road_length_m":3800.98,"road_density_km_km2":8.5479,"intersection_count":13,"elevation_m":52,"terrain_relief_m":8,"source_note":"OSM道路与设施聚合；SRTM高程采样；均为教学裁剪","accessibility_proxy":0.2823,"osm_intensity_class":"较低","core_zone":"核心"},"geometry":{"type":"Polygon","coordinates":[[[116.3924,39.8917],[116.3999,39.8917],[116.3999,39.89795],[116.3924,39.89795],[116.3924,39.8917]]]}},{"type":"Feature","properties":{"cell_id":"beijing_06_04","city_id":"beijing","city_name_zh":"北京","row":6,"column":4,"area_km2":0.4447,"center_lon":116.40365,"center_lat":39.894825,"distance_to_center_km":1.09,"facility_count":1,"transit_count":0,"healthcare_count":1,"education_count":0,"park_count":0,"service_diversity":1,"facility_density_km2":2.2489,"road_segment_count":117,"road_length_m":5664.56,"road_density_km_km2":12.7389,"intersection_count":19,"elevation_m":50,"terrain_relief_m":13,"source_note":"OSM道路与设施聚合；SRTM高程采样；均为教学裁剪","accessibility_proxy":0.3444,"osm_intensity_class":"较高","core_zone":"核心"},"geometry":{"type":"Polygon","coordinates":[[[116.3999,39.8917],[116.4074,39.8917],[116.4074,39.89795],[116.3999,39.89795],[116.3999,39.8917]]]}},{"type":"Feature","properties":{"cell_id":"beijing_06_05","city_id":"beijing","city_name_zh":"北京","row":6,"column":5,"area_km2":0.4447,"center_lon":116.41115,"center_lat":39.894825,"distance_to_center_km":1.09,"facility_count":3,"transit_count":2,"healthcare_count":1,"education_count":0,"park_count":0,"service_diversity":2,"facility_density_km2":6.7466,"road_segment_count":147,"road_length_m":8979.18,"road_density_km_km2":20.1931,"intersection_count":42,"elevation_m":51,"terrain_relief_m":13,"source_note":"OSM道路与设施聚合；SRTM高程采样；均为教学裁剪","accessibility_proxy":0.4956,"osm_intensity_class":"高","core_zone":"核心"},"geometry":{"type":"Polygon","coordinates":[[[116.4074,39.8917],[116.4149,39.8917],[116.4149,39.89795],[116.4074,39.89795],[116.4074,39.8917]]]}},{"type":"Feature","properties":{"cell_id":"beijing_06_06","city_id":"beijing","city_name_zh":"北京","row":6,"column":6,"area_km2":0.4447,"center_lon":116.41865,"center_lat":39.894825,"distance_to_center_km":1.417,"facility_count":0,"transit_count":0,"healthcare_count":0,"education_count":0,"park_count":0,"service_diversity":0,"facility_density_km2":0.0,"road_segment_count":94,"road_length_m":6792.41,"road_density_km_km2":15.2753,"intersection_count":26,"elevation_m":48,"terrain_relief_m":6,"source_note":"OSM道路与设施聚合；SRTM高程采样；均为教学裁剪","accessibility_proxy":0.3168,"osm_intensity_class":"较低","core_zone":"核心"},"geometry":{"type":"Polygon","coordinates":[[[116.4149,39.8917],[116.4224,39.8917],[116.4224,39.89795],[116.4149,39.89795],[116.4149,39.8917]]]}},{"type":"Feature","properties":{"cell_id":"beijing_06_07","city_id":"beijing","city_name_zh":"北京","row":6,"column":7,"area_km2":0.4447,"center_lon":116.42615,"center_lat":39.894825,"distance_to_center_km":1.909,"facility_count":2,"transit_count":1,"healthcare_count":0,"education_count":1,"park_count":0,"service_diversity":2,"facility_density_km2":4.4978,"road_segment_count":103,"road_length_m":8164.89,"road_density_km_km2":18.3618,"intersection_count":33,"elevation_m":50,"terrain_relief_m":12,"source_note":"OSM道路与设施聚合；SRTM高程采样；均为教学裁剪","accessibility_proxy":0.3984,"osm_intensity_class":"较高","core_zone":"内圈"},"geometry":{"type":"Polygon","coordinates":[[[116.4224,39.8917],[116.4299,39.8917],[116.4299,39.89795],[116.4224,39.89795],[116.4224,39.8917]]]}},{"type":"Feature","properties":{"cell_id":"beijing_06_08","city_id":"beijing","city_name_zh":"北京","row":6,"column":8,"area_km2":0.4447,"center_lon":116.43365,"center_lat":39.894825,"distance_to_center_km":2.47,"facility_count":0,"transit_count":0,"healthcare_count":0,"education_count":0,"park_count":0,"service_diversity":0,"facility_density_km2":0.0,"road_segment_count":133,"road_length_m":7359.31,"road_density_km_km2":16.5502,"intersection_count":28,"elevation_m":43,"terrain_relief_m":13,"source_note":"OSM道路与设施聚合；SRTM高程采样；均为教学裁剪","accessibility_proxy":0.284,"osm_intensity_class":"较低","core_zone":"内圈"},"geometry":{"type":"Polygon","coordinates":[[[116.4299,39.8917],[116.4374,39.8917],[116.4374,39.89795],[116.4299,39.89795],[116.4299,39.8917]]]}},{"type":"Feature","properties":{"cell_id":"beijing_07_01","city_id":"beijing","city_name_zh":"北京","row":7,"column":1,"area_km2":0.4447,"center_lon":116.38115,"center_lat":39.888575,"distance_to_center_km":2.834,"facility_count":5,"transit_count":4,"healthcare_count":1,"education_count":0,"park_count":0,"service_diversity":2,"facility_density_km2":11.2434,"road_segment_count":94,"road_length_m":5106.48,"road_density_km_km2":11.4828,"intersection_count":12,"elevation_m":50,"terrain_relief_m":3,"source_note":"OSM道路与设施聚合；SRTM高程采样；均为教学裁剪","accessibility_proxy":0.3999,"osm_intensity_class":"高","core_zone":"内圈"},"geometry":{"type":"Polygon","coordinates":[[[116.3774,39.88545],[116.3849,39.88545],[116.3849,39.8917],[116.3774,39.8917],[116.3774,39.88545]]]}},{"type":"Feature","properties":{"cell_id":"beijing_07_02","city_id":"beijing","city_name_zh":"北京","row":7,"column":2,"area_km2":0.4447,"center_lon":116.38865,"center_lat":39.888575,"distance_to_center_km":2.362,"facility_count":7,"transit_count":7,"healthcare_count":0,"education_count":0,"park_count":0,"service_diversity":1,"facility_density_km2":15.7407,"road_segment_count":123,"road_length_m":6784.47,"road_density_km_km2":15.2561,"intersection_count":18,"elevation_m":48,"terrain_relief_m":6,"source_note":"OSM道路与设施聚合；SRTM高程采样；均为教学裁剪","accessibility_proxy":0.5289,"osm_intensity_class":"高","core_zone":"内圈"},"geometry":{"type":"Polygon","coordinates":[[[116.3849,39.88545],[116.3924,39.88545],[116.3924,39.8917],[116.3849,39.8917],[116.3849,39.88545]]]}},{"type":"Feature","properties":{"cell_id":"beijing_07_03","city_id":"beijing","city_name_zh":"北京","row":7,"column":3,"area_km2":0.4447,"center_lon":116.39615,"center_lat":39.888575,"distance_to_center_km":1.985,"facility_count":2,"transit_count":2,"healthcare_count":0,"education_count":0,"park_count":0,"service_diversity":1,"facility_density_km2":4.4973,"road_segment_count":147,"road_length_m":5984.06,"road_density_km_km2":13.4562,"intersection_count":23,"elevation_m":49,"terrain_relief_m":5,"source_note":"OSM道路与设施聚合；SRTM高程采样；均为教学裁剪","accessibility_proxy":0.3434,"osm_intensity_class":"较高","core_zone":"内圈"},"geometry":{"type":"Polygon","coordinates":[[[116.3924,39.88545],[116.3999,39.88545],[116.3999,39.8917],[116.3924,39.8917],[116.3924,39.88545]]]}},{"type":"Feature","properties":{"cell_id":"beijing_07_04","city_id":"beijing","city_name_zh":"北京","row":7,"column":4,"area_km2":0.4447,"center_lon":116.40365,"center_lat":39.888575,"distance_to_center_km":1.767,"facility_count":2,"transit_count":1,"healthcare_count":1,"education_count":0,"park_count":0,"service_diversity":2,"facility_density_km2":4.4973,"road_segment_count":178,"road_length_m":8448.81,"road_density_km_km2":18.9986,"intersection_count":43,"elevation_m":44,"terrain_relief_m":6,"source_note":"OSM道路与设施聚合；SRTM高程采样；均为教学裁剪","accessibility_proxy":0.4115,"osm_intensity_class":"高","core_zone":"内圈"},"geometry":{"type":"Polygon","coordinates":[[[116.3999,39.88545],[116.4074,39.88545],[116.4074,39.8917],[116.3999,39.8917],[116.3999,39.88545]]]}},{"type":"Feature","properties":{"cell_id":"beijing_07_05","city_id":"beijing","city_name_zh":"北京","row":7,"column":5,"area_km2":0.4447,"center_lon":116.41115,"center_lat":39.888575,"distance_to_center_km":1.767,"facility_count":1,"transit_count":1,"healthcare_count":0,"education_count":0,"park_count":0,"service_diversity":1,"facility_density_km2":2.2487,"road_segment_count":255,"road_length_m":6958.74,"road_density_km_km2":15.6479,"intersection_count":16,"elevation_m":44,"terrain_relief_m":3,"source_note":"OSM道路与设施聚合；SRTM高程采样；均为教学裁剪","accessibility_proxy":0.3399,"osm_intensity_class":"较高","core_zone":"内圈"},"geometry":{"type":"Polygon","coordinates":[[[116.4074,39.88545],[116.4149,39.88545],[116.4149,39.8917],[116.4074,39.8917],[116.4074,39.88545]]]}},{"type":"Feature","properties":{"cell_id":"beijing_07_06","city_id":"beijing","city_name_zh":"北京","row":7,"column":6,"area_km2":0.4447,"center_lon":116.41865,"center_lat":39.888575,"distance_to_center_km":1.985,"facility_count":0,"transit_count":0,"healthcare_count":0,"education_count":0,"park_count":0,"service_diversity":0,"facility_density_km2":0.0,"road_segment_count":32,"road_length_m":2004.5,"road_density_km_km2":4.5075,"intersection_count":8,"elevation_m":48,"terrain_relief_m":7,"source_note":"OSM道路与设施聚合；SRTM高程采样；均为教学裁剪","accessibility_proxy":0.1765,"osm_intensity_class":"低","core_zone":"内圈"},"geometry":{"type":"Polygon","coordinates":[[[116.4149,39.88545],[116.4224,39.88545],[116.4224,39.8917],[116.4149,39.8917],[116.4149,39.88545]]]}},{"type":"Feature","properties":{"cell_id":"beijing_07_07","city_id":"beijing","city_name_zh":"北京","row":7,"column":7,"area_km2":0.4447,"center_lon":116.42615,"center_lat":39.888575,"distance_to_center_km":2.362,"facility_count":1,"transit_count":0,"healthcare_count":0,"education_count":1,"park_count":0,"service_diversity":1,"facility_density_km2":2.2487,"road_segment_count":80,"road_length_m":5403.4,"road_density_km_km2":12.1505,"intersection_count":22,"elevation_m":50,"terrain_relief_m":7,"source_note":"OSM道路与设施聚合；SRTM高程采样；均为教学裁剪","accessibility_proxy":0.2781,"osm_intensity_class":"较低","core_zone":"内圈"},"geometry":{"type":"Polygon","coordinates":[[[116.4224,39.88545],[116.4299,39.88545],[116.4299,39.8917],[116.4224,39.8917],[116.4224,39.88545]]]}},{"type":"Feature","properties":{"cell_id":"beijing_07_08","city_id":"beijing","city_name_zh":"北京","row":7,"column":8,"area_km2":0.4447,"center_lon":116.43365,"center_lat":39.888575,"distance_to_center_km":2.834,"facility_count":0,"transit_count":0,"healthcare_count":0,"education_count":0,"park_count":0,"service_diversity":0,"facility_density_km2":0.0,"road_segment_count":48,"road_length_m":3549.7,"road_density_km_km2":7.9821,"intersection_count":11,"elevation_m":43,"terrain_relief_m":5,"source_note":"OSM道路与设施聚合；SRTM高程采样；均为教学裁剪","accessibility_proxy":0.1813,"osm_intensity_class":"低","core_zone":"内圈"},"geometry":{"type":"Polygon","coordinates":[[[116.4299,39.88545],[116.4374,39.88545],[116.4374,39.8917],[116.4299,39.8917],[116.4299,39.88545]]]}},{"type":"Feature","properties":{"cell_id":"beijing_08_01","city_id":"beijing","city_name_zh":"北京","row":8,"column":1,"area_km2":0.4447,"center_lon":116.38115,"center_lat":39.882325,"distance_to_center_km":3.306,"facility_count":0,"transit_count":0,"healthcare_count":0,"education_count":0,"park_count":0,"service_diversity":0,"facility_density_km2":0.0,"road_segment_count":123,"road_length_m":6647.65,"road_density_km_km2":14.947,"intersection_count":39,"elevation_m":48,"terrain_relief_m":3,"source_note":"OSM道路与设施聚合；SRTM高程采样；均为教学裁剪","accessibility_proxy":0.2405,"osm_intensity_class":"低","core_zone":"外圈"},"geometry":{"type":"Polygon","coordinates":[[[116.3774,39.8792],[116.3849,39.8792],[116.3849,39.88545],[116.3774,39.88545],[116.3774,39.8792]]]}},{"type":"Feature","properties":{"cell_id":"beijing_08_02","city_id":"beijing","city_name_zh":"北京","row":8,"column":2,"area_km2":0.4447,"center_lon":116.38865,"center_lat":39.882325,"distance_to_center_km":2.911,"facility_count":2,"transit_count":2,"healthcare_count":0,"education_count":0,"park_count":0,"service_diversity":1,"facility_density_km2":4.4969,"road_segment_count":143,"road_length_m":5996.62,"road_density_km_km2":13.4832,"intersection_count":23,"elevation_m":48,"terrain_relief_m":6,"source_note":"OSM道路与设施聚合；SRTM高程采样；均为教学裁剪","accessibility_proxy":0.3094,"osm_intensity_class":"较低","core_zone":"内圈"},"geometry":{"type":"Polygon","coordinates":[[[116.3849,39.8792],[116.3924,39.8792],[116.3924,39.88545],[116.3849,39.88545],[116.3849,39.8792]]]}},{"type":"Feature","properties":{"cell_id":"beijing_08_03","city_id":"beijing","city_name_zh":"北京","row":8,"column":3,"area_km2":0.4447,"center_lon":116.39615,"center_lat":39.882325,"distance_to_center_km":2.615,"facility_count":2,"transit_count":2,"healthcare_count":0,"education_count":0,"park_count":0,"service_diversity":1,"facility_density_km2":4.4969,"road_segment_count":153,"road_length_m":2755.41,"road_density_km_km2":6.1955,"intersection_count":9,"elevation_m":50,"terrain_relief_m":5,"source_note":"OSM道路与设施聚合；SRTM高程采样；均为教学裁剪","accessibility_proxy":0.2425,"osm_intensity_class":"较低","core_zone":"内圈"},"geometry":{"type":"Polygon","coordinates":[[[116.3924,39.8792],[116.3999,39.8792],[116.3999,39.88545],[116.3924,39.88545],[116.3924,39.8792]]]}},{"type":"Feature","properties":{"cell_id":"beijing_08_04","city_id":"beijing","city_name_zh":"北京","row":8,"column":4,"area_km2":0.4447,"center_lon":116.40365,"center_lat":39.882325,"distance_to_center_km":2.453,"facility_count":0,"transit_count":0,"healthcare_count":0,"education_count":0,"park_count":0,"service_diversity":0,"facility_density_km2":0.0,"road_segment_count":56,"road_length_m":1858.29,"road_density_km_km2":4.1783,"intersection_count":3,"elevation_m":44,"terrain_relief_m":6,"source_note":"OSM道路与设施聚合；SRTM高程采样；均为教学裁剪","accessibility_proxy":0.1544,"osm_intensity_class":"低","core_zone":"内圈"},"geometry":{"type":"Polygon","coordinates":[[[116.3999,39.8792],[116.4074,39.8792],[116.4074,39.88545],[116.3999,39.88545],[116.3999,39.8792]]]}},{"type":"Feature","properties":{"cell_id":"beijing_08_05","city_id":"beijing","city_name_zh":"北京","row":8,"column":5,"area_km2":0.4447,"center_lon":116.41115,"center_lat":39.882325,"distance_to_center_km":2.453,"facility_count":2,"transit_count":2,"healthcare_count":0,"education_count":0,"park_count":0,"service_diversity":1,"facility_density_km2":4.4969,"road_segment_count":313,"road_length_m":5094.78,"road_density_km_km2":11.4555,"intersection_count":16,"elevation_m":46,"terrain_relief_m":4,"source_note":"OSM道路与设施聚合；SRTM高程采样；均为教学裁剪","accessibility_proxy":0.3037,"osm_intensity_class":"较低","core_zone":"内圈"},"geometry":{"type":"Polygon","coordinates":[[[116.4074,39.8792],[116.4149,39.8792],[116.4149,39.88545],[116.4074,39.88545],[116.4074,39.8792]]]}},{"type":"Feature","properties":{"cell_id":"beijing_08_06","city_id":"beijing","city_name_zh":"北京","row":8,"column":6,"area_km2":0.4447,"center_lon":116.41865,"center_lat":39.882325,"distance_to_center_km":2.615,"facility_count":2,"transit_count":2,"healthcare_count":0,"education_count":0,"park_count":0,"service_diversity":1,"facility_density_km2":4.4969,"road_segment_count":172,"road_length_m":7764.59,"road_density_km_km2":17.4584,"intersection_count":40,"elevation_m":42,"terrain_relief_m":9,"source_note":"OSM道路与设施聚合；SRTM高程采样；均为教学裁剪","accessibility_proxy":0.3611,"osm_intensity_class":"较高","core_zone":"内圈"},"geometry":{"type":"Polygon","coordinates":[[[116.4149,39.8792],[116.4224,39.8792],[116.4224,39.88545],[116.4149,39.88545],[116.4149,39.8792]]]}},{"type":"Feature","properties":{"cell_id":"beijing_08_07","city_id":"beijing","city_name_zh":"北京","row":8,"column":7,"area_km2":0.4447,"center_lon":116.42615,"center_lat":39.882325,"distance_to_center_km":2.911,"facility_count":0,"transit_count":0,"healthcare_count":0,"education_count":0,"park_count":0,"service_diversity":0,"facility_density_km2":0.0,"road_segment_count":129,"road_length_m":6538.64,"road_density_km_km2":14.7019,"intersection_count":19,"elevation_m":51,"terrain_relief_m":9,"source_note":"OSM道路与设施聚合；SRTM高程采样；均为教学裁剪","accessibility_proxy":0.2496,"osm_intensity_class":"较低","core_zone":"内圈"},"geometry":{"type":"Polygon","coordinates":[[[116.4224,39.8792],[116.4299,39.8792],[116.4299,39.88545],[116.4224,39.88545],[116.4224,39.8792]]]}},{"type":"Feature","properties":{"cell_id":"beijing_08_08","city_id":"beijing","city_name_zh":"北京","row":8,"column":8,"area_km2":0.4447,"center_lon":116.43365,"center_lat":39.882325,"distance_to_center_km":3.306,"facility_count":0,"transit_count":0,"healthcare_count":0,"education_count":0,"park_count":0,"service_diversity":0,"facility_density_km2":0.0,"road_segment_count":61,"road_length_m":4451.25,"road_density_km_km2":10.0085,"intersection_count":16,"elevation_m":47,"terrain_relief_m":4,"source_note":"OSM道路与设施聚合；SRTM高程采样；均为教学裁剪","accessibility_proxy":0.1885,"osm_intensity_class":"低","core_zone":"外圈"},"geometry":{"type":"Polygon","coordinates":[[[116.4299,39.8792],[116.4374,39.8792],[116.4374,39.88545],[116.4299,39.88545],[116.4299,39.8792]]]}}]}