{"type":"FeatureCollection","name":"beijing_ghsl_boundary","crs":{"type":"name","properties":{"name":"urn:ogc:def:crs:OGC:1.3:CRS84"}},"features":[{"type":"Feature","properties":{"uc_id":8745,"city_name_en":"Beijing","city_name_zh":"北京","country":"China","urban_area_km2_2025":2179,"population_2025":18150575,"population_density_km2_2025":8329.77,"gdp_average_ppp_1990":9655084,"gdp_average_ppp_2000":35192620,"gdp_average_ppp_2010":103686100,"gdp_average_ppp_2020":197046500,"gdp_total_ppp_1990":31649366016,"gdp_total_ppp_2000":116000000000,"gdp_total_ppp_2010":342000000000,"gdp_total_ppp_2020":649000000000,"hdi_1990":0.614,"hdi_2000":0.731,"hdi_2010":0.829,"hdi_2020":0.903},"geometry":{"type":"Polygon","coordinates":[[[116.648546150955,40.2381400612453],[116.66034671248,40.2381400612453],[116.650689961516,40.2291820571342],[116.674289129831,40.2291820571342],[116.664634829472,40.2202244964691],[116.676433437161,40.2202244964691],[116.666782560281,40.211267379272],[116.678580192399,40.211267379272],[116.659289682851,40.1933544733102],[116.671085363829,40.1933544733102],[116.66144572667,40.1843986839011],[116.673240433874,40.1843986839011],[116.663604214804,40.1754433373576],[116.675397947336,40.1754433373576],[116.665765144559,40.1664884330132],[116.677557904216,40.1664884330132],[116.658303514129,40.1485799509976],[116.670094326238,40.1485799509976],[116.660472736233,40.1396263719901],[116.684052417395,40.1396263719901],[116.693675952252,40.1485799509976],[116.70546676526,40.1485799509976],[116.695842257526,40.1396263719901],[116.731211779718,40.1396263719901],[116.740839204281,40.1485799509976],[116.764420830296,40.1485799509976],[116.735545873385,40.1217205394366],[116.723757976309,40.1217205394366],[116.704531851712,40.103816471301],[116.716317806631,40.103816471301],[116.706710337243,40.0948650990159],[116.718495322879,40.0948650990159],[116.708891257209,40.0859141670234],[116.720675272664,40.0859141670234],[116.711074608015,40.0769636753381],[116.699291560943,40.0769636753381],[116.680105272138,40.0590640129447],[116.691886381544,40.0590640129447],[116.68229881523,40.0501148422637],[116.694078956252,40.0501148422637],[116.684494784671,40.0411661105682],[116.71983230528,40.0411661105682],[116.710249591665,40.032217818558],[116.698471384716,40.032217818558],[116.669752280117,40.0053755793776],[116.681527588202,40.0053755793776],[116.633744568696,39.960647288363],[116.645515053727,39.960647288363],[116.635970513122,39.9517029450411],[116.659509558093,39.9517029450411],[116.649967428567,39.9427590394341],[116.673504548449,39.9427590394341],[116.683048603963,39.9517029450411],[116.694818126898,39.9517029450411],[116.68527310839,39.9427590394341],[116.697041669229,39.9427590394341],[116.687500024792,39.9338155708599],[116.699267622638,39.9338155708599],[116.689729352274,39.9248725407023],[116.701495988023,39.9248725407023],[116.691961088138,39.9159299469005],[116.70372676269,39.9159299469005],[116.684668030164,39.898046071829],[116.696431784118,39.898046071829],[116.686907947884,39.8891047891902],[116.710433534296,39.8891047891902],[116.691394994999,39.8712235337252],[116.703155869852,39.8712235337252],[116.693642122597,39.8622835602156],[116.658362376238,39.8622835602156],[116.648855822691,39.8533440230877],[116.637096864843,39.8533440230877],[116.618098614088,39.8354662559147],[116.629855656728,39.8354662559147],[116.620362038922,39.8265280258717],[116.608605953885,39.8265280258717],[116.580153805233,39.79971594647],[116.59190702105,39.79971594647],[116.582430618558,39.7907794564495],[116.594182879466,39.7907794564495],[116.575241056386,39.7729077807245],[116.586991408374,39.7729077807245],[116.558608005994,39.7461035237458],[116.570355497746,39.7461035237458],[116.560901987022,39.7371696388679],[116.584395064303,39.7371696388679],[116.574943934114,39.7282361882827],[116.563198347688,39.7282361882827],[116.553752452881,39.7193031706034],[116.530263183559,39.7193031706034],[116.539707175735,39.7282361882827],[116.527961589309,39.7282361882827],[116.537408909742,39.7371696388679],[116.49042275608,39.7371696388679],[116.499870549926,39.7461035237458],[116.464628076464,39.7461035237458],[116.483530800372,39.7639725943249],[116.471781402394,39.7639725943249],[116.481238241376,39.7729077807245],[116.469487889388,39.7729077807245],[116.478948063815,39.7818434014318],[116.443694144918,39.7818434014318],[116.434236833422,39.7729077807245],[116.422486481434,39.7729077807245],[116.394143128644,39.7461035237458],[116.405890620396,39.7461035237458],[116.396450447858,39.7371696388679],[116.44343660152,39.7371696388679],[116.405703448322,39.7014384346308],[116.382217984264,39.7014384346308],[116.372797280014,39.692506716325],[116.361055497953,39.692506716325],[116.342228789485,39.6746445776574],[116.330488908259,39.6746445776574],[116.321082897753,39.6657141565887],[116.309343965148,39.6657141565887],[116.299943163972,39.6567841683772],[116.288205179988,39.6567841683772],[116.297605032544,39.6657141565887],[116.274127168233,39.6657141565887],[116.311761591191,39.7014384346308],[116.300018858713,39.7014384346308],[116.309437177037,39.7103705858244],[116.297693493243,39.7103705858244],[116.307115129046,39.7193031706034],[116.283625859724,39.7193031706034],[116.274206127451,39.7103705858244],[116.25071876166,39.7103705858244],[116.269558690634,39.7282361882827],[116.257813104208,39.7282361882827],[116.267238523715,39.7371696388679],[116.255491985075,39.7371696388679],[116.264920725653,39.7461035237458],[116.241425743046,39.7461035237458],[116.260292239695,39.7639725943249],[116.248542842615,39.7639725943249],[116.257981555392,39.7729077807245],[116.246231203403,39.7729077807245],[116.265119567741,39.7907794564495],[116.253367306833,39.7907794564495],[116.262816961089,39.79971594647],[116.251063744373,39.79971594647],[116.260516731379,39.8086528714949],[116.248762559754,39.8086528714949],[116.258218880408,39.8175902308352],[116.234708623747,39.8175902308352],[116.225254214707,39.8086528714949],[116.213500043082,39.8086528714949],[116.204050879306,39.79971594647],[116.19229766259,39.79971594647],[116.182853739585,39.7907794564495],[116.15934921687,39.7907794564495],[116.149911486851,39.7818434014318],[116.138160180851,39.7818434014318],[116.109875520388,39.7550378422301],[116.098127076421,39.7550378422301],[116.107550067782,39.7639725943249],[116.095800669804,39.7639725943249],[116.10522698044,39.7729077807245],[116.093476628451,39.7729077807245],[116.102906261955,39.7818434014318],[116.091154955057,39.7818434014318],[116.100587911429,39.7907794564495],[116.088835650521,39.7907794564495],[116.098271930659,39.79971594647],[116.110025147375,39.79971594647],[116.128912468769,39.8175902308352],[116.117157340438,39.8175902308352],[116.136059896361,39.8354662559147],[116.124302854618,39.8354662559147],[116.133759610955,39.8444049216536],[116.110243612262,39.8444049216536],[116.100788771134,39.8354662559147],[116.07727468675,39.8354662559147],[116.086727613569,39.8444049216536],[116.098485612916,39.8444049216536],[116.11740626001,39.8622835602156],[116.129166175463,39.8622835602156],[116.148105928825,39.8801639429247],[116.136344094571,39.8801639429247],[116.145819464,39.8891047891902],[116.122293877588,39.8891047891902],[116.112820427858,39.8801639429247],[116.07753492779,39.8801639429247],[116.096480370183,39.898046071829],[116.084716617127,39.898046071829],[116.094194833318,39.9069877908374],[116.082430119963,39.9069877908374],[116.09191168148,39.9159299469005],[116.080146006927,39.9159299469005],[116.089630915567,39.9248725407023],[116.042564370772,39.9248725407023],[116.071033420328,39.9517029450411],[116.082802943263,39.9517029450411],[116.101805811359,39.9695920700811],[116.113577260282,39.9695920700811],[116.123086138668,39.9785372894993],[116.134858551484,39.9785372894993],[116.125348710103,39.9695920700811],[116.137120159026,39.9695920700811],[116.127613675548,39.960647288363],[116.151154647406,39.960647288363],[116.14165055704,39.9517029450411],[116.16518960291,39.9517029450411],[116.174695619264,39.960647288363],[116.186466105193,39.960647288363],[116.205493032867,39.9785372894993],[116.193720619153,39.9785372894993],[116.20323960718,39.9874829472979],[116.179692851968,39.9874829472979],[116.189214239395,39.9964290441565],[116.20098858269,39.9964290441565],[116.220046282153,40.0143225536397],[116.208270008379,40.0143225536397],[116.217804395326,40.0232699662448],[116.194249914603,40.0232699662448],[116.203786705442,40.032217818558],[116.156673879444,40.032217818558],[116.166211141,40.0411661105682],[116.142652793928,40.0411661105682],[116.152192460274,40.0501148422637],[116.140412319252,40.0501148422637],[116.149955359671,40.0590640129447],[116.102830922947,40.0590640129447],[116.131474489112,40.0859141670234],[116.143258504568,40.0859141670234],[116.171944122668,40.1127682852378],[116.160157196671,40.1127682852378],[116.169726808357,40.1217205394366],[116.122575220054,40.1217205394366],[116.113009491785,40.1127682852378],[116.101222565788,40.1127682852378],[116.11078732208,40.1217205394366],[116.098999425004,40.1217205394366],[116.127716929703,40.1485799509976],[116.174880181732,40.1485799509976],[116.18446529834,40.157533970887],[116.196257084223,40.157533970887],[116.215442370508,40.1754433373576],[116.227236103938,40.1754433373576],[116.236836279904,40.1843986839011],[116.248630986209,40.1843986839011],[116.28707937624,40.2202244964691],[116.310676592516,40.2202244964691],[116.281827876293,40.1933544733102],[116.293623557271,40.1933544733102],[116.274411034964,40.1754433373576],[116.286204767496,40.1754433373576],[116.276604096559,40.1664884330132],[116.288396855317,40.1664884330132],[116.278799585401,40.157533970887],[116.314174942151,40.157533970887],[116.304579124811,40.1485799509976],[116.328160750826,40.1485799509976],[116.308978334658,40.1306732352552],[116.320767203711,40.1306732352552],[116.311181575063,40.1217205394366],[116.334757369215,40.1217205394366],[116.344344940918,40.1306732352552],[116.356133809971,40.1306732352552],[116.375324002855,40.1485799509976],[116.363533189847,40.1485799509976],[116.373133871564,40.157533970887],[116.361342085682,40.157533970887],[116.37094616842,40.1664884330132],[116.359153409662,40.1664884330132],[116.37837276186,40.1843986839011],[116.366578055554,40.1843986839011],[116.376193327708,40.1933544733102],[116.364397645832,40.1933544733102],[116.374016327092,40.2023107048786],[116.409406296736,40.2023107048786],[116.399784690562,40.1933544733102],[116.411580371539,40.1933544733102],[116.401962175369,40.1843986839011],[116.425551589777,40.1843986839011],[116.415935827143,40.1754433373576],[116.451317025637,40.1754433373576],[116.460935710491,40.1843986839011],[116.519909244714,40.1843986839011],[116.510285689195,40.1754433373576],[116.522079421727,40.1754433373576],[116.512459277111,40.1664884330132],[116.536044795525,40.1664884330132],[116.545666887689,40.1754433373576],[116.557460620221,40.1754433373576],[116.547837554283,40.1664884330132],[116.559630313042,40.1664884330132],[116.550010658007,40.157533970887],[116.573594229773,40.157533970887],[116.583215831456,40.1664884330132],[116.595008590214,40.1664884330132],[116.604635551246,40.1754433373576],[116.616429283778,40.1754433373576],[116.635698319998,40.1933544733102],[116.623902638122,40.1933544733102],[116.633542770252,40.2023107048786],[116.621746113704,40.2023107048786],[116.631389664823,40.211267379272],[116.607794400586,40.211267379272],[116.636745590329,40.2381400612453],[116.624945028804,40.2381400612453],[116.634603253005,40.2470985080939],[116.658206328992,40.2470985080939],[116.648546150955,40.2381400612453]],[[116.630785846035,40.0680136239739],[116.607221691355,40.0680136239739],[116.597637508097,40.0590640129447],[116.585856398691,40.0590640129447],[116.557132904924,40.032217818558],[116.568911111872,40.032217818558],[116.559344355032,40.0232699662448],[116.571121595394,40.0232699662448],[116.561558223405,40.0143225536397],[116.585110770954,40.0143225536397],[116.594676075219,40.0232699662448],[116.60645331558,40.0232699662448],[116.635178250245,40.0501148422637],[116.623398109224,40.0501148422637],[116.632980835415,40.0590640129447],[116.621199726908,40.0590640129447],[116.630785846035,40.0680136239739]]]}}]}