{"type":"FeatureCollection","name":"beijing_facilities","crs":{"type":"name","properties":{"name":"urn:ogc:def:crs:OGC:1.3:CRS84"}},"features":[{"type":"Feature","properties":{"facility_id":"osm_node_11283056769","osm_id":"11283056769","name":"曼联梦剧场","category":"community","category_zh":"社区服务","amenity":"community_centre","railway":null,"source":"OpenStreetMap"},"geometry":{"type":"Point","coordinates":[116.3883975,39.8959659]}},{"type":"Feature","properties":{"facility_id":"osm_node_12556573968","osm_id":"12556573968","name":"社区菜站","category":"community","category_zh":"社区服务","amenity":"community_centre","railway":null,"source":"OpenStreetMap"},"geometry":{"type":"Point","coordinates":[116.3811691,39.8974742]}},{"type":"Feature","properties":{"facility_id":"osm_node_4801081513","osm_id":"4801081513","name":"北京罗马尼亚文化中心","category":"community","category_zh":"社区服务","amenity":"community_centre","railway":null,"source":"OpenStreetMap"},"geometry":{"type":"Point","coordinates":[116.4271186,39.9196792]}},{"type":"Feature","properties":{"facility_id":"osm_node_11886110334","osm_id":"11886110334","name":"北京第一实验小学","category":"education","category_zh":"教育","amenity":"school","railway":null,"source":"OpenStreetMap"},"geometry":{"type":"Point","coordinates":[116.3780061,39.8953401]}},{"type":"Feature","properties":{"facility_id":"osm_node_13860479406","osm_id":"13860479406","name":"商务部老年大学","category":"education","category_zh":"教育","amenity":"university","railway":null,"source":"OpenStreetMap"},"geometry":{"type":"Point","coordinates":[116.4074757,39.9043425]}},{"type":"Feature","properties":{"facility_id":"osm_node_2102424145","osm_id":"2102424145","name":"崇文三幼","category":"education","category_zh":"教育","amenity":"kindergarten","railway":null,"source":"OpenStreetMap"},"geometry":{"type":"Point","coordinates":[116.4277066,39.8862648]}},{"type":"Feature","properties":{"facility_id":"osm_node_4367139890","osm_id":"4367139890","name":"北京市东城区第二幼儿园","category":"education","category_zh":"教育","amenity":"kindergarten","railway":null,"source":"OpenStreetMap"},"geometry":{"type":"Point","coordinates":[116.4276728,39.8927986]}},{"type":"Feature","properties":{"facility_id":"osm_node_4454307290","osm_id":"4454307290","name":"师范大学附属中学","category":"education","category_zh":"教育","amenity":"school","railway":null,"source":"OpenStreetMap"},"geometry":{"type":"Point","coordinates":[116.378338,39.8966418]}},{"type":"Feature","properties":{"facility_id":"osm_node_6410462419","osm_id":"6410462419","name":"灯市口小学礼市校区","category":"education","category_zh":"教育","amenity":"school","railway":null,"source":"OpenStreetMap"},"geometry":{"type":"Point","coordinates":[116.416219,39.9207134]}},{"type":"Feature","properties":{"facility_id":"osm_node_12565368676","osm_id":"12565368676","name":"天易中医","category":"healthcare","category_zh":"医疗","amenity":"clinic","railway":null,"source":"OpenStreetMap"},"geometry":{"type":"Point","coordinates":[116.4048078,39.8871384]}},{"type":"Feature","properties":{"facility_id":"osm_node_12777302351","osm_id":"12777302351","name":"中国人民解放军第三〇五医院","category":"healthcare","category_zh":"医疗","amenity":"hospital","railway":null,"source":"OpenStreetMap"},"geometry":{"type":"Point","coordinates":[116.3785212,39.924074]}},{"type":"Feature","properties":{"facility_id":"osm_node_12837264136","osm_id":"12837264136","name":"大方家社区卫生服务站","category":"healthcare","category_zh":"医疗","amenity":"clinic","railway":null,"source":"OpenStreetMap"},"geometry":{"type":"Point","coordinates":[116.4267921,39.9176672]}},{"type":"Feature","properties":{"facility_id":"osm_node_13091778601","osm_id":"13091778601","name":"同仁堂中医医院","category":"healthcare","category_zh":"医疗","amenity":"hospital","railway":null,"source":"OpenStreetMap"},"geometry":{"type":"Point","coordinates":[116.4033609,39.8976373]}},{"type":"Feature","properties":{"facility_id":"osm_node_13442628901","osm_id":"13442628901","name":"Beijing United Family Hospital of Integrative Medicine","category":"healthcare","category_zh":"医疗","amenity":"hospital","railway":null,"source":"OpenStreetMap"},"geometry":{"type":"Point","coordinates":[116.4170976,39.9103087]}},{"type":"Feature","properties":{"facility_id":"osm_node_13888669701","osm_id":"13888669701","name":"Peking Union Medical College","category":"healthcare","category_zh":"医疗","amenity":"hospital","railway":null,"source":"OpenStreetMap"},"geometry":{"type":"Point","coordinates":[116.4105731,39.9182405]}},{"type":"Feature","properties":{"facility_id":"osm_node_2056613814","osm_id":"2056613814","name":"北京市普仁医院","category":"healthcare","category_zh":"医疗","amenity":"hospital","railway":null,"source":"OpenStreetMap"},"geometry":{"type":"Point","coordinates":[116.4131778,39.8933066]}},{"type":"Feature","properties":{"facility_id":"osm_node_2425487191","osm_id":"2425487191","name":"未命名设施","category":"healthcare","category_zh":"医疗","amenity":"hospital","railway":null,"source":"OpenStreetMap"},"geometry":{"type":"Point","coordinates":[116.404826,39.9256419]}},{"type":"Feature","properties":{"facility_id":"osm_node_2738812685","osm_id":"2738812685","name":"北京市宣武中医医院","category":"healthcare","category_zh":"医疗","amenity":"hospital","railway":null,"source":"OpenStreetMap"},"geometry":{"type":"Point","coordinates":[116.383404,39.8861639]}},{"type":"Feature","properties":{"facility_id":"osm_node_3562733756","osm_id":"3562733756","name":"北京美莱医疗美容医院","category":"healthcare","category_zh":"医疗","amenity":"clinic","railway":null,"source":"OpenStreetMap"},"geometry":{"type":"Point","coordinates":[116.4350114,39.9231935]}},{"type":"Feature","properties":{"facility_id":"osm_node_4167796592","osm_id":"4167796592","name":"北京当代医院","category":"healthcare","category_zh":"医疗","amenity":"hospital","railway":null,"source":"OpenStreetMap"},"geometry":{"type":"Point","coordinates":[116.4110041,39.9273613]}},{"type":"Feature","properties":{"facility_id":"osm_node_10152163325","osm_id":"10152163325","name":"天安门西","category":"transit","category_zh":"公共交通","amenity":null,"railway":"subway_entrance","source":"OpenStreetMap"},"geometry":{"type":"Point","coordinates":[116.3860193,39.9064683]}},{"type":"Feature","properties":{"facility_id":"osm_node_1024947212","osm_id":"1024947212","name":"天安门东","category":"transit","category_zh":"公共交通","amenity":null,"railway":"subway_entrance","source":"OpenStreetMap"},"geometry":{"type":"Point","coordinates":[116.3937637,39.9065822]}},{"type":"Feature","properties":{"facility_id":"osm_node_10679111415","osm_id":"10679111415","name":"未命名设施","category":"transit","category_zh":"公共交通","amenity":null,"railway":"subway_entrance","source":"OpenStreetMap"},"geometry":{"type":"Point","coordinates":[116.4042873,39.9143011]}},{"type":"Feature","properties":{"facility_id":"osm_node_11708763977","osm_id":"11708763977","name":"未命名设施","category":"transit","category_zh":"公共交通","amenity":null,"railway":"subway_entrance","source":"OpenStreetMap"},"geometry":{"type":"Point","coordinates":[116.3921303,39.880314]}},{"type":"Feature","properties":{"facility_id":"osm_node_1189531093","osm_id":"1189531093","name":"未命名设施","category":"transit","category_zh":"公共交通","amenity":null,"railway":"subway_entrance","source":"OpenStreetMap"},"geometry":{"type":"Point","coordinates":[116.4203187,39.9038125]}},{"type":"Feature","properties":{"facility_id":"osm_node_1189531268","osm_id":"1189531268","name":"未命名设施","category":"transit","category_zh":"公共交通","amenity":null,"railway":"subway_entrance","source":"OpenStreetMap"},"geometry":{"type":"Point","coordinates":[116.4279738,39.9077677]}},{"type":"Feature","properties":{"facility_id":"osm_node_1189531292","osm_id":"1189531292","name":"D","category":"transit","category_zh":"公共交通","amenity":null,"railway":"subway_entrance","source":"OpenStreetMap"},"geometry":{"type":"Point","coordinates":[116.4198967,39.9033166]}},{"type":"Feature","properties":{"facility_id":"osm_node_1195696762","osm_id":"1195696762","name":"A出口","category":"transit","category_zh":"公共交通","amenity":null,"railway":"subway_entrance","source":"OpenStreetMap"},"geometry":{"type":"Point","coordinates":[116.3928151,39.8990173]}},{"type":"Feature","properties":{"facility_id":"osm_node_1195696783","osm_id":"1195696783","name":"未命名设施","category":"transit","category_zh":"公共交通","amenity":null,"railway":"subway_entrance","source":"OpenStreetMap"},"geometry":{"type":"Point","coordinates":[116.3784354,39.8991185]}},{"type":"Feature","properties":{"facility_id":"osm_node_1195696786","osm_id":"1195696786","name":"C出口","category":"transit","category_zh":"公共交通","amenity":null,"railway":"subway_entrance","source":"OpenStreetMap"},"geometry":{"type":"Point","coordinates":[116.3905252,39.8984876]}},{"type":"Feature","properties":{"facility_id":"osm_node_1195696793","osm_id":"1195696793","name":"未命名设施","category":"transit","category_zh":"公共交通","amenity":null,"railway":"subway_entrance","source":"OpenStreetMap"},"geometry":{"type":"Point","coordinates":[116.3774448,39.898836]}},{"type":"Feature","properties":{"facility_id":"osm_node_1195696804","osm_id":"1195696804","name":"未命名设施","category":"transit","category_zh":"公共交通","amenity":null,"railway":"subway_entrance","source":"OpenStreetMap"},"geometry":{"type":"Point","coordinates":[116.4282856,39.9065972]}},{"type":"Feature","properties":{"facility_id":"osm_node_1195696838","osm_id":"1195696838","name":"未命名设施","category":"transit","category_zh":"公共交通","amenity":null,"railway":"subway_entrance","source":"OpenStreetMap"},"geometry":{"type":"Point","coordinates":[116.4214672,39.9038293]}},{"type":"Feature","properties":{"facility_id":"osm_node_1195696865","osm_id":"1195696865","name":"B出口","category":"transit","category_zh":"公共交通","amenity":null,"railway":"subway_entrance","source":"OpenStreetMap"},"geometry":{"type":"Point","coordinates":[116.3928476,39.8985538]}},{"type":"Feature","properties":{"facility_id":"osm_node_1195696913","osm_id":"1195696913","name":"未命名设施","category":"transit","category_zh":"公共交通","amenity":null,"railway":"subway_entrance","source":"OpenStreetMap"},"geometry":{"type":"Point","coordinates":[116.3789496,39.8985522]}},{"type":"Feature","properties":{"facility_id":"osm_node_1195696938","osm_id":"1195696938","name":"未命名设施","category":"transit","category_zh":"公共交通","amenity":null,"railway":"subway_entrance","source":"OpenStreetMap"},"geometry":{"type":"Point","coordinates":[116.3789236,39.8988909]}},{"type":"Feature","properties":{"facility_id":"osm_node_1195696945","osm_id":"1195696945","name":"未命名设施","category":"transit","category_zh":"公共交通","amenity":null,"railway":"subway_entrance","source":"OpenStreetMap"},"geometry":{"type":"Point","coordinates":[116.4307333,39.9076538]}},{"type":"Feature","properties":{"facility_id":"osm_node_1195696977","osm_id":"1195696977","name":"华夏银行","category":"transit","category_zh":"公共交通","amenity":"bank","railway":"subway_entrance","source":"OpenStreetMap"},"geometry":{"type":"Point","coordinates":[116.3774666,39.8985067]}},{"type":"Feature","properties":{"facility_id":"osm_node_1195697035","osm_id":"1195697035","name":"朝阳门-A口","category":"transit","category_zh":"公共交通","amenity":null,"railway":"subway_entrance","source":"OpenStreetMap"},"geometry":{"type":"Point","coordinates":[116.4295123,39.9234877]}},{"type":"Feature","properties":{"facility_id":"osm_node_1300399127","osm_id":"1300399127","name":"未命名设施","category":"transit","category_zh":"公共交通","amenity":null,"railway":"subway_entrance","source":"OpenStreetMap"},"geometry":{"type":"Point","coordinates":[116.4116531,39.8994702]}},{"type":"Feature","properties":{"facility_id":"osm_node_1300399137","osm_id":"1300399137","name":"未命名设施","category":"transit","category_zh":"公共交通","amenity":null,"railway":"subway_entrance","source":"OpenStreetMap"},"geometry":{"type":"Point","coordinates":[116.4116529,39.8998845]}},{"type":"Feature","properties":{"facility_id":"osm_node_1300399159","osm_id":"1300399159","name":"未命名设施","category":"transit","category_zh":"公共交通","amenity":null,"railway":"subway_entrance","source":"OpenStreetMap"},"geometry":{"type":"Point","coordinates":[116.4097673,39.8994361]}},{"type":"Feature","properties":{"facility_id":"osm_node_1300399166","osm_id":"1300399166","name":"未命名设施","category":"transit","category_zh":"公共交通","amenity":null,"railway":"subway_entrance","source":"OpenStreetMap"},"geometry":{"type":"Point","coordinates":[116.4097008,39.8998449]}},{"type":"Feature","properties":{"facility_id":"osm_node_1300399186","osm_id":"1300399186","name":"未命名设施","category":"transit","category_zh":"公共交通","amenity":null,"railway":"subway_entrance","source":"OpenStreetMap"},"geometry":{"type":"Point","coordinates":[116.4112593,39.8998755]}},{"type":"Feature","properties":{"facility_id":"osm_node_1300399201","osm_id":"1300399201","name":"未命名设施","category":"transit","category_zh":"公共交通","amenity":null,"railway":"subway_entrance","source":"OpenStreetMap"},"geometry":{"type":"Point","coordinates":[116.410102,39.8998514]}},{"type":"Feature","properties":{"facility_id":"osm_node_1301959175","osm_id":"1301959175","name":"天安门西","category":"transit","category_zh":"公共交通","amenity":null,"railway":"subway_entrance","source":"OpenStreetMap"},"geometry":{"type":"Point","coordinates":[116.386552,39.9063798]}},{"type":"Feature","properties":{"facility_id":"osm_node_1301959208","osm_id":"1301959208","name":"天安门西","category":"transit","category_zh":"公共交通","amenity":null,"railway":"subway_entrance","source":"OpenStreetMap"},"geometry":{"type":"Point","coordinates":[116.3844231,39.9056607]}},{"type":"Feature","properties":{"facility_id":"osm_node_1301959251","osm_id":"1301959251","name":"天安门西","category":"transit","category_zh":"公共交通","amenity":null,"railway":"subway_entrance","source":"OpenStreetMap"},"geometry":{"type":"Point","coordinates":[116.3843337,39.906431]}},{"type":"Feature","properties":{"facility_id":"osm_node_1301959254","osm_id":"1301959254","name":"天安门东","category":"transit","category_zh":"公共交通","amenity":null,"railway":"subway_entrance","source":"OpenStreetMap"},"geometry":{"type":"Point","coordinates":[116.3961232,39.9067457]}},{"type":"Feature","properties":{"facility_id":"osm_node_1302986764","osm_id":"1302986764","name":"未命名设施","category":"transit","category_zh":"公共交通","amenity":null,"railway":"subway_entrance","source":"OpenStreetMap"},"geometry":{"type":"Point","coordinates":[116.404642,39.9068842]}},{"type":"Feature","properties":{"facility_id":"osm_node_1302986770","osm_id":"1302986770","name":"未命名设施","category":"transit","category_zh":"公共交通","amenity":null,"railway":"subway_entrance","source":"OpenStreetMap"},"geometry":{"type":"Point","coordinates":[116.4054314,39.9078407]}},{"type":"Feature","properties":{"facility_id":"osm_node_1302986771","osm_id":"1302986771","name":"未命名设施","category":"transit","category_zh":"公共交通","amenity":null,"railway":"subway_entrance","source":"OpenStreetMap"},"geometry":{"type":"Point","coordinates":[116.4058262,39.906977]}},{"type":"Feature","properties":{"facility_id":"osm_node_1302986772","osm_id":"1302986772","name":"未命名设施","category":"transit","category_zh":"公共交通","amenity":null,"railway":"subway_entrance","source":"OpenStreetMap"},"geometry":{"type":"Point","coordinates":[116.4058287,39.9064537]}},{"type":"Feature","properties":{"facility_id":"osm_node_1302986794","osm_id":"1302986794","name":"未命名设施","category":"transit","category_zh":"公共交通","amenity":null,"railway":"subway_entrance","source":"OpenStreetMap"},"geometry":{"type":"Point","coordinates":[116.4061439,39.9064647]}},{"type":"Feature","properties":{"facility_id":"osm_node_1302986800","osm_id":"1302986800","name":"未命名设施","category":"transit","category_zh":"公共交通","amenity":null,"railway":"subway_entrance","source":"OpenStreetMap"},"geometry":{"type":"Point","coordinates":[116.4046594,39.9063978]}},{"type":"Feature","properties":{"facility_id":"osm_node_1357810136","osm_id":"1357810136","name":"未命名设施","category":"transit","category_zh":"公共交通","amenity":null,"railway":"subway_entrance","source":"OpenStreetMap"},"geometry":{"type":"Point","coordinates":[116.4118873,39.9225912]}},{"type":"Feature","properties":{"facility_id":"osm_node_1359089982","osm_id":"1359089982","name":"未命名设施","category":"transit","category_zh":"公共交通","amenity":null,"railway":"subway_entrance","source":"OpenStreetMap"},"geometry":{"type":"Point","coordinates":[116.4141573,39.8828851]}},{"type":"Feature","properties":{"facility_id":"osm_node_1359090002","osm_id":"1359090002","name":"D出口","category":"transit","category_zh":"公共交通","amenity":null,"railway":"subway_entrance","source":"OpenStreetMap"},"geometry":{"type":"Point","coordinates":[116.4118114,39.8912512]}},{"type":"Feature","properties":{"facility_id":"osm_node_1359090003","osm_id":"1359090003","name":"A出口","category":"transit","category_zh":"公共交通","amenity":null,"railway":"subway_entrance","source":"OpenStreetMap"},"geometry":{"type":"Point","coordinates":[116.4118221,39.8920481]}},{"type":"Feature","properties":{"facility_id":"osm_node_1359090010","osm_id":"1359090010","name":"未命名设施","category":"transit","category_zh":"公共交通","amenity":null,"railway":"subway_entrance","source":"OpenStreetMap"},"geometry":{"type":"Point","coordinates":[116.4131529,39.9001656]}},{"type":"Feature","properties":{"facility_id":"osm_node_13626238784","osm_id":"13626238784","name":"未命名设施","category":"transit","category_zh":"公共交通","amenity":null,"railway":"subway_entrance","source":"OpenStreetMap"},"geometry":{"type":"Point","coordinates":[116.392095,39.8811814]}},{"type":"Feature","properties":{"facility_id":"osm_node_1408143367","osm_id":"1408143367","name":"前门","category":"transit","category_zh":"公共交通","amenity":null,"railway":"tram_stop","source":"OpenStreetMap"},"geometry":{"type":"Point","coordinates":[116.3917177,39.8968439]}},{"type":"Feature","properties":{"facility_id":"osm_node_1408143368","osm_id":"1408143368","name":"前门","category":"transit","category_zh":"公共交通","amenity":null,"railway":"tram_stop","source":"OpenStreetMap"},"geometry":{"type":"Point","coordinates":[116.3918601,39.8968463]}},{"type":"Feature","properties":{"facility_id":"osm_node_1408143387","osm_id":"1408143387","name":"前门","category":"transit","category_zh":"公共交通","amenity":null,"railway":"tram_stop","source":"OpenStreetMap"},"geometry":{"type":"Point","coordinates":[116.3917507,39.896844]}},{"type":"Feature","properties":{"facility_id":"osm_node_1408143388","osm_id":"1408143388","name":"前门","category":"transit","category_zh":"公共交通","amenity":null,"railway":"tram_stop","source":"OpenStreetMap"},"geometry":{"type":"Point","coordinates":[116.3918262,39.8968456]}},{"type":"Feature","properties":{"facility_id":"osm_node_1408143389","osm_id":"1408143389","name":"珠市口","category":"transit","category_zh":"公共交通","amenity":null,"railway":"tram_stop","source":"OpenStreetMap"},"geometry":{"type":"Point","coordinates":[116.3920603,39.8904243]}},{"type":"Feature","properties":{"facility_id":"osm_node_1408143390","osm_id":"1408143390","name":"珠市口","category":"transit","category_zh":"公共交通","amenity":null,"railway":"tram_stop","source":"OpenStreetMap"},"geometry":{"type":"Point","coordinates":[116.392145,39.8904219]}},{"type":"Feature","properties":{"facility_id":"osm_node_1429554241","osm_id":"1429554241","name":"未命名设施","category":"transit","category_zh":"公共交通","amenity":null,"railway":"subway_entrance","source":"OpenStreetMap"},"geometry":{"type":"Point","coordinates":[116.4125776,39.8983398]}},{"type":"Feature","properties":{"facility_id":"osm_node_1429554243","osm_id":"1429554243","name":"未命名设施","category":"transit","category_zh":"公共交通","amenity":null,"railway":"subway_entrance","source":"OpenStreetMap"},"geometry":{"type":"Point","coordinates":[116.4125737,39.8986748]}},{"type":"Feature","properties":{"facility_id":"osm_node_1654257552","osm_id":"1654257552","name":"未命名设施","category":"transit","category_zh":"公共交通","amenity":null,"railway":"subway_entrance","source":"OpenStreetMap"},"geometry":{"type":"Point","coordinates":[116.4111565,39.9065699]}},{"type":"Feature","properties":{"facility_id":"osm_node_1654257557","osm_id":"1654257557","name":"未命名设施","category":"transit","category_zh":"公共交通","amenity":null,"railway":"subway_entrance","source":"OpenStreetMap"},"geometry":{"type":"Point","coordinates":[116.4126582,39.907138]}},{"type":"Feature","properties":{"facility_id":"osm_node_1654257560","osm_id":"1654257560","name":"未命名设施","category":"transit","category_zh":"公共交通","amenity":null,"railway":"subway_entrance","source":"OpenStreetMap"},"geometry":{"type":"Point","coordinates":[116.4109871,39.9070544]}},{"type":"Feature","properties":{"facility_id":"osm_node_1654257562","osm_id":"1654257562","name":"未命名设施","category":"transit","category_zh":"公共交通","amenity":null,"railway":"subway_entrance","source":"OpenStreetMap"},"geometry":{"type":"Point","coordinates":[116.4125494,39.9066033]}},{"type":"Feature","properties":{"facility_id":"osm_node_1990853188","osm_id":"1990853188","name":"未命名设施","category":"transit","category_zh":"公共交通","amenity":null,"railway":"subway_entrance","source":"OpenStreetMap"},"geometry":{"type":"Point","coordinates":[116.410702,39.9226136]}},{"type":"Feature","properties":{"facility_id":"osm_node_2048053079","osm_id":"2048053079","name":"E3出口","category":"transit","category_zh":"公共交通","amenity":null,"railway":"subway_entrance","source":"OpenStreetMap"},"geometry":{"type":"Point","coordinates":[116.3929908,39.8980262]}},{"type":"Feature","properties":{"facility_id":"osm_node_2048053087","osm_id":"2048053087","name":"E1出口","category":"transit","category_zh":"公共交通","amenity":null,"railway":"subway_entrance","source":"OpenStreetMap"},"geometry":{"type":"Point","coordinates":[116.393189,39.8982197]}},{"type":"Feature","properties":{"facility_id":"osm_node_2048053088","osm_id":"2048053088","name":"E2出口","category":"transit","category_zh":"公共交通","amenity":null,"railway":"subway_entrance","source":"OpenStreetMap"},"geometry":{"type":"Point","coordinates":[116.3937242,39.8982669]}},{"type":"Feature","properties":{"facility_id":"osm_node_2359088026","osm_id":"2359088026","name":"天安门东","category":"transit","category_zh":"公共交通","amenity":null,"railway":"subway_entrance","source":"OpenStreetMap"},"geometry":{"type":"Point","coordinates":[116.3944869,39.9054649]}},{"type":"Feature","properties":{"facility_id":"osm_node_2383255362","osm_id":"2383255362","name":"未命名设施","category":"transit","category_zh":"公共交通","amenity":null,"railway":"subway_entrance","source":"OpenStreetMap"},"geometry":{"type":"Point","coordinates":[116.4122892,39.915364]}},{"type":"Feature","properties":{"facility_id":"osm_node_269996666","osm_id":"269996666","name":"北京","category":"transit","category_zh":"公共交通","amenity":null,"railway":"station","source":"OpenStreetMap"},"geometry":{"type":"Point","coordinates":[116.4210134,39.9011168]}},{"type":"Feature","properties":{"facility_id":"osm_node_3369459839","osm_id":"3369459839","name":"桥湾","category":"transit","category_zh":"公共交通","amenity":null,"railway":"station","source":"OpenStreetMap"},"geometry":{"type":"Point","coordinates":[116.4022485,39.8912849]}},{"type":"Feature","properties":{"facility_id":"osm_node_3369459840","osm_id":"3369459840","name":"广渠门内","category":"transit","category_zh":"公共交通","amenity":null,"railway":"station","source":"OpenStreetMap"},"geometry":{"type":"Point","coordinates":[116.4277207,39.8922863]}},{"type":"Feature","properties":{"facility_id":"osm_node_3369459846","osm_id":"3369459846","name":"磁器口","category":"transit","category_zh":"公共交通","amenity":null,"railway":"station","source":"OpenStreetMap"},"geometry":{"type":"Point","coordinates":[116.4126199,39.8917025]}},{"type":"Feature","properties":{"facility_id":"osm_node_3369459848","osm_id":"3369459848","name":"虎坊桥","category":"transit","category_zh":"公共交通","amenity":null,"railway":"station","source":"OpenStreetMap"},"geometry":{"type":"Point","coordinates":[116.3774806,39.8883975]}},{"type":"Feature","properties":{"facility_id":"osm_node_4068317605","osm_id":"4068317605","name":"鲜鱼口","category":"transit","category_zh":"公共交通","amenity":null,"railway":"tram_stop","source":"OpenStreetMap"},"geometry":{"type":"Point","coordinates":[116.391844,39.8942677]}},{"type":"Feature","properties":{"facility_id":"osm_node_4710638759","osm_id":"4710638759","name":"天安门东","category":"transit","category_zh":"公共交通","amenity":null,"railway":"subway_entrance","source":"OpenStreetMap"},"geometry":{"type":"Point","coordinates":[116.3957693,39.9054978]}},{"type":"Feature","properties":{"facility_id":"osm_node_4716204515","osm_id":"4716204515","name":"未命名设施","category":"transit","category_zh":"公共交通","amenity":null,"railway":"subway_entrance","source":"OpenStreetMap"},"geometry":{"type":"Point","coordinates":[116.4145286,39.906638]}},{"type":"Feature","properties":{"facility_id":"osm_node_4844392642","osm_id":"4844392642","name":"未命名设施","category":"transit","category_zh":"公共交通","amenity":null,"railway":"subway_entrance","source":"OpenStreetMap"},"geometry":{"type":"Point","coordinates":[116.380333,39.8879058]}},{"type":"Feature","properties":{"facility_id":"osm_node_4846712797","osm_id":"4846712797","name":"北京站","category":"transit","category_zh":"公共交通","amenity":null,"railway":"station","source":"OpenStreetMap"},"geometry":{"type":"Point","coordinates":[116.4209544,39.9035987]}},{"type":"Feature","properties":{"facility_id":"osm_node_5305505989","osm_id":"5305505989","name":"灯市口","category":"transit","category_zh":"公共交通","amenity":null,"railway":"station","source":"OpenStreetMap"},"geometry":{"type":"Point","coordinates":[116.4118355,39.9154103]}},{"type":"Feature","properties":{"facility_id":"osm_node_5305505990","osm_id":"5305505990","name":"东四","category":"transit","category_zh":"公共交通","amenity":null,"railway":"station","source":"OpenStreetMap"},"geometry":{"type":"Point","coordinates":[116.4102477,39.9229744]}},{"type":"Feature","properties":{"facility_id":"osm_node_5428312892","osm_id":"5428312892","name":"和平门","category":"transit","category_zh":"公共交通","amenity":null,"railway":"station","source":"OpenStreetMap"},"geometry":{"type":"Point","coordinates":[116.3777751,39.8986925]}},{"type":"Feature","properties":{"facility_id":"osm_node_5430420858","osm_id":"5430420858","name":"崇文门","category":"transit","category_zh":"公共交通","amenity":null,"railway":"station","source":"OpenStreetMap"},"geometry":{"type":"Point","coordinates":[116.4119567,39.8997371]}},{"type":"Feature","properties":{"facility_id":"osm_node_5430429324","osm_id":"5430429324","name":"东单","category":"transit","category_zh":"公共交通","amenity":null,"railway":"station","source":"OpenStreetMap"},"geometry":{"type":"Point","coordinates":[116.412626,39.9068579]}},{"type":"Feature","properties":{"facility_id":"osm_node_5430497283","osm_id":"5430497283","name":"建国门","category":"transit","category_zh":"公共交通","amenity":null,"railway":"station","source":"OpenStreetMap"},"geometry":{"type":"Point","coordinates":[116.4292321,39.9071594]}},{"type":"Feature","properties":{"facility_id":"osm_node_5430525703","osm_id":"5430525703","name":"朝阳门","category":"transit","category_zh":"公共交通","amenity":null,"railway":"station","source":"OpenStreetMap"},"geometry":{"type":"Point","coordinates":[116.4279504,39.9230647]}},{"type":"Feature","properties":{"facility_id":"osm_node_5441520625","osm_id":"5441520625","name":"天安门东","category":"transit","category_zh":"公共交通","amenity":null,"railway":"station","source":"OpenStreetMap"},"geometry":{"type":"Point","coordinates":[116.3949169,39.9063337]}},{"type":"Feature","properties":{"facility_id":"osm_node_5994862291","osm_id":"5994862291","name":"朝阳门-H口（西南口）","category":"transit","category_zh":"公共交通","amenity":null,"railway":"subway_entrance","source":"OpenStreetMap"},"geometry":{"type":"Point","coordinates":[116.4251962,39.9227339]}},{"type":"Feature","properties":{"facility_id":"osm_node_6058359595","osm_id":"6058359595","name":"未命名设施","category":"transit","category_zh":"公共交通","amenity":null,"railway":"subway_entrance","source":"OpenStreetMap"},"geometry":{"type":"Point","coordinates":[116.4221931,39.9032694]}},{"type":"Feature","properties":{"facility_id":"osm_node_6172173698","osm_id":"6172173698","name":"珠市口","category":"transit","category_zh":"公共交通","amenity":null,"railway":"station","source":"OpenStreetMap"},"geometry":{"type":"Point","coordinates":[116.3921937,39.8893117]}},{"type":"Feature","properties":{"facility_id":"osm_node_6172173744","osm_id":"6172173744","name":"中国美术馆","category":"transit","category_zh":"公共交通","amenity":null,"railway":"station","source":"OpenStreetMap"},"geometry":{"type":"Point","coordinates":[116.4045447,39.9236287]}},{"type":"Feature","properties":{"facility_id":"osm_node_6447754030","osm_id":"6447754030","name":"天安门西","category":"transit","category_zh":"公共交通","amenity":null,"railway":"station","source":"OpenStreetMap"},"geometry":{"type":"Point","coordinates":[116.3851622,39.9059702]}},{"type":"Feature","properties":{"facility_id":"osm_node_6454510152","osm_id":"6454510152","name":"未命名设施","category":"transit","category_zh":"公共交通","amenity":null,"railway":"subway_entrance","source":"OpenStreetMap"},"geometry":{"type":"Point","coordinates":[116.4118476,39.9236429]}},{"type":"Feature","properties":{"facility_id":"osm_node_6488102425","osm_id":"6488102425","name":"天桥","category":"transit","category_zh":"公共交通","amenity":null,"railway":"station","source":"OpenStreetMap"},"geometry":{"type":"Point","coordinates":[116.3925037,39.8806517]}},{"type":"Feature","properties":{"facility_id":"osm_node_6617849503","osm_id":"6617849503","name":"王府井","category":"transit","category_zh":"公共交通","amenity":null,"railway":"station","source":"OpenStreetMap"},"geometry":{"type":"Point","coordinates":[116.4052789,39.9069496]}},{"type":"Feature","properties":{"facility_id":"osm_node_6694898270","osm_id":"6694898270","name":"朝阳门-E口","category":"transit","category_zh":"公共交通","amenity":null,"railway":"subway_entrance","source":"OpenStreetMap"},"geometry":{"type":"Point","coordinates":[116.4263436,39.9232665]}},{"type":"Feature","properties":{"facility_id":"osm_node_6694898271","osm_id":"6694898271","name":"朝阳门-G口","category":"transit","category_zh":"公共交通","amenity":null,"railway":"subway_entrance","source":"OpenStreetMap"},"geometry":{"type":"Point","coordinates":[116.426349,39.9228098]}},{"type":"Feature","properties":{"facility_id":"osm_node_6724644886","osm_id":"6724644886","name":"前门","category":"transit","category_zh":"公共交通","amenity":null,"railway":"station","source":"OpenStreetMap"},"geometry":{"type":"Point","coordinates":[116.3929416,39.8982814]}},{"type":"Feature","properties":{"facility_id":"osm_node_6731175877","osm_id":"6731175877","name":"未命名设施","category":"transit","category_zh":"公共交通","amenity":null,"railway":"subway_entrance","source":"OpenStreetMap"},"geometry":{"type":"Point","coordinates":[116.3790265,39.8884156]}},{"type":"Feature","properties":{"facility_id":"osm_node_6732322957","osm_id":"6732322957","name":"未命名设施","category":"transit","category_zh":"公共交通","amenity":null,"railway":"subway_entrance","source":"OpenStreetMap"},"geometry":{"type":"Point","coordinates":[116.3776933,39.8883913]}},{"type":"Feature","properties":{"facility_id":"osm_node_6784165939","osm_id":"6784165939","name":"中国美术馆A口","category":"transit","category_zh":"公共交通","amenity":null,"railway":"subway_entrance","source":"OpenStreetMap"},"geometry":{"type":"Point","coordinates":[116.4034139,39.9231378]}},{"type":"Feature","properties":{"facility_id":"osm_node_6784165940","osm_id":"6784165940","name":"中国美术馆B口","category":"transit","category_zh":"公共交通","amenity":null,"railway":"subway_entrance","source":"OpenStreetMap"},"geometry":{"type":"Point","coordinates":[116.4047936,39.923209]}},{"type":"Feature","properties":{"facility_id":"osm_node_6784165941","osm_id":"6784165941","name":"中国美术馆D1口","category":"transit","category_zh":"公共交通","amenity":null,"railway":"subway_entrance","source":"OpenStreetMap"},"geometry":{"type":"Point","coordinates":[116.4035376,39.9228078]}},{"type":"Feature","properties":{"facility_id":"osm_node_6784165947","osm_id":"6784165947","name":"中国美术馆D2口","category":"transit","category_zh":"公共交通","amenity":null,"railway":"subway_entrance","source":"OpenStreetMap"},"geometry":{"type":"Point","coordinates":[116.4040655,39.9227975]}},{"type":"Feature","properties":{"facility_id":"osm_node_6787169487","osm_id":"6787169487","name":"未命名设施","category":"transit","category_zh":"公共交通","amenity":null,"railway":"subway_entrance","source":"OpenStreetMap"},"geometry":{"type":"Point","coordinates":[116.410285,39.9225891]}},{"type":"Feature","properties":{"facility_id":"osm_node_6787169488","osm_id":"6787169488","name":"未命名设施","category":"transit","category_zh":"公共交通","amenity":null,"railway":"subway_entrance","source":"OpenStreetMap"},"geometry":{"type":"Point","coordinates":[116.4092146,39.923311]}},{"type":"Feature","properties":{"facility_id":"osm_node_7149581578","osm_id":"7149581578","name":"未命名设施","category":"transit","category_zh":"公共交通","amenity":null,"railway":"subway_entrance","source":"OpenStreetMap"},"geometry":{"type":"Point","coordinates":[116.3934794,39.8798917]}},{"type":"Feature","properties":{"facility_id":"osm_node_7149581579","osm_id":"7149581579","name":"未命名设施","category":"transit","category_zh":"公共交通","amenity":null,"railway":"subway_entrance","source":"OpenStreetMap"},"geometry":{"type":"Point","coordinates":[116.3913645,39.8901127]}},{"type":"Feature","properties":{"facility_id":"osm_node_7589864648","osm_id":"7589864648","name":"未命名设施","category":"transit","category_zh":"公共交通","amenity":null,"railway":"subway_entrance","source":"OpenStreetMap"},"geometry":{"type":"Point","coordinates":[116.3925151,39.8876554]}},{"type":"Feature","properties":{"facility_id":"osm_node_7589864649","osm_id":"7589864649","name":"未命名设施","category":"transit","category_zh":"公共交通","amenity":null,"railway":"subway_entrance","source":"OpenStreetMap"},"geometry":{"type":"Point","coordinates":[116.3919485,39.8876076]}},{"type":"Feature","properties":{"facility_id":"osm_node_7589864650","osm_id":"7589864650","name":"未命名设施","category":"transit","category_zh":"公共交通","amenity":null,"railway":"subway_entrance","source":"OpenStreetMap"},"geometry":{"type":"Point","coordinates":[116.3915609,39.8890723]}},{"type":"Feature","properties":{"facility_id":"osm_node_7589864651","osm_id":"7589864651","name":"未命名设施","category":"transit","category_zh":"公共交通","amenity":null,"railway":"subway_entrance","source":"OpenStreetMap"},"geometry":{"type":"Point","coordinates":[116.39103,39.8891672]}},{"type":"Feature","properties":{"facility_id":"osm_node_7589864652","osm_id":"7589864652","name":"未命名设施","category":"transit","category_zh":"公共交通","amenity":null,"railway":"subway_entrance","source":"OpenStreetMap"},"geometry":{"type":"Point","coordinates":[116.3933391,39.8898543]}},{"type":"Feature","properties":{"facility_id":"osm_node_7591778833","osm_id":"7591778833","name":"未命名设施","category":"transit","category_zh":"公共交通","amenity":null,"railway":"subway_entrance","source":"OpenStreetMap"},"geometry":{"type":"Point","coordinates":[116.4112688,39.9161435]}},{"type":"Feature","properties":{"facility_id":"osm_node_7591781042","osm_id":"7591781042","name":"未命名设施","category":"transit","category_zh":"公共交通","amenity":null,"railway":"subway_entrance","source":"OpenStreetMap"},"geometry":{"type":"Point","coordinates":[116.4117737,39.9003192]}},{"type":"Feature","properties":{"facility_id":"osm_node_7592090661","osm_id":"7592090661","name":"未命名设施","category":"transit","category_zh":"公共交通","amenity":null,"railway":"subway_entrance","source":"OpenStreetMap"},"geometry":{"type":"Point","coordinates":[116.4127752,39.9075452]}},{"type":"Feature","properties":{"facility_id":"osm_node_7825512449","osm_id":"7825512449","name":"未命名设施","category":"transit","category_zh":"公共交通","amenity":null,"railway":"subway_entrance","source":"OpenStreetMap"},"geometry":{"type":"Point","coordinates":[116.4131074,39.907141]}},{"type":"Feature","properties":{"facility_id":"osm_node_7825512462","osm_id":"7825512462","name":"未命名设施","category":"transit","category_zh":"公共交通","amenity":null,"railway":"subway_entrance","source":"OpenStreetMap"},"geometry":{"type":"Point","coordinates":[116.4149093,39.907165]}},{"type":"Feature","properties":{"facility_id":"osm_node_7893337710","osm_id":"7893337710","name":"朝阳门-F口","category":"transit","category_zh":"公共交通","amenity":null,"railway":"subway_entrance","source":"OpenStreetMap"},"geometry":{"type":"Point","coordinates":[116.4271732,39.9242088]}},{"type":"Feature","properties":{"facility_id":"osm_node_7896842490","osm_id":"7896842490","name":"天坛东门","category":"transit","category_zh":"公共交通","amenity":null,"railway":"station","source":"OpenStreetMap"},"geometry":{"type":"Point","coordinates":[116.4145694,39.8822567]}},{"type":"Feature","properties":{"facility_id":"osm_node_9116718003","osm_id":"9116718003","name":"未命名设施","category":"transit","category_zh":"公共交通","amenity":null,"railway":"subway_entrance","source":"OpenStreetMap"},"geometry":{"type":"Point","coordinates":[116.4151026,39.8801299]}},{"type":"Feature","properties":{"facility_id":"osm_node_9116718005","osm_id":"9116718005","name":"未命名设施","category":"transit","category_zh":"公共交通","amenity":null,"railway":"subway_entrance","source":"OpenStreetMap"},"geometry":{"type":"Point","coordinates":[116.4151836,39.8822988]}},{"type":"Feature","properties":{"facility_id":"osm_node_9327480046","osm_id":"9327480046","name":"D出口","category":"transit","category_zh":"公共交通","amenity":null,"railway":"subway_entrance","source":"OpenStreetMap"},"geometry":{"type":"Point","coordinates":[116.390484,39.8989819]}},{"type":"Feature","properties":{"facility_id":"osm_node_9379477284","osm_id":"9379477284","name":"金鱼胡同","category":"transit","category_zh":"公共交通","amenity":null,"railway":"station","source":"OpenStreetMap"},"geometry":{"type":"Point","coordinates":[116.4049246,39.9147047]}},{"type":"Feature","properties":{"facility_id":"osm_node_9634711061","osm_id":"9634711061","name":"未命名设施","category":"transit","category_zh":"公共交通","amenity":null,"railway":"subway_entrance","source":"OpenStreetMap"},"geometry":{"type":"Point","coordinates":[116.3925596,39.8972171]}}]}