{"type":"FeatureCollection","name":"hangzhou_analysis_grid","crs":{"type":"name","properties":{"name":"urn:ogc:def:crs:OGC:1.3:CRS84"}},"features":[{"type":"Feature","properties":{"cell_id":"hangzhou_01_01","city_id":"hangzhou","city_name_zh":"杭州","row":1,"column":1,"area_km2":0.5004,"center_lon":120.12885,"center_lat":30.295975,"distance_to_center_km":3.503,"facility_count":0,"transit_count":0,"healthcare_count":0,"education_count":0,"park_count":0,"service_diversity":0,"facility_density_km2":0.0,"road_segment_count":156,"road_length_m":6457.47,"road_density_km_km2":12.9039,"intersection_count":24,"elevation_m":13,"terrain_relief_m":6,"source_note":"OSM道路与设施聚合；SRTM高程采样；均为教学裁剪","accessibility_proxy":0.2952,"osm_intensity_class":"较低","core_zone":"外圈"},"geometry":{"type":"Polygon","coordinates":[[[120.1251,30.29285],[120.1326,30.29285],[120.1326,30.2991],[120.1251,30.2991],[120.1251,30.29285]]]}},{"type":"Feature","properties":{"cell_id":"hangzhou_01_02","city_id":"hangzhou","city_name_zh":"杭州","row":1,"column":2,"area_km2":0.5004,"center_lon":120.13635,"center_lat":30.295975,"distance_to_center_km":3.026,"facility_count":0,"transit_count":0,"healthcare_count":0,"education_count":0,"park_count":0,"service_diversity":0,"facility_density_km2":0.0,"road_segment_count":173,"road_length_m":7260.16,"road_density_km_km2":14.508,"intersection_count":16,"elevation_m":8,"terrain_relief_m":9,"source_note":"OSM道路与设施聚合；SRTM高程采样；均为教学裁剪","accessibility_proxy":0.3357,"osm_intensity_class":"较低","core_zone":"外圈"},"geometry":{"type":"Polygon","coordinates":[[[120.1326,30.29285],[120.1401,30.29285],[120.1401,30.2991],[120.1326,30.2991],[120.1326,30.29285]]]}},{"type":"Feature","properties":{"cell_id":"hangzhou_01_03","city_id":"hangzhou","city_name_zh":"杭州","row":1,"column":3,"area_km2":0.5004,"center_lon":120.14385,"center_lat":30.295975,"distance_to_center_km":2.661,"facility_count":0,"transit_count":0,"healthcare_count":0,"education_count":0,"park_count":0,"service_diversity":0,"facility_density_km2":0.0,"road_segment_count":131,"road_length_m":4999.99,"road_density_km_km2":9.9915,"intersection_count":17,"elevation_m":19,"terrain_relief_m":9,"source_note":"OSM道路与设施聚合；SRTM高程采样；均为教学裁剪","accessibility_proxy":0.2713,"osm_intensity_class":"低","core_zone":"内圈"},"geometry":{"type":"Polygon","coordinates":[[[120.1401,30.29285],[120.1476,30.29285],[120.1476,30.2991],[120.1401,30.2991],[120.1401,30.29285]]]}},{"type":"Feature","properties":{"cell_id":"hangzhou_01_04","city_id":"hangzhou","city_name_zh":"杭州","row":1,"column":4,"area_km2":0.5004,"center_lon":120.15135,"center_lat":30.295975,"distance_to_center_km":2.459,"facility_count":2,"transit_count":2,"healthcare_count":0,"education_count":0,"park_count":0,"service_diversity":1,"facility_density_km2":3.9966,"road_segment_count":79,"road_length_m":3952.5,"road_density_km_km2":7.8983,"intersection_count":6,"elevation_m":10,"terrain_relief_m":9,"source_note":"OSM道路与设施聚合；SRTM高程采样；均为教学裁剪","accessibility_proxy":0.2903,"osm_intensity_class":"较低","core_zone":"内圈"},"geometry":{"type":"Polygon","coordinates":[[[120.1476,30.29285],[120.1551,30.29285],[120.1551,30.2991],[120.1476,30.2991],[120.1476,30.29285]]]}},{"type":"Feature","properties":{"cell_id":"hangzhou_01_05","city_id":"hangzhou","city_name_zh":"杭州","row":1,"column":5,"area_km2":0.5004,"center_lon":120.15885,"center_lat":30.295975,"distance_to_center_km":2.459,"facility_count":3,"transit_count":0,"healthcare_count":0,"education_count":3,"park_count":0,"service_diversity":1,"facility_density_km2":5.9949,"road_segment_count":178,"road_length_m":6583.68,"road_density_km_km2":13.1561,"intersection_count":33,"elevation_m":14,"terrain_relief_m":11,"source_note":"OSM道路与设施聚合；SRTM高程采样；均为教学裁剪","accessibility_proxy":0.4024,"osm_intensity_class":"较高","core_zone":"内圈"},"geometry":{"type":"Polygon","coordinates":[[[120.1551,30.29285],[120.1626,30.29285],[120.1626,30.2991],[120.1551,30.2991],[120.1551,30.29285]]]}},{"type":"Feature","properties":{"cell_id":"hangzhou_01_06","city_id":"hangzhou","city_name_zh":"杭州","row":1,"column":6,"area_km2":0.5004,"center_lon":120.16635,"center_lat":30.295975,"distance_to_center_km":2.661,"facility_count":4,"transit_count":1,"healthcare_count":0,"education_count":3,"park_count":0,"service_diversity":2,"facility_density_km2":7.9932,"road_segment_count":130,"road_length_m":6143.74,"road_density_km_km2":12.277,"intersection_count":29,"elevation_m":11,"terrain_relief_m":11,"source_note":"OSM道路与设施聚合；SRTM高程采样；均为教学裁剪","accessibility_proxy":0.404,"osm_intensity_class":"较高","core_zone":"内圈"},"geometry":{"type":"Polygon","coordinates":[[[120.1626,30.29285],[120.1701,30.29285],[120.1701,30.2991],[120.1626,30.2991],[120.1626,30.29285]]]}},{"type":"Feature","properties":{"cell_id":"hangzhou_01_07","city_id":"hangzhou","city_name_zh":"杭州","row":1,"column":7,"area_km2":0.5004,"center_lon":120.17385,"center_lat":30.295975,"distance_to_center_km":3.026,"facility_count":4,"transit_count":4,"healthcare_count":0,"education_count":0,"park_count":0,"service_diversity":1,"facility_density_km2":7.9932,"road_segment_count":90,"road_length_m":4396.1,"road_density_km_km2":8.7847,"intersection_count":14,"elevation_m":18,"terrain_relief_m":7,"source_note":"OSM道路与设施聚合；SRTM高程采样；均为教学裁剪","accessibility_proxy":0.3334,"osm_intensity_class":"较低","core_zone":"外圈"},"geometry":{"type":"Polygon","coordinates":[[[120.1701,30.29285],[120.1776,30.29285],[120.1776,30.2991],[120.1701,30.2991],[120.1701,30.29285]]]}},{"type":"Feature","properties":{"cell_id":"hangzhou_01_08","city_id":"hangzhou","city_name_zh":"杭州","row":1,"column":8,"area_km2":0.5004,"center_lon":120.18135,"center_lat":30.295975,"distance_to_center_km":3.503,"facility_count":0,"transit_count":0,"healthcare_count":0,"education_count":0,"park_count":0,"service_diversity":0,"facility_density_km2":0.0,"road_segment_count":189,"road_length_m":7996.92,"road_density_km_km2":15.9802,"intersection_count":61,"elevation_m":11,"terrain_relief_m":3,"source_note":"OSM道路与设施聚合；SRTM高程采样；均为教学裁剪","accessibility_proxy":0.3471,"osm_intensity_class":"较低","core_zone":"外圈"},"geometry":{"type":"Polygon","coordinates":[[[120.1776,30.29285],[120.1851,30.29285],[120.1851,30.2991],[120.1776,30.2991],[120.1776,30.29285]]]}},{"type":"Feature","properties":{"cell_id":"hangzhou_02_01","city_id":"hangzhou","city_name_zh":"杭州","row":2,"column":1,"area_km2":0.5005,"center_lon":120.12885,"center_lat":30.289725,"distance_to_center_km":3.061,"facility_count":0,"transit_count":0,"healthcare_count":0,"education_count":0,"park_count":0,"service_diversity":0,"facility_density_km2":0.0,"road_segment_count":60,"road_length_m":4509.99,"road_density_km_km2":9.0117,"intersection_count":15,"elevation_m":14,"terrain_relief_m":8,"source_note":"OSM道路与设施聚合；SRTM高程采样；均为教学裁剪","accessibility_proxy":0.242,"osm_intensity_class":"低","core_zone":"外圈"},"geometry":{"type":"Polygon","coordinates":[[[120.1251,30.2866],[120.1326,30.2866],[120.1326,30.29285],[120.1251,30.29285],[120.1251,30.2866]]]}},{"type":"Feature","properties":{"cell_id":"hangzhou_02_02","city_id":"hangzhou","city_name_zh":"杭州","row":2,"column":2,"area_km2":0.5005,"center_lon":120.13635,"center_lat":30.289725,"distance_to_center_km":2.502,"facility_count":0,"transit_count":0,"healthcare_count":0,"education_count":0,"park_count":0,"service_diversity":0,"facility_density_km2":0.0,"road_segment_count":115,"road_length_m":5021.81,"road_density_km_km2":10.0344,"intersection_count":17,"elevation_m":7,"terrain_relief_m":15,"source_note":"OSM道路与设施聚合；SRTM高程采样；均为教学裁剪","accessibility_proxy":0.2777,"osm_intensity_class":"低","core_zone":"内圈"},"geometry":{"type":"Polygon","coordinates":[[[120.1326,30.2866],[120.1401,30.2866],[120.1401,30.29285],[120.1326,30.29285],[120.1326,30.2866]]]}},{"type":"Feature","properties":{"cell_id":"hangzhou_02_03","city_id":"hangzhou","city_name_zh":"杭州","row":2,"column":3,"area_km2":0.5005,"center_lon":120.14385,"center_lat":30.289725,"distance_to_center_km":2.046,"facility_count":2,"transit_count":0,"healthcare_count":1,"education_count":0,"park_count":0,"service_diversity":2,"facility_density_km2":3.9963,"road_segment_count":124,"road_length_m":5263.8,"road_density_km_km2":10.518,"intersection_count":20,"elevation_m":9,"terrain_relief_m":13,"source_note":"OSM道路与设施聚合；SRTM高程采样；均为教学裁剪","accessibility_proxy":0.3507,"osm_intensity_class":"较低","core_zone":"内圈"},"geometry":{"type":"Polygon","coordinates":[[[120.1401,30.2866],[120.1476,30.2866],[120.1476,30.29285],[120.1401,30.29285],[120.1401,30.2866]]]}},{"type":"Feature","properties":{"cell_id":"hangzhou_02_04","city_id":"hangzhou","city_name_zh":"杭州","row":2,"column":4,"area_km2":0.5005,"center_lon":120.15135,"center_lat":30.289725,"distance_to_center_km":1.774,"facility_count":6,"transit_count":5,"healthcare_count":0,"education_count":0,"park_count":1,"service_diversity":2,"facility_density_km2":11.989,"road_segment_count":115,"road_length_m":4035.2,"road_density_km_km2":8.063,"intersection_count":15,"elevation_m":13,"terrain_relief_m":5,"source_note":"OSM道路与设施聚合；SRTM高程采样；均为教学裁剪","accessibility_proxy":0.4155,"osm_intensity_class":"较高","core_zone":"内圈"},"geometry":{"type":"Polygon","coordinates":[[[120.1476,30.2866],[120.1551,30.2866],[120.1551,30.29285],[120.1476,30.29285],[120.1476,30.2866]]]}},{"type":"Feature","properties":{"cell_id":"hangzhou_02_05","city_id":"hangzhou","city_name_zh":"杭州","row":2,"column":5,"area_km2":0.5005,"center_lon":120.15885,"center_lat":30.289725,"distance_to_center_km":1.774,"facility_count":3,"transit_count":1,"healthcare_count":1,"education_count":0,"park_count":1,"service_diversity":3,"facility_density_km2":5.9945,"road_segment_count":159,"road_length_m":7302.48,"road_density_km_km2":14.5916,"intersection_count":23,"elevation_m":16,"terrain_relief_m":4,"source_note":"OSM道路与设施聚合；SRTM高程采样；均为教学裁剪","accessibility_proxy":0.4549,"osm_intensity_class":"高","core_zone":"内圈"},"geometry":{"type":"Polygon","coordinates":[[[120.1551,30.2866],[120.1626,30.2866],[120.1626,30.29285],[120.1551,30.29285],[120.1551,30.2866]]]}},{"type":"Feature","properties":{"cell_id":"hangzhou_02_06","city_id":"hangzhou","city_name_zh":"杭州","row":2,"column":6,"area_km2":0.5005,"center_lon":120.16635,"center_lat":30.289725,"distance_to_center_km":2.046,"facility_count":0,"transit_count":0,"healthcare_count":0,"education_count":0,"park_count":0,"service_diversity":0,"facility_density_km2":0.0,"road_segment_count":40,"road_length_m":2249.16,"road_density_km_km2":4.4942,"intersection_count":5,"elevation_m":18,"terrain_relief_m":8,"source_note":"OSM道路与设施聚合；SRTM高程采样；均为教学裁剪","accessibility_proxy":0.2021,"osm_intensity_class":"低","core_zone":"内圈"},"geometry":{"type":"Polygon","coordinates":[[[120.1626,30.2866],[120.1701,30.2866],[120.1701,30.29285],[120.1626,30.29285],[120.1626,30.2866]]]}},{"type":"Feature","properties":{"cell_id":"hangzhou_02_07","city_id":"hangzhou","city_name_zh":"杭州","row":2,"column":7,"area_km2":0.5005,"center_lon":120.17385,"center_lat":30.289725,"distance_to_center_km":2.502,"facility_count":11,"transit_count":11,"healthcare_count":0,"education_count":0,"park_count":0,"service_diversity":1,"facility_density_km2":21.9799,"road_segment_count":127,"road_length_m":5558.91,"road_density_km_km2":11.1076,"intersection_count":14,"elevation_m":13,"terrain_relief_m":8,"source_note":"OSM道路与设施聚合；SRTM高程采样；均为教学裁剪","accessibility_proxy":0.5546,"osm_intensity_class":"高","core_zone":"内圈"},"geometry":{"type":"Polygon","coordinates":[[[120.1701,30.2866],[120.1776,30.2866],[120.1776,30.29285],[120.1701,30.29285],[120.1701,30.2866]]]}},{"type":"Feature","properties":{"cell_id":"hangzhou_02_08","city_id":"hangzhou","city_name_zh":"杭州","row":2,"column":8,"area_km2":0.5005,"center_lon":120.18135,"center_lat":30.289725,"distance_to_center_km":3.061,"facility_count":1,"transit_count":0,"healthcare_count":1,"education_count":0,"park_count":0,"service_diversity":1,"facility_density_km2":1.9982,"road_segment_count":293,"road_length_m":9139.07,"road_density_km_km2":18.2614,"intersection_count":104,"elevation_m":10,"terrain_relief_m":4,"source_note":"OSM道路与设施聚合；SRTM高程采样；均为教学裁剪","accessibility_proxy":0.4214,"osm_intensity_class":"较高","core_zone":"外圈"},"geometry":{"type":"Polygon","coordinates":[[[120.1776,30.2866],[120.1851,30.2866],[120.1851,30.29285],[120.1776,30.29285],[120.1776,30.2866]]]}},{"type":"Feature","properties":{"cell_id":"hangzhou_03_01","city_id":"hangzhou","city_name_zh":"杭州","row":3,"column":1,"area_km2":0.5005,"center_lon":120.12885,"center_lat":30.283475,"distance_to_center_km":2.728,"facility_count":3,"transit_count":3,"healthcare_count":0,"education_count":0,"park_count":0,"service_diversity":1,"facility_density_km2":5.9941,"road_segment_count":80,"road_length_m":5216.72,"road_density_km_km2":10.4232,"intersection_count":16,"elevation_m":11,"terrain_relief_m":7,"source_note":"OSM道路与设施聚合；SRTM高程采样；均为教学裁剪","accessibility_proxy":0.3469,"osm_intensity_class":"较低","core_zone":"内圈"},"geometry":{"type":"Polygon","coordinates":[[[120.1251,30.28035],[120.1326,30.28035],[120.1326,30.2866],[120.1251,30.2866],[120.1251,30.28035]]]}},{"type":"Feature","properties":{"cell_id":"hangzhou_03_02","city_id":"hangzhou","city_name_zh":"杭州","row":3,"column":2,"area_km2":0.5005,"center_lon":120.13635,"center_lat":30.283475,"distance_to_center_km":2.08,"facility_count":6,"transit_count":5,"healthcare_count":0,"education_count":0,"park_count":0,"service_diversity":2,"facility_density_km2":11.9883,"road_segment_count":73,"road_length_m":3993.04,"road_density_km_km2":7.9783,"intersection_count":14,"elevation_m":11,"terrain_relief_m":11,"source_note":"OSM道路与设施聚合；SRTM高程采样；均为教学裁剪","accessibility_proxy":0.4006,"osm_intensity_class":"较高","core_zone":"内圈"},"geometry":{"type":"Polygon","coordinates":[[[120.1326,30.28035],[120.1401,30.28035],[120.1401,30.2866],[120.1326,30.2866],[120.1326,30.28035]]]}},{"type":"Feature","properties":{"cell_id":"hangzhou_03_03","city_id":"hangzhou","city_name_zh":"杭州","row":3,"column":3,"area_km2":0.5005,"center_lon":120.14385,"center_lat":30.283475,"distance_to_center_km":1.501,"facility_count":7,"transit_count":7,"healthcare_count":0,"education_count":0,"park_count":0,"service_diversity":1,"facility_density_km2":13.9863,"road_segment_count":76,"road_length_m":4794.4,"road_density_km_km2":9.5794,"intersection_count":14,"elevation_m":14,"terrain_relief_m":8,"source_note":"OSM道路与设施聚合；SRTM高程采样；均为教学裁剪","accessibility_proxy":0.4777,"osm_intensity_class":"高","core_zone":"内圈"},"geometry":{"type":"Polygon","coordinates":[[[120.1401,30.28035],[120.1476,30.28035],[120.1476,30.2866],[120.1401,30.2866],[120.1401,30.28035]]]}},{"type":"Feature","properties":{"cell_id":"hangzhou_03_04","city_id":"hangzhou","city_name_zh":"杭州","row":3,"column":4,"area_km2":0.5005,"center_lon":120.15135,"center_lat":30.283475,"distance_to_center_km":1.103,"facility_count":1,"transit_count":0,"healthcare_count":0,"education_count":1,"park_count":0,"service_diversity":1,"facility_density_km2":1.998,"road_segment_count":104,"road_length_m":5233.12,"road_density_km_km2":10.456,"intersection_count":17,"elevation_m":14,"terrain_relief_m":3,"source_note":"OSM道路与设施聚合；SRTM高程采样；均为教学裁剪","accessibility_proxy":0.3728,"osm_intensity_class":"较高","core_zone":"核心"},"geometry":{"type":"Polygon","coordinates":[[[120.1476,30.28035],[120.1551,30.28035],[120.1551,30.2866],[120.1476,30.2866],[120.1476,30.28035]]]}},{"type":"Feature","properties":{"cell_id":"hangzhou_03_05","city_id":"hangzhou","city_name_zh":"杭州","row":3,"column":5,"area_km2":0.5005,"center_lon":120.15885,"center_lat":30.283475,"distance_to_center_km":1.103,"facility_count":9,"transit_count":9,"healthcare_count":0,"education_count":0,"park_count":0,"service_diversity":1,"facility_density_km2":17.9824,"road_segment_count":117,"road_length_m":4392.99,"road_density_km_km2":8.7774,"intersection_count":11,"elevation_m":12,"terrain_relief_m":9,"source_note":"OSM道路与设施聚合；SRTM高程采样；均为教学裁剪","accessibility_proxy":0.5328,"osm_intensity_class":"高","core_zone":"核心"},"geometry":{"type":"Polygon","coordinates":[[[120.1551,30.28035],[120.1626,30.28035],[120.1626,30.2866],[120.1551,30.2866],[120.1551,30.28035]]]}},{"type":"Feature","properties":{"cell_id":"hangzhou_03_06","city_id":"hangzhou","city_name_zh":"杭州","row":3,"column":6,"area_km2":0.5005,"center_lon":120.16635,"center_lat":30.283475,"distance_to_center_km":1.501,"facility_count":2,"transit_count":2,"healthcare_count":0,"education_count":0,"park_count":0,"service_diversity":1,"facility_density_km2":3.9961,"road_segment_count":110,"road_length_m":4607.29,"road_density_km_km2":9.2056,"intersection_count":10,"elevation_m":10,"terrain_relief_m":11,"source_note":"OSM道路与设施聚合；SRTM高程采样；均为教学裁剪","accessibility_proxy":0.3538,"osm_intensity_class":"较高","core_zone":"内圈"},"geometry":{"type":"Polygon","coordinates":[[[120.1626,30.28035],[120.1701,30.28035],[120.1701,30.2866],[120.1626,30.2866],[120.1626,30.28035]]]}},{"type":"Feature","properties":{"cell_id":"hangzhou_03_07","city_id":"hangzhou","city_name_zh":"杭州","row":3,"column":7,"area_km2":0.5005,"center_lon":120.17385,"center_lat":30.283475,"distance_to_center_km":2.08,"facility_count":2,"transit_count":2,"healthcare_count":0,"education_count":0,"park_count":0,"service_diversity":1,"facility_density_km2":3.9961,"road_segment_count":121,"road_length_m":6762.35,"road_density_km_km2":13.5115,"intersection_count":27,"elevation_m":6,"terrain_relief_m":14,"source_note":"OSM道路与设施聚合；SRTM高程采样；均为教学裁剪","accessibility_proxy":0.3997,"osm_intensity_class":"较高","core_zone":"内圈"},"geometry":{"type":"Polygon","coordinates":[[[120.1701,30.28035],[120.1776,30.28035],[120.1776,30.2866],[120.1701,30.2866],[120.1701,30.28035]]]}},{"type":"Feature","properties":{"cell_id":"hangzhou_03_08","city_id":"hangzhou","city_name_zh":"杭州","row":3,"column":8,"area_km2":0.5005,"center_lon":120.18135,"center_lat":30.283475,"distance_to_center_km":2.728,"facility_count":1,"transit_count":1,"healthcare_count":0,"education_count":0,"park_count":0,"service_diversity":1,"facility_density_km2":1.998,"road_segment_count":75,"road_length_m":5487.96,"road_density_km_km2":10.9652,"intersection_count":16,"elevation_m":14,"terrain_relief_m":8,"source_note":"OSM道路与设施聚合；SRTM高程采样；均为教学裁剪","accessibility_proxy":0.309,"osm_intensity_class":"较低","core_zone":"内圈"},"geometry":{"type":"Polygon","coordinates":[[[120.1776,30.28035],[120.1851,30.28035],[120.1851,30.2866],[120.1776,30.2866],[120.1776,30.28035]]]}},{"type":"Feature","properties":{"cell_id":"hangzhou_04_01","city_id":"hangzhou","city_name_zh":"杭州","row":4,"column":1,"area_km2":0.5005,"center_lon":120.12885,"center_lat":30.277225,"distance_to_center_km":2.545,"facility_count":1,"transit_count":1,"healthcare_count":0,"education_count":0,"park_count":0,"service_diversity":1,"facility_density_km2":1.9979,"road_segment_count":103,"road_length_m":7138.26,"road_density_km_km2":14.2616,"intersection_count":28,"elevation_m":12,"terrain_relief_m":6,"source_note":"OSM道路与设施聚合；SRTM高程采样；均为教学裁剪","accessibility_proxy":0.3709,"osm_intensity_class":"较高","core_zone":"内圈"},"geometry":{"type":"Polygon","coordinates":[[[120.1251,30.2741],[120.1326,30.2741],[120.1326,30.28035],[120.1251,30.28035],[120.1251,30.2741]]]}},{"type":"Feature","properties":{"cell_id":"hangzhou_04_02","city_id":"hangzhou","city_name_zh":"杭州","row":4,"column":2,"area_km2":0.5005,"center_lon":120.13635,"center_lat":30.277225,"distance_to_center_km":1.834,"facility_count":0,"transit_count":0,"healthcare_count":0,"education_count":0,"park_count":0,"service_diversity":0,"facility_density_km2":0.0,"road_segment_count":34,"road_length_m":2685.25,"road_density_km_km2":5.3649,"intersection_count":5,"elevation_m":21,"terrain_relief_m":9,"source_note":"OSM道路与设施聚合；SRTM高程采样；均为教学裁剪","accessibility_proxy":0.2261,"osm_intensity_class":"低","core_zone":"内圈"},"geometry":{"type":"Polygon","coordinates":[[[120.1326,30.2741],[120.1401,30.2741],[120.1401,30.28035],[120.1326,30.28035],[120.1326,30.2741]]]}},{"type":"Feature","properties":{"cell_id":"hangzhou_04_03","city_id":"hangzhou","city_name_zh":"杭州","row":4,"column":3,"area_km2":0.5005,"center_lon":120.14385,"center_lat":30.277225,"distance_to_center_km":1.135,"facility_count":2,"transit_count":2,"healthcare_count":0,"education_count":0,"park_count":0,"service_diversity":1,"facility_density_km2":3.9958,"road_segment_count":71,"road_length_m":5253.96,"road_density_km_km2":10.497,"intersection_count":15,"elevation_m":12,"terrain_relief_m":6,"source_note":"OSM道路与设施聚合；SRTM高程采样；均为教学裁剪","accessibility_proxy":0.3952,"osm_intensity_class":"较高","core_zone":"核心"},"geometry":{"type":"Polygon","coordinates":[[[120.1401,30.2741],[120.1476,30.2741],[120.1476,30.28035],[120.1401,30.28035],[120.1401,30.2741]]]}},{"type":"Feature","properties":{"cell_id":"hangzhou_04_04","city_id":"hangzhou","city_name_zh":"杭州","row":4,"column":4,"area_km2":0.5005,"center_lon":120.15135,"center_lat":30.277225,"distance_to_center_km":0.5,"facility_count":0,"transit_count":0,"healthcare_count":0,"education_count":0,"park_count":0,"service_diversity":0,"facility_density_km2":0.0,"road_segment_count":162,"road_length_m":7879.15,"road_density_km_km2":15.7419,"intersection_count":31,"elevation_m":11,"terrain_relief_m":8,"source_note":"OSM道路与设施聚合；SRTM高程采样；均为教学裁剪","accessibility_proxy":0.4769,"osm_intensity_class":"高","core_zone":"核心"},"geometry":{"type":"Polygon","coordinates":[[[120.1476,30.2741],[120.1551,30.2741],[120.1551,30.28035],[120.1476,30.28035],[120.1476,30.2741]]]}},{"type":"Feature","properties":{"cell_id":"hangzhou_04_05","city_id":"hangzhou","city_name_zh":"杭州","row":4,"column":5,"area_km2":0.5005,"center_lon":120.15885,"center_lat":30.277225,"distance_to_center_km":0.5,"facility_count":7,"transit_count":6,"healthcare_count":0,"education_count":0,"park_count":0,"service_diversity":2,"facility_density_km2":13.9854,"road_segment_count":122,"road_length_m":5383.9,"road_density_km_km2":10.7566,"intersection_count":13,"elevation_m":8,"terrain_relief_m":13,"source_note":"OSM道路与设施聚合；SRTM高程采样；均为教学裁剪","accessibility_proxy":0.5576,"osm_intensity_class":"高","core_zone":"核心"},"geometry":{"type":"Polygon","coordinates":[[[120.1551,30.2741],[120.1626,30.2741],[120.1626,30.28035],[120.1551,30.28035],[120.1551,30.2741]]]}},{"type":"Feature","properties":{"cell_id":"hangzhou_04_06","city_id":"hangzhou","city_name_zh":"杭州","row":4,"column":6,"area_km2":0.5005,"center_lon":120.16635,"center_lat":30.277225,"distance_to_center_km":1.135,"facility_count":0,"transit_count":0,"healthcare_count":0,"education_count":0,"park_count":0,"service_diversity":0,"facility_density_km2":0.0,"road_segment_count":73,"road_length_m":4263.15,"road_density_km_km2":8.5174,"intersection_count":12,"elevation_m":7,"terrain_relief_m":14,"source_note":"OSM道路与设施聚合；SRTM高程采样；均为教学裁剪","accessibility_proxy":0.3148,"osm_intensity_class":"较低","core_zone":"核心"},"geometry":{"type":"Polygon","coordinates":[[[120.1626,30.2741],[120.1701,30.2741],[120.1701,30.28035],[120.1626,30.28035],[120.1626,30.2741]]]}},{"type":"Feature","properties":{"cell_id":"hangzhou_04_07","city_id":"hangzhou","city_name_zh":"杭州","row":4,"column":7,"area_km2":0.5005,"center_lon":120.17385,"center_lat":30.277225,"distance_to_center_km":1.834,"facility_count":6,"transit_count":6,"healthcare_count":0,"education_count":0,"park_count":0,"service_diversity":1,"facility_density_km2":11.9875,"road_segment_count":145,"road_length_m":5876.72,"road_density_km_km2":11.7412,"intersection_count":19,"elevation_m":11,"terrain_relief_m":10,"source_note":"OSM道路与设施聚合；SRTM高程采样；均为教学裁剪","accessibility_proxy":0.4747,"osm_intensity_class":"高","core_zone":"内圈"},"geometry":{"type":"Polygon","coordinates":[[[120.1701,30.2741],[120.1776,30.2741],[120.1776,30.28035],[120.1701,30.28035],[120.1701,30.2741]]]}},{"type":"Feature","properties":{"cell_id":"hangzhou_04_08","city_id":"hangzhou","city_name_zh":"杭州","row":4,"column":8,"area_km2":0.5005,"center_lon":120.18135,"center_lat":30.277225,"distance_to_center_km":2.545,"facility_count":0,"transit_count":0,"healthcare_count":0,"education_count":0,"park_count":0,"service_diversity":0,"facility_density_km2":0.0,"road_segment_count":94,"road_length_m":5164.2,"road_density_km_km2":10.3176,"intersection_count":15,"elevation_m":13,"terrain_relief_m":9,"source_note":"OSM道路与设施聚合；SRTM高程采样；均为教学裁剪","accessibility_proxy":0.2809,"osm_intensity_class":"低","core_zone":"内圈"},"geometry":{"type":"Polygon","coordinates":[[[120.1776,30.2741],[120.1851,30.2741],[120.1851,30.28035],[120.1776,30.28035],[120.1776,30.2741]]]}},{"type":"Feature","properties":{"cell_id":"hangzhou_05_01","city_id":"hangzhou","city_name_zh":"杭州","row":5,"column":1,"area_km2":0.5006,"center_lon":120.12885,"center_lat":30.270975,"distance_to_center_km":2.545,"facility_count":3,"transit_count":3,"healthcare_count":0,"education_count":0,"park_count":0,"service_diversity":1,"facility_density_km2":5.9934,"road_segment_count":221,"road_length_m":7756.97,"road_density_km_km2":15.4968,"intersection_count":40,"elevation_m":11,"terrain_relief_m":6,"source_note":"OSM道路与设施聚合；SRTM高程采样；均为教学裁剪","accessibility_proxy":0.4388,"osm_intensity_class":"较高","core_zone":"内圈"},"geometry":{"type":"Polygon","coordinates":[[[120.1251,30.26785],[120.1326,30.26785],[120.1326,30.2741],[120.1251,30.2741],[120.1251,30.26785]]]}},{"type":"Feature","properties":{"cell_id":"hangzhou_05_02","city_id":"hangzhou","city_name_zh":"杭州","row":5,"column":2,"area_km2":0.5006,"center_lon":120.13635,"center_lat":30.270975,"distance_to_center_km":1.834,"facility_count":0,"transit_count":0,"healthcare_count":0,"education_count":0,"park_count":0,"service_diversity":0,"facility_density_km2":0.0,"road_segment_count":93,"road_length_m":6463.36,"road_density_km_km2":12.9124,"intersection_count":13,"elevation_m":14,"terrain_relief_m":6,"source_note":"OSM道路与设施聚合；SRTM高程采样；均为教学裁剪","accessibility_proxy":0.3532,"osm_intensity_class":"较高","core_zone":"内圈"},"geometry":{"type":"Polygon","coordinates":[[[120.1326,30.26785],[120.1401,30.26785],[120.1401,30.2741],[120.1326,30.2741],[120.1326,30.26785]]]}},{"type":"Feature","properties":{"cell_id":"hangzhou_05_03","city_id":"hangzhou","city_name_zh":"杭州","row":5,"column":3,"area_km2":0.5006,"center_lon":120.14385,"center_lat":30.270975,"distance_to_center_km":1.135,"facility_count":0,"transit_count":0,"healthcare_count":0,"education_count":0,"park_count":0,"service_diversity":0,"facility_density_km2":0.0,"road_segment_count":98,"road_length_m":4974.2,"road_density_km_km2":9.9374,"intersection_count":14,"elevation_m":17,"terrain_relief_m":6,"source_note":"OSM道路与设施聚合；SRTM高程采样；均为教学裁剪","accessibility_proxy":0.3387,"osm_intensity_class":"较低","core_zone":"核心"},"geometry":{"type":"Polygon","coordinates":[[[120.1401,30.26785],[120.1476,30.26785],[120.1476,30.2741],[120.1401,30.2741],[120.1401,30.26785]]]}},{"type":"Feature","properties":{"cell_id":"hangzhou_05_04","city_id":"hangzhou","city_name_zh":"杭州","row":5,"column":4,"area_km2":0.5006,"center_lon":120.15135,"center_lat":30.270975,"distance_to_center_km":0.5,"facility_count":8,"transit_count":8,"healthcare_count":0,"education_count":0,"park_count":0,"service_diversity":1,"facility_density_km2":15.9823,"road_segment_count":137,"road_length_m":6296.1,"road_density_km_km2":12.5783,"intersection_count":21,"elevation_m":11,"terrain_relief_m":10,"source_note":"OSM道路与设施聚合；SRTM高程采样；均为教学裁剪","accessibility_proxy":0.6118,"osm_intensity_class":"高","core_zone":"核心"},"geometry":{"type":"Polygon","coordinates":[[[120.1476,30.26785],[120.1551,30.26785],[120.1551,30.2741],[120.1476,30.2741],[120.1476,30.26785]]]}},{"type":"Feature","properties":{"cell_id":"hangzhou_05_05","city_id":"hangzhou","city_name_zh":"杭州","row":5,"column":5,"area_km2":0.5006,"center_lon":120.15885,"center_lat":30.270975,"distance_to_center_km":0.5,"facility_count":1,"transit_count":1,"healthcare_count":0,"education_count":0,"park_count":0,"service_diversity":1,"facility_density_km2":1.9978,"road_segment_count":179,"road_length_m":7774.54,"road_density_km_km2":15.5319,"intersection_count":49,"elevation_m":35,"terrain_relief_m":18,"source_note":"OSM道路与设施聚合；SRTM高程采样；均为教学裁剪","accessibility_proxy":0.4969,"osm_intensity_class":"高","core_zone":"核心"},"geometry":{"type":"Polygon","coordinates":[[[120.1551,30.26785],[120.1626,30.26785],[120.1626,30.2741],[120.1551,30.2741],[120.1551,30.26785]]]}},{"type":"Feature","properties":{"cell_id":"hangzhou_05_06","city_id":"hangzhou","city_name_zh":"杭州","row":5,"column":6,"area_km2":0.5006,"center_lon":120.16635,"center_lat":30.270975,"distance_to_center_km":1.135,"facility_count":1,"transit_count":0,"healthcare_count":0,"education_count":0,"park_count":0,"service_diversity":1,"facility_density_km2":1.9978,"road_segment_count":122,"road_length_m":6166.31,"road_density_km_km2":12.319,"intersection_count":25,"elevation_m":18,"terrain_relief_m":9,"source_note":"OSM道路与设施聚合；SRTM高程采样；均为教学裁剪","accessibility_proxy":0.4024,"osm_intensity_class":"较高","core_zone":"核心"},"geometry":{"type":"Polygon","coordinates":[[[120.1626,30.26785],[120.1701,30.26785],[120.1701,30.2741],[120.1626,30.2741],[120.1626,30.26785]]]}},{"type":"Feature","properties":{"cell_id":"hangzhou_05_07","city_id":"hangzhou","city_name_zh":"杭州","row":5,"column":7,"area_km2":0.5006,"center_lon":120.17385,"center_lat":30.270975,"distance_to_center_km":1.834,"facility_count":3,"transit_count":1,"healthcare_count":1,"education_count":0,"park_count":0,"service_diversity":3,"facility_density_km2":5.9934,"road_segment_count":115,"road_length_m":7661.47,"road_density_km_km2":15.306,"intersection_count":39,"elevation_m":14,"terrain_relief_m":15,"source_note":"OSM道路与设施聚合；SRTM高程采样；均为教学裁剪","accessibility_proxy":0.4642,"osm_intensity_class":"高","core_zone":"内圈"},"geometry":{"type":"Polygon","coordinates":[[[120.1701,30.26785],[120.1776,30.26785],[120.1776,30.2741],[120.1701,30.2741],[120.1701,30.26785]]]}},{"type":"Feature","properties":{"cell_id":"hangzhou_05_08","city_id":"hangzhou","city_name_zh":"杭州","row":5,"column":8,"area_km2":0.5006,"center_lon":120.18135,"center_lat":30.270975,"distance_to_center_km":2.545,"facility_count":1,"transit_count":0,"healthcare_count":0,"education_count":0,"park_count":0,"service_diversity":1,"facility_density_km2":1.9978,"road_segment_count":100,"road_length_m":5993.81,"road_density_km_km2":11.9744,"intersection_count":30,"elevation_m":13,"terrain_relief_m":5,"source_note":"OSM道路与设施聚合；SRTM高程采样；均为教学裁剪","accessibility_proxy":0.3323,"osm_intensity_class":"较低","core_zone":"内圈"},"geometry":{"type":"Polygon","coordinates":[[[120.1776,30.26785],[120.1851,30.26785],[120.1851,30.2741],[120.1776,30.2741],[120.1776,30.26785]]]}},{"type":"Feature","properties":{"cell_id":"hangzhou_06_01","city_id":"hangzhou","city_name_zh":"杭州","row":6,"column":1,"area_km2":0.5006,"center_lon":120.12885,"center_lat":30.264725,"distance_to_center_km":2.728,"facility_count":0,"transit_count":0,"healthcare_count":0,"education_count":0,"park_count":0,"service_diversity":0,"facility_density_km2":0.0,"road_segment_count":159,"road_length_m":6001.79,"road_density_km_km2":11.9895,"intersection_count":27,"elevation_m":16,"terrain_relief_m":52,"source_note":"OSM道路与设施聚合；SRTM高程采样；均为教学裁剪","accessibility_proxy":0.3027,"osm_intensity_class":"较低","core_zone":"内圈"},"geometry":{"type":"Polygon","coordinates":[[[120.1251,30.2616],[120.1326,30.2616],[120.1326,30.26785],[120.1251,30.26785],[120.1251,30.2616]]]}},{"type":"Feature","properties":{"cell_id":"hangzhou_06_02","city_id":"hangzhou","city_name_zh":"杭州","row":6,"column":2,"area_km2":0.5006,"center_lon":120.13635,"center_lat":30.264725,"distance_to_center_km":2.081,"facility_count":5,"transit_count":5,"healthcare_count":0,"education_count":0,"park_count":0,"service_diversity":1,"facility_density_km2":9.9883,"road_segment_count":56,"road_length_m":1383.14,"road_density_km_km2":2.763,"intersection_count":4,"elevation_m":66,"terrain_relief_m":55,"source_note":"OSM道路与设施聚合；SRTM高程采样；均为教学裁剪","accessibility_proxy":0.2891,"osm_intensity_class":"较低","core_zone":"内圈"},"geometry":{"type":"Polygon","coordinates":[[[120.1326,30.2616],[120.1401,30.2616],[120.1401,30.26785],[120.1326,30.26785],[120.1326,30.2616]]]}},{"type":"Feature","properties":{"cell_id":"hangzhou_06_03","city_id":"hangzhou","city_name_zh":"杭州","row":6,"column":3,"area_km2":0.5006,"center_lon":120.14385,"center_lat":30.264725,"distance_to_center_km":1.501,"facility_count":0,"transit_count":0,"healthcare_count":0,"education_count":0,"park_count":0,"service_diversity":0,"facility_density_km2":0.0,"road_segment_count":93,"road_length_m":2428.26,"road_density_km_km2":4.8508,"intersection_count":6,"elevation_m":20,"terrain_relief_m":45,"source_note":"OSM道路与设施聚合；SRTM高程采样；均为教学裁剪","accessibility_proxy":0.2333,"osm_intensity_class":"低","core_zone":"内圈"},"geometry":{"type":"Polygon","coordinates":[[[120.1401,30.2616],[120.1476,30.2616],[120.1476,30.26785],[120.1401,30.26785],[120.1401,30.2616]]]}},{"type":"Feature","properties":{"cell_id":"hangzhou_06_04","city_id":"hangzhou","city_name_zh":"杭州","row":6,"column":4,"area_km2":0.5006,"center_lon":120.15135,"center_lat":30.264725,"distance_to_center_km":1.103,"facility_count":1,"transit_count":0,"healthcare_count":0,"education_count":0,"park_count":0,"service_diversity":1,"facility_density_km2":1.9977,"road_segment_count":283,"road_length_m":8146.32,"road_density_km_km2":16.2736,"intersection_count":35,"elevation_m":14,"terrain_relief_m":7,"source_note":"OSM道路与设施聚合；SRTM高程采样；均为教学裁剪","accessibility_proxy":0.4708,"osm_intensity_class":"高","core_zone":"核心"},"geometry":{"type":"Polygon","coordinates":[[[120.1476,30.2616],[120.1551,30.2616],[120.1551,30.26785],[120.1476,30.26785],[120.1476,30.2616]]]}},{"type":"Feature","properties":{"cell_id":"hangzhou_06_05","city_id":"hangzhou","city_name_zh":"杭州","row":6,"column":5,"area_km2":0.5006,"center_lon":120.15885,"center_lat":30.264725,"distance_to_center_km":1.103,"facility_count":17,"transit_count":17,"healthcare_count":0,"education_count":0,"park_count":0,"service_diversity":1,"facility_density_km2":33.9602,"road_segment_count":177,"road_length_m":6610.59,"road_density_km_km2":13.2057,"intersection_count":30,"elevation_m":22,"terrain_relief_m":5,"source_note":"OSM道路与设施聚合；SRTM高程采样；均为教学裁剪","accessibility_proxy":0.7956,"osm_intensity_class":"高","core_zone":"核心"},"geometry":{"type":"Polygon","coordinates":[[[120.1551,30.2616],[120.1626,30.2616],[120.1626,30.26785],[120.1551,30.26785],[120.1551,30.2616]]]}},{"type":"Feature","properties":{"cell_id":"hangzhou_06_06","city_id":"hangzhou","city_name_zh":"杭州","row":6,"column":6,"area_km2":0.5006,"center_lon":120.16635,"center_lat":30.264725,"distance_to_center_km":1.501,"facility_count":6,"transit_count":6,"healthcare_count":0,"education_count":0,"park_count":0,"service_diversity":1,"facility_density_km2":11.986,"road_segment_count":145,"road_length_m":8517.91,"road_density_km_km2":17.0159,"intersection_count":38,"elevation_m":19,"terrain_relief_m":10,"source_note":"OSM道路与设施聚合；SRTM高程采样；均为教学裁剪","accessibility_proxy":0.5795,"osm_intensity_class":"高","core_zone":"内圈"},"geometry":{"type":"Polygon","coordinates":[[[120.1626,30.2616],[120.1701,30.2616],[120.1701,30.26785],[120.1626,30.26785],[120.1626,30.2616]]]}},{"type":"Feature","properties":{"cell_id":"hangzhou_06_07","city_id":"hangzhou","city_name_zh":"杭州","row":6,"column":7,"area_km2":0.5006,"center_lon":120.17385,"center_lat":30.264725,"distance_to_center_km":2.081,"facility_count":10,"transit_count":10,"healthcare_count":0,"education_count":0,"park_count":0,"service_diversity":1,"facility_density_km2":19.9766,"road_segment_count":137,"road_length_m":7694.64,"road_density_km_km2":15.3713,"intersection_count":36,"elevation_m":12,"terrain_relief_m":19,"source_note":"OSM道路与设施聚合；SRTM高程采样；均为教学裁剪","accessibility_proxy":0.6193,"osm_intensity_class":"高","core_zone":"内圈"},"geometry":{"type":"Polygon","coordinates":[[[120.1701,30.2616],[120.1776,30.2616],[120.1776,30.26785],[120.1701,30.26785],[120.1701,30.2616]]]}},{"type":"Feature","properties":{"cell_id":"hangzhou_06_08","city_id":"hangzhou","city_name_zh":"杭州","row":6,"column":8,"area_km2":0.5006,"center_lon":120.18135,"center_lat":30.264725,"distance_to_center_km":2.728,"facility_count":2,"transit_count":2,"healthcare_count":0,"education_count":0,"park_count":0,"service_diversity":1,"facility_density_km2":3.9953,"road_segment_count":65,"road_length_m":4996.54,"road_density_km_km2":9.9814,"intersection_count":13,"elevation_m":15,"terrain_relief_m":7,"source_note":"OSM道路与设施聚合；SRTM高程采样；均为教学裁剪","accessibility_proxy":0.316,"osm_intensity_class":"较低","core_zone":"内圈"},"geometry":{"type":"Polygon","coordinates":[[[120.1776,30.2616],[120.1851,30.2616],[120.1851,30.26785],[120.1776,30.26785],[120.1776,30.2616]]]}},{"type":"Feature","properties":{"cell_id":"hangzhou_07_01","city_id":"hangzhou","city_name_zh":"杭州","row":7,"column":1,"area_km2":0.5006,"center_lon":120.12885,"center_lat":30.258475,"distance_to_center_km":3.062,"facility_count":0,"transit_count":0,"healthcare_count":0,"education_count":0,"park_count":0,"service_diversity":0,"facility_density_km2":0.0,"road_segment_count":54,"road_length_m":2050.23,"road_density_km_km2":4.0954,"intersection_count":2,"elevation_m":82,"terrain_relief_m":67,"source_note":"OSM道路与设施聚合；SRTM高程采样；均为教学裁剪","accessibility_proxy":0.1591,"osm_intensity_class":"低","core_zone":"外圈"},"geometry":{"type":"Polygon","coordinates":[[[120.1251,30.25535],[120.1326,30.25535],[120.1326,30.2616],[120.1251,30.2616],[120.1251,30.25535]]]}},{"type":"Feature","properties":{"cell_id":"hangzhou_07_02","city_id":"hangzhou","city_name_zh":"杭州","row":7,"column":2,"area_km2":0.5006,"center_lon":120.13635,"center_lat":30.258475,"distance_to_center_km":2.502,"facility_count":0,"transit_count":0,"healthcare_count":0,"education_count":0,"park_count":0,"service_diversity":0,"facility_density_km2":0.0,"road_segment_count":43,"road_length_m":1464.93,"road_density_km_km2":2.9262,"intersection_count":3,"elevation_m":36,"terrain_relief_m":51,"source_note":"OSM道路与设施聚合；SRTM高程采样；均为教学裁剪","accessibility_proxy":0.1579,"osm_intensity_class":"低","core_zone":"内圈"},"geometry":{"type":"Polygon","coordinates":[[[120.1326,30.25535],[120.1401,30.25535],[120.1401,30.2616],[120.1326,30.2616],[120.1326,30.25535]]]}},{"type":"Feature","properties":{"cell_id":"hangzhou_07_03","city_id":"hangzhou","city_name_zh":"杭州","row":7,"column":3,"area_km2":0.5006,"center_lon":120.14385,"center_lat":30.258475,"distance_to_center_km":2.046,"facility_count":0,"transit_count":0,"healthcare_count":0,"education_count":0,"park_count":0,"service_diversity":0,"facility_density_km2":0.0,"road_segment_count":35,"road_length_m":1682.88,"road_density_km_km2":3.3616,"intersection_count":2,"elevation_m":10,"terrain_relief_m":50,"source_note":"OSM道路与设施聚合；SRTM高程采样；均为教学裁剪","accessibility_proxy":0.183,"osm_intensity_class":"低","core_zone":"内圈"},"geometry":{"type":"Polygon","coordinates":[[[120.1401,30.25535],[120.1476,30.25535],[120.1476,30.2616],[120.1401,30.2616],[120.1401,30.25535]]]}},{"type":"Feature","properties":{"cell_id":"hangzhou_07_04","city_id":"hangzhou","city_name_zh":"杭州","row":7,"column":4,"area_km2":0.5006,"center_lon":120.15135,"center_lat":30.258475,"distance_to_center_km":1.774,"facility_count":0,"transit_count":0,"healthcare_count":0,"education_count":0,"park_count":0,"service_diversity":0,"facility_density_km2":0.0,"road_segment_count":95,"road_length_m":2259.69,"road_density_km_km2":4.5138,"intersection_count":5,"elevation_m":10,"terrain_relief_m":9,"source_note":"OSM道路与设施聚合；SRTM高程采样；均为教学裁剪","accessibility_proxy":0.2145,"osm_intensity_class":"低","core_zone":"内圈"},"geometry":{"type":"Polygon","coordinates":[[[120.1476,30.25535],[120.1551,30.25535],[120.1551,30.2616],[120.1476,30.2616],[120.1476,30.25535]]]}},{"type":"Feature","properties":{"cell_id":"hangzhou_07_05","city_id":"hangzhou","city_name_zh":"杭州","row":7,"column":5,"area_km2":0.5006,"center_lon":120.15885,"center_lat":30.258475,"distance_to_center_km":1.774,"facility_count":13,"transit_count":13,"healthcare_count":0,"education_count":0,"park_count":0,"service_diversity":1,"facility_density_km2":25.9679,"road_segment_count":271,"road_length_m":10397.98,"road_density_km_km2":20.7703,"intersection_count":47,"elevation_m":19,"terrain_relief_m":13,"source_note":"OSM道路与设施聚合；SRTM高程采样；均为教学裁剪","accessibility_proxy":0.7943,"osm_intensity_class":"高","core_zone":"内圈"},"geometry":{"type":"Polygon","coordinates":[[[120.1551,30.25535],[120.1626,30.25535],[120.1626,30.2616],[120.1551,30.2616],[120.1551,30.25535]]]}},{"type":"Feature","properties":{"cell_id":"hangzhou_07_06","city_id":"hangzhou","city_name_zh":"杭州","row":7,"column":6,"area_km2":0.5006,"center_lon":120.16635,"center_lat":30.258475,"distance_to_center_km":2.046,"facility_count":0,"transit_count":0,"healthcare_count":0,"education_count":0,"park_count":0,"service_diversity":0,"facility_density_km2":0.0,"road_segment_count":203,"road_length_m":8902.02,"road_density_km_km2":17.7821,"intersection_count":46,"elevation_m":40,"terrain_relief_m":22,"source_note":"OSM道路与设施聚合；SRTM高程采样；均为教学裁剪","accessibility_proxy":0.426,"osm_intensity_class":"较高","core_zone":"内圈"},"geometry":{"type":"Polygon","coordinates":[[[120.1626,30.25535],[120.1701,30.25535],[120.1701,30.2616],[120.1626,30.2616],[120.1626,30.25535]]]}},{"type":"Feature","properties":{"cell_id":"hangzhou_07_07","city_id":"hangzhou","city_name_zh":"杭州","row":7,"column":7,"area_km2":0.5006,"center_lon":120.17385,"center_lat":30.258475,"distance_to_center_km":2.502,"facility_count":8,"transit_count":6,"healthcare_count":1,"education_count":1,"park_count":0,"service_diversity":3,"facility_density_km2":15.9803,"road_segment_count":129,"road_length_m":5417.09,"road_density_km_km2":10.8208,"intersection_count":21,"elevation_m":16,"terrain_relief_m":15,"source_note":"OSM道路与设施聚合；SRTM高程采样；均为教学裁剪","accessibility_proxy":0.4791,"osm_intensity_class":"高","core_zone":"内圈"},"geometry":{"type":"Polygon","coordinates":[[[120.1701,30.25535],[120.1776,30.25535],[120.1776,30.2616],[120.1701,30.2616],[120.1701,30.25535]]]}},{"type":"Feature","properties":{"cell_id":"hangzhou_07_08","city_id":"hangzhou","city_name_zh":"杭州","row":7,"column":8,"area_km2":0.5006,"center_lon":120.18135,"center_lat":30.258475,"distance_to_center_km":3.062,"facility_count":0,"transit_count":0,"healthcare_count":0,"education_count":0,"park_count":0,"service_diversity":0,"facility_density_km2":0.0,"road_segment_count":110,"road_length_m":5890.03,"road_density_km_km2":11.7655,"intersection_count":17,"elevation_m":15,"terrain_relief_m":2,"source_note":"OSM道路与设施聚合；SRTM高程采样；均为教学裁剪","accessibility_proxy":0.2883,"osm_intensity_class":"较低","core_zone":"外圈"},"geometry":{"type":"Polygon","coordinates":[[[120.1776,30.25535],[120.1851,30.25535],[120.1851,30.2616],[120.1776,30.2616],[120.1776,30.25535]]]}},{"type":"Feature","properties":{"cell_id":"hangzhou_08_01","city_id":"hangzhou","city_name_zh":"杭州","row":8,"column":1,"area_km2":0.5006,"center_lon":120.12885,"center_lat":30.252225,"distance_to_center_km":3.503,"facility_count":0,"transit_count":0,"healthcare_count":0,"education_count":0,"park_count":0,"service_diversity":0,"facility_density_km2":0.0,"road_segment_count":79,"road_length_m":2994.6,"road_density_km_km2":5.9814,"intersection_count":6,"elevation_m":13,"terrain_relief_m":22,"source_note":"OSM道路与设施聚合；SRTM高程采样；均为教学裁剪","accessibility_proxy":0.1786,"osm_intensity_class":"低","core_zone":"外圈"},"geometry":{"type":"Polygon","coordinates":[[[120.1251,30.2491],[120.1326,30.2491],[120.1326,30.25535],[120.1251,30.25535],[120.1251,30.2491]]]}},{"type":"Feature","properties":{"cell_id":"hangzhou_08_02","city_id":"hangzhou","city_name_zh":"杭州","row":8,"column":2,"area_km2":0.5006,"center_lon":120.13635,"center_lat":30.252225,"distance_to_center_km":3.026,"facility_count":1,"transit_count":0,"healthcare_count":0,"education_count":0,"park_count":0,"service_diversity":1,"facility_density_km2":1.9974,"road_segment_count":37,"road_length_m":1118.25,"road_density_km_km2":2.2336,"intersection_count":1,"elevation_m":13,"terrain_relief_m":22,"source_note":"OSM道路与设施聚合；SRTM高程采样；均为教学裁剪","accessibility_proxy":0.1523,"osm_intensity_class":"低","core_zone":"外圈"},"geometry":{"type":"Polygon","coordinates":[[[120.1326,30.2491],[120.1401,30.2491],[120.1401,30.25535],[120.1326,30.25535],[120.1326,30.2491]]]}},{"type":"Feature","properties":{"cell_id":"hangzhou_08_03","city_id":"hangzhou","city_name_zh":"杭州","row":8,"column":3,"area_km2":0.5006,"center_lon":120.14385,"center_lat":30.252225,"distance_to_center_km":2.662,"facility_count":0,"transit_count":0,"healthcare_count":0,"education_count":0,"park_count":0,"service_diversity":0,"facility_density_km2":0.0,"road_segment_count":10,"road_length_m":334.43,"road_density_km_km2":0.668,"intersection_count":1,"elevation_m":10,"terrain_relief_m":2,"source_note":"OSM道路与设施聚合；SRTM高程采样；均为教学裁剪","accessibility_proxy":0.1142,"osm_intensity_class":"低","core_zone":"内圈"},"geometry":{"type":"Polygon","coordinates":[[[120.1401,30.2491],[120.1476,30.2491],[120.1476,30.25535],[120.1401,30.25535],[120.1401,30.2491]]]}},{"type":"Feature","properties":{"cell_id":"hangzhou_08_04","city_id":"hangzhou","city_name_zh":"杭州","row":8,"column":4,"area_km2":0.5006,"center_lon":120.15135,"center_lat":30.252225,"distance_to_center_km":2.459,"facility_count":0,"transit_count":0,"healthcare_count":0,"education_count":0,"park_count":0,"service_diversity":0,"facility_density_km2":0.0,"road_segment_count":0,"road_length_m":0.0,"road_density_km_km2":0.0,"intersection_count":0,"elevation_m":10,"terrain_relief_m":7,"source_note":"OSM道路与设施聚合；SRTM高程采样；均为教学裁剪","accessibility_proxy":0.1101,"osm_intensity_class":"低","core_zone":"内圈"},"geometry":{"type":"Polygon","coordinates":[[[120.1476,30.2491],[120.1551,30.2491],[120.1551,30.25535],[120.1476,30.25535],[120.1476,30.2491]]]}},{"type":"Feature","properties":{"cell_id":"hangzhou_08_05","city_id":"hangzhou","city_name_zh":"杭州","row":8,"column":5,"area_km2":0.5006,"center_lon":120.15885,"center_lat":30.252225,"distance_to_center_km":2.459,"facility_count":0,"transit_count":0,"healthcare_count":0,"education_count":0,"park_count":0,"service_diversity":0,"facility_density_km2":0.0,"road_segment_count":238,"road_length_m":9617.59,"road_density_km_km2":19.2102,"intersection_count":48,"elevation_m":14,"terrain_relief_m":8,"source_note":"OSM道路与设施聚合；SRTM高程采样；均为教学裁剪","accessibility_proxy":0.4339,"osm_intensity_class":"较高","core_zone":"内圈"},"geometry":{"type":"Polygon","coordinates":[[[120.1551,30.2491],[120.1626,30.2491],[120.1626,30.25535],[120.1551,30.25535],[120.1551,30.2491]]]}},{"type":"Feature","properties":{"cell_id":"hangzhou_08_06","city_id":"hangzhou","city_name_zh":"杭州","row":8,"column":6,"area_km2":0.5006,"center_lon":120.16635,"center_lat":30.252225,"distance_to_center_km":2.662,"facility_count":0,"transit_count":0,"healthcare_count":0,"education_count":0,"park_count":0,"service_diversity":0,"facility_density_km2":0.0,"road_segment_count":171,"road_length_m":7885.08,"road_density_km_km2":15.7497,"intersection_count":31,"elevation_m":22,"terrain_relief_m":14,"source_note":"OSM道路与设施聚合；SRTM高程采样；均为教学裁剪","accessibility_proxy":0.3683,"osm_intensity_class":"较高","core_zone":"内圈"},"geometry":{"type":"Polygon","coordinates":[[[120.1626,30.2491],[120.1701,30.2491],[120.1701,30.25535],[120.1626,30.25535],[120.1626,30.2491]]]}},{"type":"Feature","properties":{"cell_id":"hangzhou_08_07","city_id":"hangzhou","city_name_zh":"杭州","row":8,"column":7,"area_km2":0.5006,"center_lon":120.17385,"center_lat":30.252225,"distance_to_center_km":3.026,"facility_count":1,"transit_count":1,"healthcare_count":0,"education_count":0,"park_count":0,"service_diversity":1,"facility_density_km2":1.9974,"road_segment_count":117,"road_length_m":5941.45,"road_density_km_km2":11.8675,"intersection_count":19,"elevation_m":15,"terrain_relief_m":17,"source_note":"OSM道路与设施聚合；SRTM高程采样；均为教学裁剪","accessibility_proxy":0.3147,"osm_intensity_class":"较低","core_zone":"外圈"},"geometry":{"type":"Polygon","coordinates":[[[120.1701,30.2491],[120.1776,30.2491],[120.1776,30.25535],[120.1701,30.25535],[120.1701,30.2491]]]}},{"type":"Feature","properties":{"cell_id":"hangzhou_08_08","city_id":"hangzhou","city_name_zh":"杭州","row":8,"column":8,"area_km2":0.5006,"center_lon":120.18135,"center_lat":30.252225,"distance_to_center_km":3.503,"facility_count":0,"transit_count":0,"healthcare_count":0,"education_count":0,"park_count":0,"service_diversity":0,"facility_density_km2":0.0,"road_segment_count":117,"road_length_m":5229.2,"road_density_km_km2":10.4448,"intersection_count":12,"elevation_m":16,"terrain_relief_m":3,"source_note":"OSM道路与设施聚合；SRTM高程采样；均为教学裁剪","accessibility_proxy":0.2538,"osm_intensity_class":"低","core_zone":"外圈"},"geometry":{"type":"Polygon","coordinates":[[[120.1776,30.2491],[120.1851,30.2491],[120.1851,30.25535],[120.1776,30.25535],[120.1776,30.2491]]]}}]}