{"type":"FeatureCollection","name":"hangzhou_ghsl_boundary","crs":{"type":"name","properties":{"name":"urn:ogc:def:crs:OGC:1.3:CRS84"}},"features":[{"type":"Feature","properties":{"uc_id":11311,"city_name_en":"Hangzhou","city_name_zh":"杭州","country":"China","urban_area_km2_2025":1517,"population_2025":6387063,"population_density_km2_2025":4210.32,"gdp_average_ppp_1990":3534477,"gdp_average_ppp_2000":15806630,"gdp_average_ppp_2010":50384950,"gdp_average_ppp_2020":68032380,"gdp_total_ppp_1990":7167919104,"gdp_total_ppp_2000":32182304768,"gdp_total_ppp_2010":103000000000,"gdp_total_ppp_2020":139000000000,"hdi_1990":0.516,"hdi_2000":0.622,"hdi_2010":0.725,"hdi_2020":0.796},"geometry":{"type":"Polygon","coordinates":[[[120.390148322613,30.4800955743746],[120.379207741666,30.4800955743746],[120.366049728729,30.4629787363962],[120.376989114019,30.4629787363962],[120.363841330198,30.4458630350438],[120.37477951983,30.4458630350438],[120.368209312808,30.4373056104352],[120.379146905959,30.4373056104352],[120.359451610154,30.4116350410035],[120.370387412962,30.4116350410035],[120.344164529807,30.3774115843711],[120.355097951181,30.3774115843711],[120.348548752161,30.3688564288895],[120.337615925471,30.3688564288895],[120.331070166101,30.3603015557334],[120.320137934994,30.3603015557334],[120.307056132431,30.3431926587561],[120.317987175066,30.3431926587561],[120.311449941606,30.3346386341758],[120.333310839304,30.3346386341758],[120.339849260337,30.3431926587561],[120.372642389141,30.3431926587561],[120.36610218585,30.3346386341758],[120.398893532397,30.3346386341758],[120.392354389118,30.3260848927284],[120.403284244181,30.3260848927284],[120.396747348487,30.3175314332584],[120.407676609763,30.3175314332584],[120.368511274305,30.2662166030072],[120.324808447735,30.2662166030072],[120.331326547079,30.2747683700803],[120.309473949815,30.2747683700803],[120.315993697568,30.2833204183956],[120.294139916324,30.2833204183956],[120.300661313384,30.2918727491102],[120.267878863752,30.2918727491102],[120.26135924356,30.2833204183956],[120.250432352938,30.2833204183956],[120.237402793696,30.2662166030072],[120.226477087054,30.2662166030072],[120.213460030565,30.2491139141625],[120.224384554126,30.2491139141625],[120.211377625243,30.2320123519074],[120.22230096752,30.2320123519074],[120.215801150688,30.2234619922942],[120.226723902771,30.2234619922942],[120.220226320049,30.2149119139559],[120.252992803026,30.2149119139559],[120.259492156327,30.2234619922942],[120.281337658697,30.2234619922942],[120.287841018485,30.2320123519074],[120.298764360762,30.2320123519074],[120.305271138639,30.2405629924025],[120.327119003579,30.2405629924025],[120.320611044417,30.2320123519074],[120.375227754003,30.2320123519074],[120.381738667724,30.2405629924025],[120.403586532664,30.2405629924025],[120.390565172346,30.2234619922942],[120.368719669976,30.2234619922942],[120.362214413845,30.2149119139559],[120.351292252853,30.2149119139559],[120.338291400175,30.1978126003469],[120.34921238078,30.1978126003469],[120.34271560205,30.1892633643086],[120.364556385571,30.1892633643086],[120.371054343789,30.1978126003469],[120.381975324394,30.1978126003469],[120.388476697109,30.2063621165092],[120.399398267907,30.2063621165092],[120.405903057813,30.2149119139559],[120.416825218805,30.2149119139559],[120.423333425902,30.2234619922942],[120.434256177985,30.2234619922942],[120.453799554303,30.2491139141625],[120.442875030741,30.2491139141625],[120.449394562899,30.25766511757],[120.405694101593,30.25766511757],[120.412214101773,30.2662166030072],[120.423139808415,30.2662166030072],[120.442718593626,30.2918727491102],[120.431791110116,30.2918727491102],[120.438322453323,30.3004253618301],[120.449250528823,30.3004253618301],[120.455785303594,30.3089782561606],[120.466713972881,30.3089782561606],[120.460178605221,30.3004253618301],[120.471106680721,30.3004253618301],[120.464573559748,30.2918727491102],[120.519210974604,30.2918727491102],[120.506147324297,30.2747683700803],[120.51707362293,30.2747683700803],[120.510545462454,30.2662166030072],[120.521471169096,30.2662166030072],[120.51494525351,30.25766511757],[120.525870368163,30.25766511757],[120.519346697467,30.2491139141625],[120.530271221028,30.2491139141625],[120.523749792527,30.2405629924025],[120.556521590835,30.2405629924025],[120.550001224142,30.2320123519074],[120.560924566419,30.2320123519074],[120.521858287288,30.1807144095631],[120.532778089304,30.1807144095631],[120.526276353671,30.1721657349497],[120.53719556729,30.1721657349497],[120.530696068462,30.1636173408604],[120.541614693685,30.1636173408604],[120.535117431662,30.1550692276869],[120.556953503518,30.1550692276869],[120.543965098795,30.1379738409937],[120.55488195793,30.1379738409937],[120.54839140183,30.1294265674798],[120.559307673468,30.1294265674798],[120.552819351478,30.1208795741169],[120.563735035617,30.1208795741169],[120.557248946839,30.1123328605192],[120.579079141018,30.1123328605192],[120.585566404793,30.1208795741169],[120.618313458108,30.1208795741169],[120.624805305985,30.1294265674798],[120.646637849259,30.1294265674798],[120.640144827284,30.1208795741169],[120.66197619646,30.1208795741169],[120.655484821995,30.1123328605192],[120.666399919534,30.1123328605192],[120.659910780077,30.1037864263002],[120.670825290118,30.1037864263002],[120.657854300135,30.0866943967834],[120.668767636976,30.0866943967834],[120.64933053495,30.0610584471152],[120.638418955214,30.0610584471152],[120.631946139942,30.0525136888151],[120.621035145908,30.0525136888151],[120.601635336543,30.0268810871386],[120.612544576168,30.0268810871386],[120.606083011397,30.0183374432854],[120.638808974066,30.0183374432854],[120.619435880597,29.992708182619],[120.630342783704,29.992708182619],[120.617440259719,29.9756233996918],[120.606534523523,29.9756233996918],[120.593644387306,29.9585397280873],[120.582739816225,29.9585397280873],[120.576299535239,29.9499983092224],[120.565395547165,29.9499983092224],[120.571835246043,29.9585397280873],[120.560930675861,29.9585397280873],[120.567372594476,29.9670814255585],[120.545562288099,29.9670814255585],[120.539121534598,29.9585397280873],[120.528216964416,29.9585397280873],[120.53465713491,29.9670814255585],[120.491036522155,29.9670814255585],[120.497477163366,29.9756233996918],[120.486571428069,29.9756233996918],[120.493014288119,29.984165652434],[120.482107968917,29.984165652434],[120.507905121594,30.0183374432854],[120.496996467671,30.0183374432854],[120.503452187104,30.0268810871386],[120.44890599347,30.0268810871386],[120.455361597919,30.0354250088263],[120.444451774389,30.0354250088263],[120.450909603067,30.0439692095148],[120.439999194733,30.0439692095148],[120.452922110476,30.0610584471152],[120.442010530739,30.0610584471152],[120.448475619601,30.0696034848031],[120.415739125084,30.0696034848031],[120.422205267669,30.0781488014891],[120.41129251653,30.0781488014891],[120.41776088514,30.0866943967834],[120.406847548299,30.0866943967834],[120.413318144732,30.0952402718505],[120.391490296952,30.0952402718505],[120.385020874617,30.0866943967834],[120.374107537776,30.0866943967834],[120.393522488245,30.1123328605192],[120.382607391605,30.1123328605192],[120.389084084005,30.1208795741169],[120.35633703069,30.1208795741169],[120.349862099886,30.1123328605192],[120.328031904808,30.1123328605192],[120.334505662412,30.1208795741169],[120.312674293236,30.1208795741169],[120.306201710628,30.1123328605192],[120.295286613089,30.1123328605192],[120.282351062543,30.0952402718505],[120.260523214762,30.0952402718505],[120.266988411422,30.1037864263002],[120.245159390442,30.1037864263002],[120.25162622473,30.1123328605192],[120.240711127191,30.1123328605192],[120.247180186606,30.1208795741169],[120.236264501569,30.1208795741169],[120.242735787009,30.1294265674798],[120.231819514474,30.1294265674798],[120.244769352725,30.1465213942675],[120.233851905193,30.1465213942675],[120.240330459801,30.1550692276869],[120.229412423873,30.1550692276869],[120.235893207201,30.1636173408604],[120.214055957653,30.1636173408604],[120.207576352016,30.1550692276869],[120.19665831519,30.1550692276869],[120.183708727568,30.1379738409937],[120.194625587602,30.1379738409937],[120.188154427027,30.1294265674798],[120.199070698664,30.1294265674798],[120.186135641293,30.1123328605192],[120.175220543754,30.1123328605192],[120.168757819258,30.1037864263002],[120.146928798278,30.1037864263002],[120.153390349574,30.1123328605192],[120.131560154496,30.1123328605192],[120.125099778196,30.1037864263002],[120.114185267257,30.1037864263002],[120.107728285691,30.0952402718505],[120.09681436225,30.0952402718505],[120.109729960316,30.1123328605192],[120.098814862777,30.1123328605192],[120.105276288309,30.1208795741169],[120.083444919133,30.1208795741169],[120.096373849994,30.1379738409937],[120.085456989961,30.1379738409937],[120.091925084585,30.1465213942675],[120.070090188623,30.1465213942675],[120.063623270792,30.1379738409937],[120.052706410758,30.1379738409937],[120.072113838735,30.1636173408604],[120.061195214411,30.1636173408604],[120.067669395121,30.1721657349497],[120.078588608741,30.1721657349497],[120.085066194066,30.1807144095631],[120.095985996082,30.1807144095631],[120.102466986921,30.1892633643086],[120.113387378232,30.1892633643086],[120.119871776381,30.1978126003469],[120.130792757885,30.1978126003469],[120.150264642678,30.2234619922942],[120.139341891493,30.2234619922942],[120.152336080468,30.2405629924025],[120.1414121471,30.2405629924025],[120.1479128874,30.2491139141625],[120.136988363839,30.2491139141625],[120.143491338249,30.25766511757],[120.088865762291,30.25766511757],[120.082365744236,30.2491139141625],[120.071441220675,30.2491139141625],[120.05845083876,30.2320123519074],[120.069374181036,30.2320123519074],[120.062882632298,30.2234619922942],[120.041037129928,30.2234619922942],[120.034549583184,30.2149119139559],[120.023627422192,30.2149119139559],[120.017143284555,30.2063621165092],[120.006221713756,30.2063621165092],[120.0127052612,30.2149119139559],[120.001783100208,30.2149119139559],[120.008268875474,30.2234619922942],[119.953655118649,30.2234619922942],[119.960140761863,30.2320123519074],[119.949217419586,30.2320123519074],[119.955705290622,30.2405629924025],[119.912009559844,30.2405629924025],[119.931483005011,30.2662166030072],[119.92055729747,30.2662166030072],[119.927053498584,30.2747683700803],[119.916127199951,30.2747683700803],[119.922625631581,30.2833204183956],[119.97726008559,30.2833204183956],[119.983764303268,30.2918727491102],[119.994691786779,30.2918727491102],[120.001199424344,30.3004253618301],[120.023055576242,30.3004253618301],[120.029567228378,30.3089782561606],[120.040495896766,30.3089782561606],[120.053528879486,30.3260848927284],[120.042599024424,30.3260848927284],[120.062167964099,30.3517469660737],[120.051236327677,30.3517469660737],[120.057764383051,30.3603015557334],[120.035899920838,30.3603015557334],[120.042429623721,30.3688564288895],[120.031496797032,30.3688564288895],[120.038028743008,30.3774115843711],[120.027095321634,30.3774115843711],[120.033629510704,30.3859670233322],[120.077365574939,30.3859670233322],[120.083904985018,30.3945227461515],[120.094839596659,30.3945227461515],[120.101382443692,30.4030787516576],[120.112317650917,30.4030787516576],[120.1188639367,30.4116350410035],[120.129799739508,30.4116350410035],[120.136349465839,30.4201916137924],[120.147285865129,30.4201916137924],[120.134188065367,30.4030787516576],[120.145123272592,30.4030787516576],[120.138578043227,30.3945227461515],[120.160447266511,30.3945227461515],[120.16699368794,30.4030787516576],[120.177928895165,30.4030787516576],[120.171381878153,30.3945227461515],[120.182316489795,30.3945227461515],[120.175771721266,30.3859670233322],[120.186705737325,30.3859670233322],[120.173623535909,30.3688564288895],[120.184556361701,30.3688564288895],[120.178018927916,30.3603015557334],[120.199883390129,30.3603015557334],[120.206422013283,30.3688564288895],[120.250153317346,30.3688564288895],[120.256697162406,30.3774115843711],[120.267630582882,30.3774115843711],[120.280727994572,30.3945227461515],[120.26979338293,30.3945227461515],[120.276345761088,30.4030787516576],[120.265410553863,30.4030787516576],[120.271965183199,30.4116350410035],[120.261029380391,30.4116350410035],[120.267586260905,30.4201916137924],[120.245713461428,30.4201916137924],[120.265397621716,30.4458630350438],[120.254459432084,30.4458630350438],[120.261025922775,30.45442074383],[120.250087135764,30.45442074383],[120.256655882124,30.4629787363962],[120.267595266515,30.4629787363962],[120.287320425913,30.4886544205389],[120.309202783465,30.4886544205389],[120.302623678631,30.4800955743746],[120.324504839626,30.4800955743746],[120.317927393981,30.4715370131191],[120.339807359319,30.4715370131191],[120.346386000622,30.4800955743746],[120.357326580671,30.4800955743746],[120.363908677793,30.4886544205389],[120.39673221457,30.4886544205389],[120.390148322613,30.4800955743746]]]}}]}