{"type":"FeatureCollection","name":"hangzhou_facilities","crs":{"type":"name","properties":{"name":"urn:ogc:def:crs:OGC:1.3:CRS84"}},"features":[{"type":"Feature","properties":{"facility_id":"osm_node_5311551426","osm_id":"5311551426","name":"杭州市青少年活动中心","category":"community","category_zh":"社区服务","amenity":"community_centre","railway":null,"source":"OpenStreetMap"},"geometry":{"type":"Point","coordinates":[120.150575,30.2637529]}},{"type":"Feature","properties":{"facility_id":"osm_node_7281539473","osm_id":"7281539473","name":"夹城巷社区","category":"community","category_zh":"社区服务","amenity":"community_centre","railway":null,"source":"OpenStreetMap"},"geometry":{"type":"Point","coordinates":[120.14733,30.2913734]}},{"type":"Feature","properties":{"facility_id":"osm_node_7281685246","osm_id":"7281685246","name":"新华坊社区居委会","category":"community","category_zh":"社区服务","amenity":"community_centre","railway":null,"source":"OpenStreetMap"},"geometry":{"type":"Point","coordinates":[120.1725708,30.269732]}},{"type":"Feature","properties":{"facility_id":"osm_node_7281685247","osm_id":"7281685247","name":"十五家园社区居委会","category":"community","category_zh":"社区服务","amenity":"community_centre","railway":null,"source":"OpenStreetMap"},"geometry":{"type":"Point","coordinates":[120.1696469,30.2688053]}},{"type":"Feature","properties":{"facility_id":"osm_node_7281696694","osm_id":"7281696694","name":"艮园社区","category":"community","category_zh":"社区服务","amenity":"community_centre","railway":null,"source":"OpenStreetMap"},"geometry":{"type":"Point","coordinates":[120.1811721,30.272244]}},{"type":"Feature","properties":{"facility_id":"osm_node_7281766848","osm_id":"7281766848","name":"铁佛寺社区","category":"community","category_zh":"社区服务","amenity":"community_centre","railway":null,"source":"OpenStreetMap"},"geometry":{"type":"Point","coordinates":[120.1334059,30.2865237]}},{"type":"Feature","properties":{"facility_id":"osm_node_3387263610","osm_id":"3387263610","name":"浙江省图书馆古籍部","category":"culture","category_zh":"文化","amenity":"library","railway":null,"source":"OpenStreetMap"},"geometry":{"type":"Point","coordinates":[120.1371609,30.2528888]}},{"type":"Feature","properties":{"facility_id":"osm_node_5046496850","osm_id":"5046496850","name":"自助图书馆","category":"culture","category_zh":"文化","amenity":"library","railway":null,"source":"OpenStreetMap"},"geometry":{"type":"Point","coordinates":[120.1577052,30.2790517]}},{"type":"Feature","properties":{"facility_id":"osm_node_12723542370","osm_id":"12723542370","name":"生物工程学院","category":"education","category_zh":"教育","amenity":"college","railway":null,"source":"OpenStreetMap"},"geometry":{"type":"Point","coordinates":[120.1626612,30.2942521]}},{"type":"Feature","properties":{"facility_id":"osm_node_12723542371","osm_id":"12723542371","name":"国际学院","category":"education","category_zh":"教育","amenity":"college","railway":null,"source":"OpenStreetMap"},"geometry":{"type":"Point","coordinates":[120.1642836,30.2956984]}},{"type":"Feature","properties":{"facility_id":"osm_node_12723542372","osm_id":"12723542372","name":"健行学院","category":"education","category_zh":"教育","amenity":"college","railway":null,"source":"OpenStreetMap"},"geometry":{"type":"Point","coordinates":[120.1602749,30.2972959]}},{"type":"Feature","properties":{"facility_id":"osm_node_12723542373","osm_id":"12723542373","name":"继续教育学院","category":"education","category_zh":"教育","amenity":"college","railway":null,"source":"OpenStreetMap"},"geometry":{"type":"Point","coordinates":[120.1633483,30.2951315]}},{"type":"Feature","properties":{"facility_id":"osm_node_12723542374","osm_id":"12723542374","name":"管理学院","category":"education","category_zh":"教育","amenity":"college","railway":null,"source":"OpenStreetMap"},"geometry":{"type":"Point","coordinates":[120.1619953,30.2933032]}},{"type":"Feature","properties":{"facility_id":"osm_node_13393041506","osm_id":"13393041506","name":"启正中学","category":"education","category_zh":"教育","amenity":"school","railway":null,"source":"OpenStreetMap"},"geometry":{"type":"Point","coordinates":[120.1519802,30.2857167]}},{"type":"Feature","properties":{"facility_id":"osm_node_316550395","osm_id":"316550395","name":"浙江工业大学","category":"education","category_zh":"教育","amenity":"university","railway":null,"source":"OpenStreetMap"},"geometry":{"type":"Point","coordinates":[120.1620458,30.2931534]}},{"type":"Feature","properties":{"facility_id":"osm_node_3522152343","osm_id":"3522152343","name":"杭州市回族穆兴小学（小营校区）","category":"education","category_zh":"教育","amenity":"school","railway":null,"source":"OpenStreetMap"},"geometry":{"type":"Point","coordinates":[120.1702146,30.2563254]}},{"type":"Feature","properties":{"facility_id":"osm_node_11954826043","osm_id":"11954826043","name":"潘建勇五运六气医宗工作室","category":"healthcare","category_zh":"医疗","amenity":"clinic","railway":null,"source":"OpenStreetMap"},"geometry":{"type":"Point","coordinates":[120.1823317,30.2908589]}},{"type":"Feature","properties":{"facility_id":"osm_node_13657697615","osm_id":"13657697615","name":"杭州江城骨科医院","category":"healthcare","category_zh":"医疗","amenity":"hospital","railway":null,"source":"OpenStreetMap"},"geometry":{"type":"Point","coordinates":[120.1766534,30.2724106]}},{"type":"Feature","properties":{"facility_id":"osm_node_332055987","osm_id":"332055987","name":"浙江省新华医院","category":"healthcare","category_zh":"医疗","amenity":"hospital","railway":null,"source":"OpenStreetMap"},"geometry":{"type":"Point","coordinates":[120.1440947,30.2869656]}},{"type":"Feature","properties":{"facility_id":"osm_node_5046496823","osm_id":"5046496823","name":"朝晖街道社区卫生服务中心","category":"healthcare","category_zh":"医疗","amenity":"hospital","railway":null,"source":"OpenStreetMap"},"geometry":{"type":"Point","coordinates":[120.1567019,30.2870064]}},{"type":"Feature","properties":{"facility_id":"osm_node_5197834234","osm_id":"5197834234","name":"浙医一院急救中心","category":"healthcare","category_zh":"医疗","amenity":"clinic","railway":null,"source":"OpenStreetMap"},"geometry":{"type":"Point","coordinates":[120.1736557,30.2598802]}},{"type":"Feature","properties":{"facility_id":"osm_node_13127316809","osm_id":"13127316809","name":"夹城夜月文化公园","category":"park","category_zh":"公园","amenity":null,"railway":null,"source":"OpenStreetMap"},"geometry":{"type":"Point","coordinates":[120.1484029,30.2917204]}},{"type":"Feature","properties":{"facility_id":"osm_node_13430067493","osm_id":"13430067493","name":"朝晖文化公园","category":"park","category_zh":"公园","amenity":null,"railway":null,"source":"OpenStreetMap"},"geometry":{"type":"Point","coordinates":[120.1612482,30.2869745]}},{"type":"Feature","properties":{"facility_id":"osm_node_11854295377","osm_id":"11854295377","name":"E1a","category":"transit","category_zh":"公共交通","amenity":null,"railway":"subway_entrance","source":"OpenStreetMap"},"geometry":{"type":"Point","coordinates":[120.1763192,30.2659809]}},{"type":"Feature","properties":{"facility_id":"osm_node_11935484399","osm_id":"11935484399","name":"宝善桥","category":"transit","category_zh":"公共交通","amenity":null,"railway":"station","source":"OpenStreetMap"},"geometry":{"type":"Point","coordinates":[120.1751518,30.2743753]}},{"type":"Feature","properties":{"facility_id":"osm_node_12002009300","osm_id":"12002009300","name":"E1b","category":"transit","category_zh":"公共交通","amenity":null,"railway":"subway_entrance","source":"OpenStreetMap"},"geometry":{"type":"Point","coordinates":[120.1763301,30.2661332]}},{"type":"Feature","properties":{"facility_id":"osm_node_12002009332","osm_id":"12002009332","name":"A口电梯","category":"transit","category_zh":"公共交通","amenity":null,"railway":"subway_entrance","source":"OpenStreetMap"},"geometry":{"type":"Point","coordinates":[120.1777455,30.2670005]}},{"type":"Feature","properties":{"facility_id":"osm_node_12002009335","osm_id":"12002009335","name":"未命名设施","category":"transit","category_zh":"公共交通","amenity":null,"railway":"subway_entrance","source":"OpenStreetMap"},"geometry":{"type":"Point","coordinates":[120.1782507,30.2670455]}},{"type":"Feature","properties":{"facility_id":"osm_node_12104001574","osm_id":"12104001574","name":"未命名设施","category":"transit","category_zh":"公共交通","amenity":null,"railway":"subway_entrance","source":"OpenStreetMap"},"geometry":{"type":"Point","coordinates":[120.1456998,30.2834191]}},{"type":"Feature","properties":{"facility_id":"osm_node_12104001585","osm_id":"12104001585","name":"未命名设施","category":"transit","category_zh":"公共交通","amenity":null,"railway":"subway_entrance","source":"OpenStreetMap"},"geometry":{"type":"Point","coordinates":[120.144571,30.2799248]}},{"type":"Feature","properties":{"facility_id":"osm_node_12104001588","osm_id":"12104001588","name":"未命名设施","category":"transit","category_zh":"公共交通","amenity":null,"railway":"subway_entrance","source":"OpenStreetMap"},"geometry":{"type":"Point","coordinates":[120.1451442,30.2798279]}},{"type":"Feature","properties":{"facility_id":"osm_node_12104066873","osm_id":"12104066873","name":"未命名设施","category":"transit","category_zh":"公共交通","amenity":null,"railway":"subway_entrance","source":"OpenStreetMap"},"geometry":{"type":"Point","coordinates":[120.1763459,30.2676092]}},{"type":"Feature","properties":{"facility_id":"osm_node_12129296549","osm_id":"12129296549","name":"电梯","category":"transit","category_zh":"公共交通","amenity":null,"railway":"subway_entrance","source":"OpenStreetMap"},"geometry":{"type":"Point","coordinates":[120.1603793,30.2750033]}},{"type":"Feature","properties":{"facility_id":"osm_node_12129296554","osm_id":"12129296554","name":"未命名设施","category":"transit","category_zh":"公共交通","amenity":null,"railway":"subway_entrance","source":"OpenStreetMap"},"geometry":{"type":"Point","coordinates":[120.1603225,30.2750267]}},{"type":"Feature","properties":{"facility_id":"osm_node_12129296571","osm_id":"12129296571","name":"未命名设施","category":"transit","category_zh":"公共交通","amenity":null,"railway":"subway_entrance","source":"OpenStreetMap"},"geometry":{"type":"Point","coordinates":[120.1603835,30.2750633]}},{"type":"Feature","properties":{"facility_id":"osm_node_12291570900","osm_id":"12291570900","name":"未命名设施","category":"transit","category_zh":"公共交通","amenity":null,"railway":"subway_entrance","source":"OpenStreetMap"},"geometry":{"type":"Point","coordinates":[120.1449315,30.2831573]}},{"type":"Feature","properties":{"facility_id":"osm_node_12291598005","osm_id":"12291598005","name":"未命名设施","category":"transit","category_zh":"公共交通","amenity":null,"railway":"subway_entrance","source":"OpenStreetMap"},"geometry":{"type":"Point","coordinates":[120.1454668,30.2819094]}},{"type":"Feature","properties":{"facility_id":"osm_node_12291598023","osm_id":"12291598023","name":"未命名设施","category":"transit","category_zh":"公共交通","amenity":null,"railway":"subway_entrance","source":"OpenStreetMap"},"geometry":{"type":"Point","coordinates":[120.1458637,30.2822912]}},{"type":"Feature","properties":{"facility_id":"osm_node_12291598048","osm_id":"12291598048","name":"未命名设施","category":"transit","category_zh":"公共交通","amenity":null,"railway":"subway_entrance","source":"OpenStreetMap"},"geometry":{"type":"Point","coordinates":[120.1456111,30.2815167]}},{"type":"Feature","properties":{"facility_id":"osm_node_12369417091","osm_id":"12369417091","name":"未命名设施","category":"transit","category_zh":"公共交通","amenity":null,"railway":"subway_entrance","source":"OpenStreetMap"},"geometry":{"type":"Point","coordinates":[120.1591143,30.2754298]}},{"type":"Feature","properties":{"facility_id":"osm_node_12369417096","osm_id":"12369417096","name":"E","category":"transit","category_zh":"公共交通","amenity":null,"railway":"subway_entrance","source":"OpenStreetMap"},"geometry":{"type":"Point","coordinates":[120.1599476,30.2738328]}},{"type":"Feature","properties":{"facility_id":"osm_node_12963990224","osm_id":"12963990224","name":"未命名设施","category":"transit","category_zh":"公共交通","amenity":null,"railway":"subway_entrance","source":"OpenStreetMap"},"geometry":{"type":"Point","coordinates":[120.1716855,30.2881419]}},{"type":"Feature","properties":{"facility_id":"osm_node_12963990229","osm_id":"12963990229","name":"未命名设施","category":"transit","category_zh":"公共交通","amenity":null,"railway":"subway_entrance","source":"OpenStreetMap"},"geometry":{"type":"Point","coordinates":[120.1715675,30.2872269]}},{"type":"Feature","properties":{"facility_id":"osm_node_12963990230","osm_id":"12963990230","name":"未命名设施","category":"transit","category_zh":"公共交通","amenity":null,"railway":"subway_entrance","source":"OpenStreetMap"},"geometry":{"type":"Point","coordinates":[120.1715392,30.2871032]}},{"type":"Feature","properties":{"facility_id":"osm_node_12963990247","osm_id":"12963990247","name":"E","category":"transit","category_zh":"公共交通","amenity":null,"railway":"subway_entrance","source":"OpenStreetMap"},"geometry":{"type":"Point","coordinates":[120.1739438,30.2957358]}},{"type":"Feature","properties":{"facility_id":"osm_node_12963990263","osm_id":"12963990263","name":"苏荷汇联通口","category":"transit","category_zh":"公共交通","amenity":null,"railway":"subway_entrance","source":"OpenStreetMap"},"geometry":{"type":"Point","coordinates":[120.1715963,30.2880892]}},{"type":"Feature","properties":{"facility_id":"osm_node_13172464120","osm_id":"13172464120","name":"未命名设施","category":"transit","category_zh":"公共交通","amenity":null,"railway":"subway_entrance","source":"OpenStreetMap"},"geometry":{"type":"Point","coordinates":[120.153975,30.2923351]}},{"type":"Feature","properties":{"facility_id":"osm_node_13172464127","osm_id":"13172464127","name":"未命名设施","category":"transit","category_zh":"公共交通","amenity":null,"railway":"subway_entrance","source":"OpenStreetMap"},"geometry":{"type":"Point","coordinates":[120.154795,30.2905659]}},{"type":"Feature","properties":{"facility_id":"osm_node_13172464137","osm_id":"13172464137","name":"未命名设施","category":"transit","category_zh":"公共交通","amenity":null,"railway":"subway_entrance","source":"OpenStreetMap"},"geometry":{"type":"Point","coordinates":[120.1544815,30.2911201]}},{"type":"Feature","properties":{"facility_id":"osm_node_13172464143","osm_id":"13172464143","name":"未命名设施","category":"transit","category_zh":"公共交通","amenity":null,"railway":"subway_entrance","source":"OpenStreetMap"},"geometry":{"type":"Point","coordinates":[120.1551894,30.2906848]}},{"type":"Feature","properties":{"facility_id":"osm_node_13475207680","osm_id":"13475207680","name":"艮山门","category":"transit","category_zh":"公共交通","amenity":null,"railway":"station","source":"OpenStreetMap"},"geometry":{"type":"Point","coordinates":[120.1797999,30.284487]}},{"type":"Feature","properties":{"facility_id":"osm_node_13533546665","osm_id":"13533546665","name":"艮山门","category":"transit","category_zh":"公共交通","amenity":null,"railway":"station","source":"OpenStreetMap"},"geometry":{"type":"Point","coordinates":[120.1774875,30.2833534]}},{"type":"Feature","properties":{"facility_id":"osm_node_13533546666","osm_id":"13533546666","name":"打铁关","category":"transit","category_zh":"公共交通","amenity":null,"railway":"station","source":"OpenStreetMap"},"geometry":{"type":"Point","coordinates":[120.1737357,30.289237]}},{"type":"Feature","properties":{"facility_id":"osm_node_13533546667","osm_id":"13533546667","name":"和平广场","category":"transit","category_zh":"公共交通","amenity":null,"railway":"station","source":"OpenStreetMap"},"geometry":{"type":"Point","coordinates":[120.1678478,30.2956436]}},{"type":"Feature","properties":{"facility_id":"osm_node_4291125551","osm_id":"4291125551","name":"未命名设施","category":"transit","category_zh":"公共交通","amenity":null,"railway":"subway_entrance","source":"OpenStreetMap"},"geometry":{"type":"Point","coordinates":[120.1589578,30.2567431]}},{"type":"Feature","properties":{"facility_id":"osm_node_5024217873","osm_id":"5024217873","name":"A","category":"transit","category_zh":"公共交通","amenity":null,"railway":"subway_entrance","source":"OpenStreetMap"},"geometry":{"type":"Point","coordinates":[120.1592975,30.2650983]}},{"type":"Feature","properties":{"facility_id":"osm_node_5024217876","osm_id":"5024217876","name":"B","category":"transit","category_zh":"公共交通","amenity":null,"railway":"subway_entrance","source":"OpenStreetMap"},"geometry":{"type":"Point","coordinates":[120.1587322,30.2652704]}},{"type":"Feature","properties":{"facility_id":"osm_node_5024217879","osm_id":"5024217879","name":"D2","category":"transit","category_zh":"公共交通","amenity":null,"railway":"subway_entrance","source":"OpenStreetMap"},"geometry":{"type":"Point","coordinates":[120.1587292,30.2653835]}},{"type":"Feature","properties":{"facility_id":"osm_node_5024217884","osm_id":"5024217884","name":"D1","category":"transit","category_zh":"公共交通","amenity":null,"railway":"subway_entrance","source":"OpenStreetMap"},"geometry":{"type":"Point","coordinates":[120.158543,30.266465]}},{"type":"Feature","properties":{"facility_id":"osm_node_5024217886","osm_id":"5024217886","name":"D4","category":"transit","category_zh":"公共交通","amenity":null,"railway":"subway_entrance","source":"OpenStreetMap"},"geometry":{"type":"Point","coordinates":[120.1590886,30.2669565]}},{"type":"Feature","properties":{"facility_id":"osm_node_5024217895","osm_id":"5024217895","name":"F","category":"transit","category_zh":"公共交通","amenity":null,"railway":"subway_entrance","source":"OpenStreetMap"},"geometry":{"type":"Point","coordinates":[120.1579963,30.2658569]}},{"type":"Feature","properties":{"facility_id":"osm_node_5024217900","osm_id":"5024217900","name":"C1","category":"transit","category_zh":"公共交通","amenity":null,"railway":"subway_entrance","source":"OpenStreetMap"},"geometry":{"type":"Point","coordinates":[120.158408,30.2643303]}},{"type":"Feature","properties":{"facility_id":"osm_node_5024217904","osm_id":"5024217904","name":"C3","category":"transit","category_zh":"公共交通","amenity":null,"railway":"subway_entrance","source":"OpenStreetMap"},"geometry":{"type":"Point","coordinates":[120.1593386,30.262877]}},{"type":"Feature","properties":{"facility_id":"osm_node_5024217907","osm_id":"5024217907","name":"C5","category":"transit","category_zh":"公共交通","amenity":null,"railway":"subway_entrance","source":"OpenStreetMap"},"geometry":{"type":"Point","coordinates":[120.1593585,30.2622175]}},{"type":"Feature","properties":{"facility_id":"osm_node_5024217910","osm_id":"5024217910","name":"C6","category":"transit","category_zh":"公共交通","amenity":null,"railway":"subway_entrance","source":"OpenStreetMap"},"geometry":{"type":"Point","coordinates":[120.1587437,30.2621104]}},{"type":"Feature","properties":{"facility_id":"osm_node_5024217913","osm_id":"5024217913","name":"C4","category":"transit","category_zh":"公共交通","amenity":null,"railway":"subway_entrance","source":"OpenStreetMap"},"geometry":{"type":"Point","coordinates":[120.1586146,30.2633021]}},{"type":"Feature","properties":{"facility_id":"osm_node_5027668862","osm_id":"5027668862","name":"E","category":"transit","category_zh":"公共交通","amenity":null,"railway":"subway_entrance","source":"OpenStreetMap"},"geometry":{"type":"Point","coordinates":[120.1573405,30.2661949]}},{"type":"Feature","properties":{"facility_id":"osm_node_5027668911","osm_id":"5027668911","name":"C2","category":"transit","category_zh":"公共交通","amenity":null,"railway":"subway_entrance","source":"OpenStreetMap"},"geometry":{"type":"Point","coordinates":[120.1592909,30.2635447]}},{"type":"Feature","properties":{"facility_id":"osm_node_5027727106","osm_id":"5027727106","name":"未命名设施","category":"transit","category_zh":"公共交通","amenity":null,"railway":"subway_entrance","source":"OpenStreetMap"},"geometry":{"type":"Point","coordinates":[120.159066,30.2568421]}},{"type":"Feature","properties":{"facility_id":"osm_node_5027727107","osm_id":"5027727107","name":"未命名设施","category":"transit","category_zh":"公共交通","amenity":null,"railway":"subway_entrance","source":"OpenStreetMap"},"geometry":{"type":"Point","coordinates":[120.1589617,30.256596]}},{"type":"Feature","properties":{"facility_id":"osm_node_5027727108","osm_id":"5027727108","name":"C","category":"transit","category_zh":"公共交通","amenity":null,"railway":"subway_entrance","source":"OpenStreetMap"},"geometry":{"type":"Point","coordinates":[120.1590868,30.2564367]}},{"type":"Feature","properties":{"facility_id":"osm_node_5027727109","osm_id":"5027727109","name":"未命名设施","category":"transit","category_zh":"公共交通","amenity":null,"railway":"subway_entrance","source":"OpenStreetMap"},"geometry":{"type":"Point","coordinates":[120.1598734,30.2560984]}},{"type":"Feature","properties":{"facility_id":"osm_node_5027727110","osm_id":"5027727110","name":"未命名设施","category":"transit","category_zh":"公共交通","amenity":null,"railway":"subway_entrance","source":"OpenStreetMap"},"geometry":{"type":"Point","coordinates":[120.159986,30.2565334]}},{"type":"Feature","properties":{"facility_id":"osm_node_5027727111","osm_id":"5027727111","name":"未命名设施","category":"transit","category_zh":"公共交通","amenity":null,"railway":"subway_entrance","source":"OpenStreetMap"},"geometry":{"type":"Point","coordinates":[120.1600904,30.2565346]}},{"type":"Feature","properties":{"facility_id":"osm_node_5027727112","osm_id":"5027727112","name":"D","category":"transit","category_zh":"公共交通","amenity":null,"railway":"subway_entrance","source":"OpenStreetMap"},"geometry":{"type":"Point","coordinates":[120.1600356,30.2564585]}},{"type":"Feature","properties":{"facility_id":"osm_node_5027727233","osm_id":"5027727233","name":"A","category":"transit","category_zh":"公共交通","amenity":null,"railway":"subway_entrance","source":"OpenStreetMap"},"geometry":{"type":"Point","coordinates":[120.1597579,30.2576182]}},{"type":"Feature","properties":{"facility_id":"osm_node_5027727234","osm_id":"5027727234","name":"未命名设施","category":"transit","category_zh":"公共交通","amenity":null,"railway":"subway_entrance","source":"OpenStreetMap"},"geometry":{"type":"Point","coordinates":[120.1590937,30.2573799]}},{"type":"Feature","properties":{"facility_id":"osm_node_5027727235","osm_id":"5027727235","name":"未命名设施","category":"transit","category_zh":"公共交通","amenity":null,"railway":"subway_entrance","source":"OpenStreetMap"},"geometry":{"type":"Point","coordinates":[120.1590306,30.2576079]}},{"type":"Feature","properties":{"facility_id":"osm_node_5027727236","osm_id":"5027727236","name":"B","category":"transit","category_zh":"公共交通","amenity":null,"railway":"subway_entrance","source":"OpenStreetMap"},"geometry":{"type":"Point","coordinates":[120.1589439,30.2576952]}},{"type":"Feature","properties":{"facility_id":"osm_node_5040262775","osm_id":"5040262775","name":"B","category":"transit","category_zh":"公共交通","amenity":null,"railway":"subway_entrance","source":"OpenStreetMap"},"geometry":{"type":"Point","coordinates":[120.1606104,30.2825802]}},{"type":"Feature","properties":{"facility_id":"osm_node_5040262776","osm_id":"5040262776","name":"A","category":"transit","category_zh":"公共交通","amenity":null,"railway":"subway_entrance","source":"OpenStreetMap"},"geometry":{"type":"Point","coordinates":[120.1612299,30.2832241]}},{"type":"Feature","properties":{"facility_id":"osm_node_5040262777","osm_id":"5040262777","name":"C","category":"transit","category_zh":"公共交通","amenity":null,"railway":"subway_entrance","source":"OpenStreetMap"},"geometry":{"type":"Point","coordinates":[120.1607692,30.2808457]}},{"type":"Feature","properties":{"facility_id":"osm_node_5040262778","osm_id":"5040262778","name":"D","category":"transit","category_zh":"公共交通","amenity":null,"railway":"subway_entrance","source":"OpenStreetMap"},"geometry":{"type":"Point","coordinates":[120.1616719,30.281584]}},{"type":"Feature","properties":{"facility_id":"osm_node_5338411500","osm_id":"5338411500","name":"A","category":"transit","category_zh":"公共交通","amenity":null,"railway":"subway_entrance","source":"OpenStreetMap"},"geometry":{"type":"Point","coordinates":[120.125743,30.285348]}},{"type":"Feature","properties":{"facility_id":"osm_node_5338424143","osm_id":"5338424143","name":"B","category":"transit","category_zh":"公共交通","amenity":null,"railway":"subway_entrance","source":"OpenStreetMap"},"geometry":{"type":"Point","coordinates":[120.1340006,30.2853362]}},{"type":"Feature","properties":{"facility_id":"osm_node_5338424144","osm_id":"5338424144","name":"A","category":"transit","category_zh":"公共交通","amenity":null,"railway":"subway_entrance","source":"OpenStreetMap"},"geometry":{"type":"Point","coordinates":[120.1340308,30.2857156]}},{"type":"Feature","properties":{"facility_id":"osm_node_5338424165","osm_id":"5338424165","name":"C","category":"transit","category_zh":"公共交通","amenity":null,"railway":"subway_entrance","source":"OpenStreetMap"},"geometry":{"type":"Point","coordinates":[120.1362433,30.2852784]}},{"type":"Feature","properties":{"facility_id":"osm_node_5382459604","osm_id":"5382459604","name":"未命名设施","category":"transit","category_zh":"公共交通","amenity":null,"railway":"subway_entrance","source":"OpenStreetMap"},"geometry":{"type":"Point","coordinates":[120.1592657,30.2741354]}},{"type":"Feature","properties":{"facility_id":"osm_node_5894309152","osm_id":"5894309152","name":"D3","category":"transit","category_zh":"公共交通","amenity":null,"railway":"subway_entrance","source":"OpenStreetMap"},"geometry":{"type":"Point","coordinates":[120.1592288,30.2660572]}},{"type":"Feature","properties":{"facility_id":"osm_node_8943241545","osm_id":"8943241545","name":"B2","category":"transit","category_zh":"公共交通","amenity":null,"railway":"subway_entrance","source":"OpenStreetMap"},"geometry":{"type":"Point","coordinates":[120.1761782,30.2572212]}},{"type":"Feature","properties":{"facility_id":"osm_node_8943241548","osm_id":"8943241548","name":"B1","category":"transit","category_zh":"公共交通","amenity":null,"railway":"subway_entrance","source":"OpenStreetMap"},"geometry":{"type":"Point","coordinates":[120.1760977,30.2567034]}},{"type":"Feature","properties":{"facility_id":"osm_node_8943241554","osm_id":"8943241554","name":"E","category":"transit","category_zh":"公共交通","amenity":null,"railway":"subway_entrance","source":"OpenStreetMap"},"geometry":{"type":"Point","coordinates":[120.1759049,30.2549732]}},{"type":"Feature","properties":{"facility_id":"osm_node_8943241572","osm_id":"8943241572","name":"C","category":"transit","category_zh":"公共交通","amenity":null,"railway":"subway_entrance","source":"OpenStreetMap"},"geometry":{"type":"Point","coordinates":[120.1755649,30.2572075]}},{"type":"Feature","properties":{"facility_id":"osm_node_8943241668","osm_id":"8943241668","name":"未命名设施","category":"transit","category_zh":"公共交通","amenity":null,"railway":"subway_entrance","source":"OpenStreetMap"},"geometry":{"type":"Point","coordinates":[120.1508918,30.272815]}},{"type":"Feature","properties":{"facility_id":"osm_node_8943241670","osm_id":"8943241670","name":"未命名设施","category":"transit","category_zh":"公共交通","amenity":null,"railway":"subway_entrance","source":"OpenStreetMap"},"geometry":{"type":"Point","coordinates":[120.1507852,30.2726302]}},{"type":"Feature","properties":{"facility_id":"osm_node_8943241676","osm_id":"8943241676","name":"未命名设施","category":"transit","category_zh":"公共交通","amenity":null,"railway":"subway_entrance","source":"OpenStreetMap"},"geometry":{"type":"Point","coordinates":[120.1510619,30.2715137]}},{"type":"Feature","properties":{"facility_id":"osm_node_8943241684","osm_id":"8943241684","name":"未命名设施","category":"transit","category_zh":"公共交通","amenity":null,"railway":"subway_entrance","source":"OpenStreetMap"},"geometry":{"type":"Point","coordinates":[120.1508139,30.2707554]}},{"type":"Feature","properties":{"facility_id":"osm_node_8943241691","osm_id":"8943241691","name":"未命名设施","category":"transit","category_zh":"公共交通","amenity":null,"railway":"subway_entrance","source":"OpenStreetMap"},"geometry":{"type":"Point","coordinates":[120.1501149,30.272569]}},{"type":"Feature","properties":{"facility_id":"osm_node_8943241733","osm_id":"8943241733","name":"B1","category":"transit","category_zh":"公共交通","amenity":null,"railway":"subway_entrance","source":"OpenStreetMap"},"geometry":{"type":"Point","coordinates":[120.1668065,30.2676356]}},{"type":"Feature","properties":{"facility_id":"osm_node_8943241734","osm_id":"8943241734","name":"B2","category":"transit","category_zh":"公共交通","amenity":null,"railway":"subway_entrance","source":"OpenStreetMap"},"geometry":{"type":"Point","coordinates":[120.1667794,30.267178]}},{"type":"Feature","properties":{"facility_id":"osm_node_8943241742","osm_id":"8943241742","name":"D","category":"transit","category_zh":"公共交通","amenity":null,"railway":"subway_entrance","source":"OpenStreetMap"},"geometry":{"type":"Point","coordinates":[120.1684616,30.2667443]}},{"type":"Feature","properties":{"facility_id":"osm_node_8943241749","osm_id":"8943241749","name":"C","category":"transit","category_zh":"公共交通","amenity":null,"railway":"subway_entrance","source":"OpenStreetMap"},"geometry":{"type":"Point","coordinates":[120.1671491,30.2665402]}},{"type":"Feature","properties":{"facility_id":"osm_node_8943241807","osm_id":"8943241807","name":"E2(仅扶梯)","category":"transit","category_zh":"公共交通","amenity":null,"railway":"subway_entrance","source":"OpenStreetMap"},"geometry":{"type":"Point","coordinates":[120.1725124,30.2887747]}},{"type":"Feature","properties":{"facility_id":"osm_node_8943241812","osm_id":"8943241812","name":"E1(仅阶梯)","category":"transit","category_zh":"公共交通","amenity":null,"railway":"subway_entrance","source":"OpenStreetMap"},"geometry":{"type":"Point","coordinates":[120.1724637,30.2885827]}},{"type":"Feature","properties":{"facility_id":"osm_node_8943241821","osm_id":"8943241821","name":"未命名设施","category":"transit","category_zh":"公共交通","amenity":null,"railway":"subway_entrance","source":"OpenStreetMap"},"geometry":{"type":"Point","coordinates":[120.1729058,30.2880509]}},{"type":"Feature","properties":{"facility_id":"osm_node_8943241845","osm_id":"8943241845","name":"未命名设施","category":"transit","category_zh":"公共交通","amenity":null,"railway":"subway_entrance","source":"OpenStreetMap"},"geometry":{"type":"Point","coordinates":[120.1718217,30.2890076]}},{"type":"Feature","properties":{"facility_id":"osm_node_8950347336","osm_id":"8950347336","name":"C","category":"transit","category_zh":"公共交通","amenity":null,"railway":"subway_entrance","source":"OpenStreetMap"},"geometry":{"type":"Point","coordinates":[120.1740003,30.2971956]}},{"type":"Feature","properties":{"facility_id":"osm_node_8950347342","osm_id":"8950347342","name":"未命名设施","category":"transit","category_zh":"公共交通","amenity":null,"railway":"subway_entrance","source":"OpenStreetMap"},"geometry":{"type":"Point","coordinates":[120.1759088,30.267526]}},{"type":"Feature","properties":{"facility_id":"osm_node_8950347359","osm_id":"8950347359","name":"未命名设施","category":"transit","category_zh":"公共交通","amenity":null,"railway":"subway_entrance","source":"OpenStreetMap"},"geometry":{"type":"Point","coordinates":[120.1770436,30.2665972]}},{"type":"Feature","properties":{"facility_id":"osm_node_8950347375","osm_id":"8950347375","name":"未命名设施","category":"transit","category_zh":"公共交通","amenity":null,"railway":"subway_entrance","source":"OpenStreetMap"},"geometry":{"type":"Point","coordinates":[120.175821,30.2661426]}},{"type":"Feature","properties":{"facility_id":"osm_node_8950347381","osm_id":"8950347381","name":"未命名设施","category":"transit","category_zh":"公共交通","amenity":null,"railway":"subway_entrance","source":"OpenStreetMap"},"geometry":{"type":"Point","coordinates":[120.1752588,30.2666697]}},{"type":"Feature","properties":{"facility_id":"osm_node_9022049668","osm_id":"9022049668","name":"紧急出口","category":"transit","category_zh":"公共交通","amenity":null,"railway":"subway_entrance","source":"OpenStreetMap"},"geometry":{"type":"Point","coordinates":[120.1732152,30.2852428]}},{"type":"Feature","properties":{"facility_id":"osm_node_9271800536","osm_id":"9271800536","name":"D","category":"transit","category_zh":"公共交通","amenity":null,"railway":"subway_entrance","source":"OpenStreetMap"},"geometry":{"type":"Point","coordinates":[120.1755479,30.2557588]}},{"type":"Feature","properties":{"facility_id":"osm_node_9289349876","osm_id":"9289349876","name":"F","category":"transit","category_zh":"公共交通","amenity":null,"railway":"subway_entrance","source":"OpenStreetMap"},"geometry":{"type":"Point","coordinates":[120.1254505,30.2848233]}},{"type":"Feature","properties":{"facility_id":"osm_node_9312307593","osm_id":"9312307593","name":"未命名设施","category":"transit","category_zh":"公共交通","amenity":null,"railway":"subway_entrance","source":"OpenStreetMap"},"geometry":{"type":"Point","coordinates":[120.1535477,30.2938509]}},{"type":"Feature","properties":{"facility_id":"osm_node_9312307594","osm_id":"9312307594","name":"B口电梯","category":"transit","category_zh":"公共交通","amenity":null,"railway":"subway_entrance","source":"OpenStreetMap"},"geometry":{"type":"Point","coordinates":[120.1534241,30.2937874]}},{"type":"Feature","properties":{"facility_id":"osm_node_9312307600","osm_id":"9312307600","name":"未命名设施","category":"transit","category_zh":"公共交通","amenity":null,"railway":"subway_entrance","source":"OpenStreetMap"},"geometry":{"type":"Point","coordinates":[120.1544674,30.2924821]}},{"type":"Feature","properties":{"facility_id":"osm_node_9439620962","osm_id":"9439620962","name":"打铁关","category":"transit","category_zh":"公共交通","amenity":null,"railway":"station","source":"OpenStreetMap"},"geometry":{"type":"Point","coordinates":[120.172257,30.2885412]}},{"type":"Feature","properties":{"facility_id":"osm_node_9439620963","osm_id":"9439620963","name":"打铁关","category":"transit","category_zh":"公共交通","amenity":null,"railway":"station","source":"OpenStreetMap"},"geometry":{"type":"Point","coordinates":[120.1721802,30.2878388]}},{"type":"Feature","properties":{"facility_id":"osm_node_9439620964","osm_id":"9439620964","name":"西湖文化广场","category":"transit","category_zh":"公共交通","amenity":null,"railway":"station","source":"OpenStreetMap"},"geometry":{"type":"Point","coordinates":[120.1609282,30.2819552]}},{"type":"Feature","properties":{"facility_id":"osm_node_9442277342","osm_id":"9442277342","name":"龙翔桥","category":"transit","category_zh":"公共交通","amenity":null,"railway":"station","source":"OpenStreetMap"},"geometry":{"type":"Point","coordinates":[120.159392,30.2571141]}},{"type":"Feature","properties":{"facility_id":"osm_node_9442277343","osm_id":"9442277343","name":"凤起路","category":"transit","category_zh":"公共交通","amenity":null,"railway":"station","source":"OpenStreetMap"},"geometry":{"type":"Point","coordinates":[120.1590076,30.2654688]}},{"type":"Feature","properties":{"facility_id":"osm_node_9442277344","osm_id":"9442277344","name":"凤起路","category":"transit","category_zh":"公共交通","amenity":null,"railway":"station","source":"OpenStreetMap"},"geometry":{"type":"Point","coordinates":[120.1579432,30.2661075]}},{"type":"Feature","properties":{"facility_id":"osm_node_9446899389","osm_id":"9446899389","name":"万安桥","category":"transit","category_zh":"公共交通","amenity":null,"railway":"station","source":"OpenStreetMap"},"geometry":{"type":"Point","coordinates":[120.1759164,30.2565995]}},{"type":"Feature","properties":{"facility_id":"osm_node_9446899395","osm_id":"9446899395","name":"垂梯","category":"transit","category_zh":"公共交通","amenity":null,"railway":"subway_entrance","source":"OpenStreetMap"},"geometry":{"type":"Point","coordinates":[120.1756397,30.2557128]}},{"type":"Feature","properties":{"facility_id":"osm_node_9446899420","osm_id":"9446899420","name":"建国北路","category":"transit","category_zh":"公共交通","amenity":null,"railway":"station","source":"OpenStreetMap"},"geometry":{"type":"Point","coordinates":[120.1768944,30.2668314]}},{"type":"Feature","properties":{"facility_id":"osm_node_9446899421","osm_id":"9446899421","name":"建国北路","category":"transit","category_zh":"公共交通","amenity":null,"railway":"station","source":"OpenStreetMap"},"geometry":{"type":"Point","coordinates":[120.1760922,30.2668621]}},{"type":"Feature","properties":{"facility_id":"osm_node_9446899434","osm_id":"9446899434","name":"垂梯","category":"transit","category_zh":"公共交通","amenity":null,"railway":"subway_entrance","source":"OpenStreetMap"},"geometry":{"type":"Point","coordinates":[120.1758386,30.2672177]}},{"type":"Feature","properties":{"facility_id":"osm_node_9446899489","osm_id":"9446899489","name":"中河北路","category":"transit","category_zh":"公共交通","amenity":null,"railway":"station","source":"OpenStreetMap"},"geometry":{"type":"Point","coordinates":[120.1677349,30.2669589]}},{"type":"Feature","properties":{"facility_id":"osm_node_9446899504","osm_id":"9446899504","name":"垂梯","category":"transit","category_zh":"公共交通","amenity":null,"railway":"subway_entrance","source":"OpenStreetMap"},"geometry":{"type":"Point","coordinates":[120.1593151,30.2655464]}},{"type":"Feature","properties":{"facility_id":"osm_node_9446899509","osm_id":"9446899509","name":"垂梯","category":"transit","category_zh":"公共交通","amenity":null,"railway":"subway_entrance","source":"OpenStreetMap"},"geometry":{"type":"Point","coordinates":[120.1682087,30.2667742]}},{"type":"Feature","properties":{"facility_id":"osm_node_9494588668","osm_id":"9494588668","name":"武林门","category":"transit","category_zh":"公共交通","amenity":null,"railway":"station","source":"OpenStreetMap"},"geometry":{"type":"Point","coordinates":[120.1506043,30.2721085]}},{"type":"Feature","properties":{"facility_id":"osm_node_9494588673","osm_id":"9494588673","name":"垂梯","category":"transit","category_zh":"公共交通","amenity":null,"railway":"subway_entrance","source":"OpenStreetMap"},"geometry":{"type":"Point","coordinates":[120.1507333,30.2727844]}},{"type":"Feature","properties":{"facility_id":"osm_node_9497781964","osm_id":"9497781964","name":"下宁桥","category":"transit","category_zh":"公共交通","amenity":null,"railway":"station","source":"OpenStreetMap"},"geometry":{"type":"Point","coordinates":[120.1348377,30.2855683]}},{"type":"Feature","properties":{"facility_id":"osm_node_9497781965","osm_id":"9497781965","name":"垂梯","category":"transit","category_zh":"公共交通","amenity":null,"railway":"subway_entrance","source":"OpenStreetMap"},"geometry":{"type":"Point","coordinates":[120.1359541,30.2852954]}},{"type":"Feature","properties":{"facility_id":"osm_node_9497781977","osm_id":"9497781977","name":"垂梯","category":"transit","category_zh":"公共交通","amenity":null,"railway":"subway_entrance","source":"OpenStreetMap"},"geometry":{"type":"Point","coordinates":[120.1255576,30.2853822]}},{"type":"Feature","properties":{"facility_id":"osm_node_9712077861","osm_id":"9712077861","name":"沈塘桥","category":"transit","category_zh":"公共交通","amenity":null,"railway":"station","source":"OpenStreetMap"},"geometry":{"type":"Point","coordinates":[120.1451876,30.280759]}},{"type":"Feature","properties":{"facility_id":"osm_node_9819732045","osm_id":"9819732045","name":"黄龙体育中心","category":"transit","category_zh":"公共交通","amenity":null,"railway":"station","source":"OpenStreetMap"},"geometry":{"type":"Point","coordinates":[120.1251382,30.2704319]}},{"type":"Feature","properties":{"facility_id":"osm_node_9819777543","osm_id":"9819777543","name":"黄龙洞","category":"transit","category_zh":"公共交通","amenity":null,"railway":"station","source":"OpenStreetMap"},"geometry":{"type":"Point","coordinates":[120.1359399,30.2677132]}},{"type":"Feature","properties":{"facility_id":"osm_node_9826765985","osm_id":"9826765985","name":"潮王路","category":"transit","category_zh":"公共交通","amenity":null,"railway":"station","source":"OpenStreetMap"},"geometry":{"type":"Point","coordinates":[120.1544091,30.2917478]}},{"type":"Feature","properties":{"facility_id":"osm_node_9826798534","osm_id":"9826798534","name":"武林广场","category":"transit","category_zh":"公共交通","amenity":null,"railway":"station","source":"OpenStreetMap"},"geometry":{"type":"Point","coordinates":[120.1597122,30.2748095]}},{"type":"Feature","properties":{"facility_id":"osm_node_9833713406","osm_id":"9833713406","name":"未命名设施","category":"transit","category_zh":"公共交通","amenity":null,"railway":"subway_entrance","source":"OpenStreetMap"},"geometry":{"type":"Point","coordinates":[120.1256871,30.2710841]}},{"type":"Feature","properties":{"facility_id":"osm_node_9833713413","osm_id":"9833713413","name":"F","category":"transit","category_zh":"公共交通","amenity":null,"railway":"subway_entrance","source":"OpenStreetMap"},"geometry":{"type":"Point","coordinates":[120.1258398,30.2703019]}},{"type":"Feature","properties":{"facility_id":"osm_node_9833728067","osm_id":"9833728067","name":"B","category":"transit","category_zh":"公共交通","amenity":null,"railway":"subway_entrance","source":"OpenStreetMap"},"geometry":{"type":"Point","coordinates":[120.1341636,30.267445]}},{"type":"Feature","properties":{"facility_id":"osm_node_9833728071","osm_id":"9833728071","name":"垂梯","category":"transit","category_zh":"公共交通","amenity":null,"railway":"subway_entrance","source":"OpenStreetMap"},"geometry":{"type":"Point","coordinates":[120.1344075,30.2674671]}},{"type":"Feature","properties":{"facility_id":"osm_node_9833728081","osm_id":"9833728081","name":"D","category":"transit","category_zh":"公共交通","amenity":null,"railway":"subway_entrance","source":"OpenStreetMap"},"geometry":{"type":"Point","coordinates":[120.1368913,30.2678072]}},{"type":"Feature","properties":{"facility_id":"osm_node_9833728083","osm_id":"9833728083","name":"C","category":"transit","category_zh":"公共交通","amenity":null,"railway":"subway_entrance","source":"OpenStreetMap"},"geometry":{"type":"Point","coordinates":[120.1343338,30.2670743]}},{"type":"Feature","properties":{"facility_id":"osm_node_9833728119","osm_id":"9833728119","name":"武林门","category":"transit","category_zh":"公共交通","amenity":null,"railway":"station","source":"OpenStreetMap"},"geometry":{"type":"Point","coordinates":[120.1494091,30.2723278]}},{"type":"Feature","properties":{"facility_id":"osm_node_9852293362","osm_id":"9852293362","name":"A","category":"transit","category_zh":"公共交通","amenity":null,"railway":"subway_entrance","source":"OpenStreetMap"},"geometry":{"type":"Point","coordinates":[120.1745771,30.296372]}},{"type":"Feature","properties":{"facility_id":"osm_node_9852293374","osm_id":"9852293374","name":"杭氧","category":"transit","category_zh":"公共交通","amenity":null,"railway":"station","source":"OpenStreetMap"},"geometry":{"type":"Point","coordinates":[120.1742907,30.2963514]}},{"type":"Feature","properties":{"facility_id":"osm_node_9866117350","osm_id":"9866117350","name":"G","category":"transit","category_zh":"公共交通","amenity":null,"railway":"subway_entrance","source":"OpenStreetMap"},"geometry":{"type":"Point","coordinates":[120.1608214,30.283677]}},{"type":"Feature","properties":{"facility_id":"osm_node_9866117352","osm_id":"9866117352","name":"未命名设施","category":"transit","category_zh":"公共交通","amenity":null,"railway":"subway_entrance","source":"OpenStreetMap"},"geometry":{"type":"Point","coordinates":[120.1602517,30.2837659]}},{"type":"Feature","properties":{"facility_id":"osm_node_9866117355","osm_id":"9866117355","name":"H2","category":"transit","category_zh":"公共交通","amenity":null,"railway":"subway_entrance","source":"OpenStreetMap"},"geometry":{"type":"Point","coordinates":[120.1606692,30.2830269]}},{"type":"Feature","properties":{"facility_id":"osm_node_9866117359","osm_id":"9866117359","name":"未命名设施","category":"transit","category_zh":"公共交通","amenity":null,"railway":"subway_entrance","source":"OpenStreetMap"},"geometry":{"type":"Point","coordinates":[120.1626276,30.2838953]}},{"type":"Feature","properties":{"facility_id":"osm_node_9866117361","osm_id":"9866117361","name":"未命名设施","category":"transit","category_zh":"公共交通","amenity":null,"railway":"subway_entrance","source":"OpenStreetMap"},"geometry":{"type":"Point","coordinates":[120.162792,30.2834748]}},{"type":"Feature","properties":{"facility_id":"osm_node_9867223648","osm_id":"9867223648","name":"电梯","category":"transit","category_zh":"公共交通","amenity":null,"railway":"subway_entrance","source":"OpenStreetMap"},"geometry":{"type":"Point","coordinates":[120.1616788,30.2837827]}},{"type":"Feature","properties":{"facility_id":"osm_node_9867223657","osm_id":"9867223657","name":"未命名设施","category":"transit","category_zh":"公共交通","amenity":null,"railway":"subway_entrance","source":"OpenStreetMap"},"geometry":{"type":"Point","coordinates":[120.1438219,30.2804126]}},{"type":"Feature","properties":{"facility_id":"osm_node_9867278938","osm_id":"9867278938","name":"未命名设施","category":"transit","category_zh":"公共交通","amenity":null,"railway":"subway_entrance","source":"OpenStreetMap"},"geometry":{"type":"Point","coordinates":[120.1254843,30.279392]}},{"type":"Feature","properties":{"facility_id":"osm_node_9882880170","osm_id":"9882880170","name":"垂梯","category":"transit","category_zh":"公共交通","amenity":null,"railway":"subway_entrance","source":"OpenStreetMap"},"geometry":{"type":"Point","coordinates":[120.1757162,30.2742]}},{"type":"Feature","properties":{"facility_id":"osm_node_9882880171","osm_id":"9882880171","name":"未命名设施","category":"transit","category_zh":"公共交通","amenity":null,"railway":"subway_entrance","source":"OpenStreetMap"},"geometry":{"type":"Point","coordinates":[120.1758252,30.274256]}},{"type":"Feature","properties":{"facility_id":"osm_node_9882880183","osm_id":"9882880183","name":"未命名设施","category":"transit","category_zh":"公共交通","amenity":null,"railway":"subway_entrance","source":"OpenStreetMap"},"geometry":{"type":"Point","coordinates":[120.1748109,30.2747077]}},{"type":"Feature","properties":{"facility_id":"osm_node_9882880193","osm_id":"9882880193","name":"未命名设施","category":"transit","category_zh":"公共交通","amenity":null,"railway":"subway_entrance","source":"OpenStreetMap"},"geometry":{"type":"Point","coordinates":[120.1748507,30.2745641]}},{"type":"Feature","properties":{"facility_id":"osm_node_9882880196","osm_id":"9882880196","name":"未命名设施","category":"transit","category_zh":"公共交通","amenity":null,"railway":"subway_entrance","source":"OpenStreetMap"},"geometry":{"type":"Point","coordinates":[120.1749994,30.2741507]}},{"type":"Feature","properties":{"facility_id":"osm_node_9882880199","osm_id":"9882880199","name":"未命名设施","category":"transit","category_zh":"公共交通","amenity":null,"railway":"subway_entrance","source":"OpenStreetMap"},"geometry":{"type":"Point","coordinates":[120.1750781,30.2737701]}}]}