{"type":"FeatureCollection","name":"wuhan_analysis_grid","crs":{"type":"name","properties":{"name":"urn:ogc:def:crs:OGC:1.3:CRS84"}},"features":[{"type":"Feature","properties":{"cell_id":"wuhan_01_01","city_id":"wuhan","city_name_zh":"武汉","row":1,"column":1,"area_km2":0.4988,"center_lon":114.27925,"center_lat":30.614675,"distance_to_center_km":3.497,"facility_count":0,"transit_count":0,"healthcare_count":0,"education_count":0,"park_count":0,"service_diversity":0,"facility_density_km2":0.0,"road_segment_count":60,"road_length_m":4636.52,"road_density_km_km2":9.2955,"intersection_count":13,"elevation_m":28,"terrain_relief_m":5,"source_note":"OSM道路与设施聚合；SRTM高程采样；均为教学裁剪","accessibility_proxy":0.2098,"osm_intensity_class":"较低","core_zone":"外圈"},"geometry":{"type":"Polygon","coordinates":[[[114.2755,30.61155],[114.283,30.61155],[114.283,30.6178],[114.2755,30.6178],[114.2755,30.61155]]]}},{"type":"Feature","properties":{"cell_id":"wuhan_01_02","city_id":"wuhan","city_name_zh":"武汉","row":1,"column":2,"area_km2":0.4988,"center_lon":114.28675,"center_lat":30.614675,"distance_to_center_km":3.023,"facility_count":1,"transit_count":1,"healthcare_count":0,"education_count":0,"park_count":0,"service_diversity":1,"facility_density_km2":2.0048,"road_segment_count":40,"road_length_m":3932.52,"road_density_km_km2":7.8841,"intersection_count":10,"elevation_m":38,"terrain_relief_m":11,"source_note":"OSM道路与设施聚合；SRTM高程采样；均为教学裁剪","accessibility_proxy":0.2364,"osm_intensity_class":"较低","core_zone":"外圈"},"geometry":{"type":"Polygon","coordinates":[[[114.283,30.61155],[114.2905,30.61155],[114.2905,30.6178],[114.283,30.6178],[114.283,30.61155]]]}},{"type":"Feature","properties":{"cell_id":"wuhan_01_03","city_id":"wuhan","city_name_zh":"武汉","row":1,"column":3,"area_km2":0.4988,"center_lon":114.29425,"center_lat":30.614675,"distance_to_center_km":2.66,"facility_count":0,"transit_count":0,"healthcare_count":0,"education_count":0,"park_count":0,"service_diversity":0,"facility_density_km2":0.0,"road_segment_count":64,"road_length_m":3607.93,"road_density_km_km2":7.2333,"intersection_count":12,"elevation_m":28,"terrain_relief_m":1,"source_note":"OSM道路与设施聚合；SRTM高程采样；均为教学裁剪","accessibility_proxy":0.2056,"osm_intensity_class":"较低","core_zone":"内圈"},"geometry":{"type":"Polygon","coordinates":[[[114.2905,30.61155],[114.298,30.61155],[114.298,30.6178],[114.2905,30.6178],[114.2905,30.61155]]]}},{"type":"Feature","properties":{"cell_id":"wuhan_01_04","city_id":"wuhan","city_name_zh":"武汉","row":1,"column":4,"area_km2":0.4988,"center_lon":114.30175,"center_lat":30.614675,"distance_to_center_km":2.459,"facility_count":0,"transit_count":0,"healthcare_count":0,"education_count":0,"park_count":0,"service_diversity":0,"facility_density_km2":0.0,"road_segment_count":116,"road_length_m":6961.63,"road_density_km_km2":13.957,"intersection_count":20,"elevation_m":28,"terrain_relief_m":11,"source_note":"OSM道路与设施聚合；SRTM高程采样；均为教学裁剪","accessibility_proxy":0.3081,"osm_intensity_class":"较高","core_zone":"内圈"},"geometry":{"type":"Polygon","coordinates":[[[114.298,30.61155],[114.3055,30.61155],[114.3055,30.6178],[114.298,30.6178],[114.298,30.61155]]]}},{"type":"Feature","properties":{"cell_id":"wuhan_01_05","city_id":"wuhan","city_name_zh":"武汉","row":1,"column":5,"area_km2":0.4988,"center_lon":114.30925,"center_lat":30.614675,"distance_to_center_km":2.459,"facility_count":0,"transit_count":0,"healthcare_count":0,"education_count":0,"park_count":0,"service_diversity":0,"facility_density_km2":0.0,"road_segment_count":172,"road_length_m":7333.18,"road_density_km_km2":14.7019,"intersection_count":29,"elevation_m":29,"terrain_relief_m":11,"source_note":"OSM道路与设施聚合；SRTM高程采样；均为教学裁剪","accessibility_proxy":0.3186,"osm_intensity_class":"较高","core_zone":"内圈"},"geometry":{"type":"Polygon","coordinates":[[[114.3055,30.61155],[114.313,30.61155],[114.313,30.6178],[114.3055,30.6178],[114.3055,30.61155]]]}},{"type":"Feature","properties":{"cell_id":"wuhan_01_06","city_id":"wuhan","city_name_zh":"武汉","row":1,"column":6,"area_km2":0.4988,"center_lon":114.31675,"center_lat":30.614675,"distance_to_center_km":2.66,"facility_count":0,"transit_count":0,"healthcare_count":0,"education_count":0,"park_count":0,"service_diversity":0,"facility_density_km2":0.0,"road_segment_count":14,"road_length_m":417.71,"road_density_km_km2":0.8374,"intersection_count":2,"elevation_m":21,"terrain_relief_m":14,"source_note":"OSM道路与设施聚合；SRTM高程采样；均为教学裁剪","accessibility_proxy":0.1149,"osm_intensity_class":"低","core_zone":"内圈"},"geometry":{"type":"Polygon","coordinates":[[[114.313,30.61155],[114.3205,30.61155],[114.3205,30.6178],[114.313,30.6178],[114.313,30.61155]]]}},{"type":"Feature","properties":{"cell_id":"wuhan_01_07","city_id":"wuhan","city_name_zh":"武汉","row":1,"column":7,"area_km2":0.4988,"center_lon":114.32425,"center_lat":30.614675,"distance_to_center_km":3.023,"facility_count":0,"transit_count":0,"healthcare_count":0,"education_count":0,"park_count":0,"service_diversity":0,"facility_density_km2":0.0,"road_segment_count":0,"road_length_m":0.0,"road_density_km_km2":0.0,"intersection_count":0,"elevation_m":16,"terrain_relief_m":0,"source_note":"OSM道路与设施聚合；SRTM高程采样；均为教学裁剪","accessibility_proxy":0.0913,"osm_intensity_class":"低","core_zone":"外圈"},"geometry":{"type":"Polygon","coordinates":[[[114.3205,30.61155],[114.328,30.61155],[114.328,30.6178],[114.3205,30.6178],[114.3205,30.61155]]]}},{"type":"Feature","properties":{"cell_id":"wuhan_01_08","city_id":"wuhan","city_name_zh":"武汉","row":1,"column":8,"area_km2":0.4988,"center_lon":114.33175,"center_lat":30.614675,"distance_to_center_km":3.497,"facility_count":0,"transit_count":0,"healthcare_count":0,"education_count":0,"park_count":0,"service_diversity":0,"facility_density_km2":0.0,"road_segment_count":0,"road_length_m":0.0,"road_density_km_km2":0.0,"intersection_count":0,"elevation_m":16,"terrain_relief_m":10,"source_note":"OSM道路与设施聚合；SRTM高程采样；均为教学裁剪","accessibility_proxy":0.0779,"osm_intensity_class":"低","core_zone":"外圈"},"geometry":{"type":"Polygon","coordinates":[[[114.328,30.61155],[114.3355,30.61155],[114.3355,30.6178],[114.328,30.6178],[114.328,30.61155]]]}},{"type":"Feature","properties":{"cell_id":"wuhan_02_01","city_id":"wuhan","city_name_zh":"武汉","row":2,"column":1,"area_km2":0.4988,"center_lon":114.27925,"center_lat":30.608425,"distance_to_center_km":3.055,"facility_count":1,"transit_count":1,"healthcare_count":0,"education_count":0,"park_count":0,"service_diversity":1,"facility_density_km2":2.0047,"road_segment_count":118,"road_length_m":6163.12,"road_density_km_km2":12.3553,"intersection_count":20,"elevation_m":38,"terrain_relief_m":12,"source_note":"OSM道路与设施聚合；SRTM高程采样；均为教学裁剪","accessibility_proxy":0.2989,"osm_intensity_class":"较高","core_zone":"外圈"},"geometry":{"type":"Polygon","coordinates":[[[114.2755,30.6053],[114.283,30.6053],[114.283,30.61155],[114.2755,30.61155],[114.2755,30.6053]]]}},{"type":"Feature","properties":{"cell_id":"wuhan_02_02","city_id":"wuhan","city_name_zh":"武汉","row":2,"column":2,"area_km2":0.4988,"center_lon":114.28675,"center_lat":30.608425,"distance_to_center_km":2.498,"facility_count":0,"transit_count":0,"healthcare_count":0,"education_count":0,"park_count":0,"service_diversity":0,"facility_density_km2":0.0,"road_segment_count":62,"road_length_m":3234.98,"road_density_km_km2":6.4852,"intersection_count":7,"elevation_m":33,"terrain_relief_m":8,"source_note":"OSM道路与设施聚合；SRTM高程采样；均为教学裁剪","accessibility_proxy":0.2007,"osm_intensity_class":"较低","core_zone":"内圈"},"geometry":{"type":"Polygon","coordinates":[[[114.283,30.6053],[114.2905,30.6053],[114.2905,30.61155],[114.283,30.61155],[114.283,30.6053]]]}},{"type":"Feature","properties":{"cell_id":"wuhan_02_03","city_id":"wuhan","city_name_zh":"武汉","row":2,"column":3,"area_km2":0.4988,"center_lon":114.29425,"center_lat":30.608425,"distance_to_center_km":2.044,"facility_count":1,"transit_count":0,"healthcare_count":0,"education_count":1,"park_count":0,"service_diversity":1,"facility_density_km2":2.0047,"road_segment_count":94,"road_length_m":2581.89,"road_density_km_km2":5.176,"intersection_count":5,"elevation_m":31,"terrain_relief_m":11,"source_note":"OSM道路与设施聚合；SRTM高程采样；均为教学裁剪","accessibility_proxy":0.2332,"osm_intensity_class":"较低","core_zone":"内圈"},"geometry":{"type":"Polygon","coordinates":[[[114.2905,30.6053],[114.298,30.6053],[114.298,30.61155],[114.2905,30.61155],[114.2905,30.6053]]]}},{"type":"Feature","properties":{"cell_id":"wuhan_02_04","city_id":"wuhan","city_name_zh":"武汉","row":2,"column":4,"area_km2":0.4988,"center_lon":114.30175,"center_lat":30.608425,"distance_to_center_km":1.774,"facility_count":6,"transit_count":1,"healthcare_count":1,"education_count":4,"park_count":0,"service_diversity":3,"facility_density_km2":12.0283,"road_segment_count":107,"road_length_m":8239.25,"road_density_km_km2":16.5173,"intersection_count":42,"elevation_m":31,"terrain_relief_m":13,"source_note":"OSM道路与设施聚合；SRTM高程采样；均为教学裁剪","accessibility_proxy":0.5727,"osm_intensity_class":"高","core_zone":"内圈"},"geometry":{"type":"Polygon","coordinates":[[[114.298,30.6053],[114.3055,30.6053],[114.3055,30.61155],[114.298,30.61155],[114.298,30.6053]]]}},{"type":"Feature","properties":{"cell_id":"wuhan_02_05","city_id":"wuhan","city_name_zh":"武汉","row":2,"column":5,"area_km2":0.4988,"center_lon":114.30925,"center_lat":30.608425,"distance_to_center_km":1.774,"facility_count":0,"transit_count":0,"healthcare_count":0,"education_count":0,"park_count":0,"service_diversity":0,"facility_density_km2":0.0,"road_segment_count":142,"road_length_m":5083.03,"road_density_km_km2":10.19,"intersection_count":37,"elevation_m":31,"terrain_relief_m":15,"source_note":"OSM道路与设施聚合；SRTM高程采样；均为教学裁剪","accessibility_proxy":0.2829,"osm_intensity_class":"较高","core_zone":"内圈"},"geometry":{"type":"Polygon","coordinates":[[[114.3055,30.6053],[114.313,30.6053],[114.313,30.61155],[114.3055,30.61155],[114.3055,30.6053]]]}},{"type":"Feature","properties":{"cell_id":"wuhan_02_06","city_id":"wuhan","city_name_zh":"武汉","row":2,"column":6,"area_km2":0.4988,"center_lon":114.31675,"center_lat":30.608425,"distance_to_center_km":2.044,"facility_count":0,"transit_count":0,"healthcare_count":0,"education_count":0,"park_count":0,"service_diversity":0,"facility_density_km2":0.0,"road_segment_count":0,"road_length_m":0.0,"road_density_km_km2":0.0,"intersection_count":0,"elevation_m":16,"terrain_relief_m":9,"source_note":"OSM道路与设施聚合；SRTM高程采样；均为教学裁剪","accessibility_proxy":0.1265,"osm_intensity_class":"低","core_zone":"内圈"},"geometry":{"type":"Polygon","coordinates":[[[114.313,30.6053],[114.3205,30.6053],[114.3205,30.61155],[114.313,30.61155],[114.313,30.6053]]]}},{"type":"Feature","properties":{"cell_id":"wuhan_02_07","city_id":"wuhan","city_name_zh":"武汉","row":2,"column":7,"area_km2":0.4988,"center_lon":114.32425,"center_lat":30.608425,"distance_to_center_km":2.498,"facility_count":0,"transit_count":0,"healthcare_count":0,"education_count":0,"park_count":0,"service_diversity":0,"facility_density_km2":0.0,"road_segment_count":0,"road_length_m":0.0,"road_density_km_km2":0.0,"intersection_count":0,"elevation_m":16,"terrain_relief_m":8,"source_note":"OSM道路与设施聚合；SRTM高程采样；均为教学裁剪","accessibility_proxy":0.1087,"osm_intensity_class":"低","core_zone":"内圈"},"geometry":{"type":"Polygon","coordinates":[[[114.3205,30.6053],[114.328,30.6053],[114.328,30.61155],[114.3205,30.61155],[114.3205,30.6053]]]}},{"type":"Feature","properties":{"cell_id":"wuhan_02_08","city_id":"wuhan","city_name_zh":"武汉","row":2,"column":8,"area_km2":0.4988,"center_lon":114.33175,"center_lat":30.608425,"distance_to_center_km":3.055,"facility_count":0,"transit_count":0,"healthcare_count":0,"education_count":0,"park_count":0,"service_diversity":0,"facility_density_km2":0.0,"road_segment_count":74,"road_length_m":2810.18,"road_density_km_km2":5.6336,"intersection_count":2,"elevation_m":28,"terrain_relief_m":17,"source_note":"OSM道路与设施聚合；SRTM高程采样；均为教学裁剪","accessibility_proxy":0.1702,"osm_intensity_class":"低","core_zone":"外圈"},"geometry":{"type":"Polygon","coordinates":[[[114.328,30.6053],[114.3355,30.6053],[114.3355,30.61155],[114.328,30.61155],[114.328,30.6053]]]}},{"type":"Feature","properties":{"cell_id":"wuhan_03_01","city_id":"wuhan","city_name_zh":"武汉","row":3,"column":1,"area_km2":0.4989,"center_lon":114.27925,"center_lat":30.602175,"distance_to_center_km":2.72,"facility_count":0,"transit_count":0,"healthcare_count":0,"education_count":0,"park_count":0,"service_diversity":0,"facility_density_km2":0.0,"road_segment_count":64,"road_length_m":4070.19,"road_density_km_km2":8.159,"intersection_count":16,"elevation_m":29,"terrain_relief_m":13,"source_note":"OSM道路与设施聚合；SRTM高程采样；均为教学裁剪","accessibility_proxy":0.2167,"osm_intensity_class":"较低","core_zone":"内圈"},"geometry":{"type":"Polygon","coordinates":[[[114.2755,30.59905],[114.283,30.59905],[114.283,30.6053],[114.2755,30.6053],[114.2755,30.59905]]]}},{"type":"Feature","properties":{"cell_id":"wuhan_03_02","city_id":"wuhan","city_name_zh":"武汉","row":3,"column":2,"area_km2":0.4989,"center_lon":114.28675,"center_lat":30.602175,"distance_to_center_km":2.075,"facility_count":1,"transit_count":1,"healthcare_count":0,"education_count":0,"park_count":0,"service_diversity":1,"facility_density_km2":2.0046,"road_segment_count":73,"road_length_m":4684.27,"road_density_km_km2":9.39,"intersection_count":12,"elevation_m":29,"terrain_relief_m":8,"source_note":"OSM道路与设施聚合；SRTM高程采样；均为教学裁剪","accessibility_proxy":0.2917,"osm_intensity_class":"较高","core_zone":"内圈"},"geometry":{"type":"Polygon","coordinates":[[[114.283,30.59905],[114.2905,30.59905],[114.2905,30.6053],[114.283,30.6053],[114.283,30.59905]]]}},{"type":"Feature","properties":{"cell_id":"wuhan_03_03","city_id":"wuhan","city_name_zh":"武汉","row":3,"column":3,"area_km2":0.4989,"center_lon":114.29425,"center_lat":30.602175,"distance_to_center_km":1.499,"facility_count":1,"transit_count":1,"healthcare_count":0,"education_count":0,"park_count":0,"service_diversity":1,"facility_density_km2":2.0046,"road_segment_count":176,"road_length_m":9999.56,"road_density_km_km2":20.045,"intersection_count":28,"elevation_m":30,"terrain_relief_m":8,"source_note":"OSM道路与设施聚合；SRTM高程采样；均为教学裁剪","accessibility_proxy":0.4693,"osm_intensity_class":"高","core_zone":"核心"},"geometry":{"type":"Polygon","coordinates":[[[114.2905,30.59905],[114.298,30.59905],[114.298,30.6053],[114.2905,30.6053],[114.2905,30.59905]]]}},{"type":"Feature","properties":{"cell_id":"wuhan_03_04","city_id":"wuhan","city_name_zh":"武汉","row":3,"column":4,"area_km2":0.4989,"center_lon":114.30175,"center_lat":30.602175,"distance_to_center_km":1.103,"facility_count":1,"transit_count":0,"healthcare_count":0,"education_count":1,"park_count":0,"service_diversity":1,"facility_density_km2":2.0046,"road_segment_count":102,"road_length_m":8232.55,"road_density_km_km2":16.5028,"intersection_count":32,"elevation_m":35,"terrain_relief_m":15,"source_note":"OSM道路与设施聚合；SRTM高程采样；均为教学裁剪","accessibility_proxy":0.4405,"osm_intensity_class":"高","core_zone":"核心"},"geometry":{"type":"Polygon","coordinates":[[[114.298,30.59905],[114.3055,30.59905],[114.3055,30.6053],[114.298,30.6053],[114.298,30.59905]]]}},{"type":"Feature","properties":{"cell_id":"wuhan_03_05","city_id":"wuhan","city_name_zh":"武汉","row":3,"column":5,"area_km2":0.4989,"center_lon":114.30925,"center_lat":30.602175,"distance_to_center_km":1.103,"facility_count":0,"transit_count":0,"healthcare_count":0,"education_count":0,"park_count":0,"service_diversity":0,"facility_density_km2":0.0,"road_segment_count":64,"road_length_m":2207.93,"road_density_km_km2":4.426,"intersection_count":22,"elevation_m":21,"terrain_relief_m":16,"source_note":"OSM道路与设施聚合；SRTM高程采样；均为教学裁剪","accessibility_proxy":0.2359,"osm_intensity_class":"较低","core_zone":"核心"},"geometry":{"type":"Polygon","coordinates":[[[114.3055,30.59905],[114.313,30.59905],[114.313,30.6053],[114.3055,30.6053],[114.3055,30.59905]]]}},{"type":"Feature","properties":{"cell_id":"wuhan_03_06","city_id":"wuhan","city_name_zh":"武汉","row":3,"column":6,"area_km2":0.4989,"center_lon":114.31675,"center_lat":30.602175,"distance_to_center_km":1.499,"facility_count":0,"transit_count":0,"healthcare_count":0,"education_count":0,"park_count":0,"service_diversity":0,"facility_density_km2":0.0,"road_segment_count":0,"road_length_m":0.0,"road_density_km_km2":0.0,"intersection_count":0,"elevation_m":16,"terrain_relief_m":1,"source_note":"OSM道路与设施聚合；SRTM高程采样；均为教学裁剪","accessibility_proxy":0.1517,"osm_intensity_class":"低","core_zone":"核心"},"geometry":{"type":"Polygon","coordinates":[[[114.313,30.59905],[114.3205,30.59905],[114.3205,30.6053],[114.313,30.6053],[114.313,30.59905]]]}},{"type":"Feature","properties":{"cell_id":"wuhan_03_07","city_id":"wuhan","city_name_zh":"武汉","row":3,"column":7,"area_km2":0.4989,"center_lon":114.32425,"center_lat":30.602175,"distance_to_center_km":2.075,"facility_count":0,"transit_count":0,"healthcare_count":0,"education_count":0,"park_count":0,"service_diversity":0,"facility_density_km2":0.0,"road_segment_count":15,"road_length_m":1187.22,"road_density_km_km2":2.3799,"intersection_count":2,"elevation_m":18,"terrain_relief_m":17,"source_note":"OSM道路与设施聚合；SRTM高程采样；均为教学裁剪","accessibility_proxy":0.1589,"osm_intensity_class":"低","core_zone":"内圈"},"geometry":{"type":"Polygon","coordinates":[[[114.3205,30.59905],[114.328,30.59905],[114.328,30.6053],[114.3205,30.6053],[114.3205,30.59905]]]}},{"type":"Feature","properties":{"cell_id":"wuhan_03_08","city_id":"wuhan","city_name_zh":"武汉","row":3,"column":8,"area_km2":0.4989,"center_lon":114.33175,"center_lat":30.602175,"distance_to_center_km":2.72,"facility_count":0,"transit_count":0,"healthcare_count":0,"education_count":0,"park_count":0,"service_diversity":0,"facility_density_km2":0.0,"road_segment_count":51,"road_length_m":3816.17,"road_density_km_km2":7.6498,"intersection_count":9,"elevation_m":31,"terrain_relief_m":9,"source_note":"OSM道路与设施聚合；SRTM高程采样；均为教学裁剪","accessibility_proxy":0.2095,"osm_intensity_class":"较低","core_zone":"内圈"},"geometry":{"type":"Polygon","coordinates":[[[114.328,30.59905],[114.3355,30.59905],[114.3355,30.6053],[114.328,30.6053],[114.328,30.59905]]]}},{"type":"Feature","properties":{"cell_id":"wuhan_04_01","city_id":"wuhan","city_name_zh":"武汉","row":4,"column":1,"area_km2":0.4989,"center_lon":114.27925,"center_lat":30.595925,"distance_to_center_km":2.536,"facility_count":0,"transit_count":0,"healthcare_count":0,"education_count":0,"park_count":0,"service_diversity":0,"facility_density_km2":0.0,"road_segment_count":96,"road_length_m":4494.72,"road_density_km_km2":9.0095,"intersection_count":22,"elevation_m":25,"terrain_relief_m":14,"source_note":"OSM道路与设施聚合；SRTM高程采样；均为教学裁剪","accessibility_proxy":0.2351,"osm_intensity_class":"较低","core_zone":"内圈"},"geometry":{"type":"Polygon","coordinates":[[[114.2755,30.5928],[114.283,30.5928],[114.283,30.59905],[114.2755,30.59905],[114.2755,30.5928]]]}},{"type":"Feature","properties":{"cell_id":"wuhan_04_02","city_id":"wuhan","city_name_zh":"武汉","row":4,"column":2,"area_km2":0.4989,"center_lon":114.28675,"center_lat":30.595925,"distance_to_center_km":1.828,"facility_count":1,"transit_count":1,"healthcare_count":0,"education_count":0,"park_count":0,"service_diversity":1,"facility_density_km2":2.0045,"road_segment_count":199,"road_length_m":9857.61,"road_density_km_km2":19.7591,"intersection_count":38,"elevation_m":34,"terrain_relief_m":6,"source_note":"OSM道路与设施聚合；SRTM高程采样；均为教学裁剪","accessibility_proxy":0.4495,"osm_intensity_class":"高","core_zone":"内圈"},"geometry":{"type":"Polygon","coordinates":[[[114.283,30.5928],[114.2905,30.5928],[114.2905,30.59905],[114.283,30.59905],[114.283,30.5928]]]}},{"type":"Feature","properties":{"cell_id":"wuhan_04_03","city_id":"wuhan","city_name_zh":"武汉","row":4,"column":3,"area_km2":0.4989,"center_lon":114.29425,"center_lat":30.595925,"distance_to_center_km":1.131,"facility_count":2,"transit_count":0,"healthcare_count":0,"education_count":1,"park_count":0,"service_diversity":2,"facility_density_km2":4.0089,"road_segment_count":170,"road_length_m":8213.24,"road_density_km_km2":16.4631,"intersection_count":33,"elevation_m":32,"terrain_relief_m":9,"source_note":"OSM道路与设施聚合；SRTM高程采样；均为教学裁剪","accessibility_proxy":0.4716,"osm_intensity_class":"高","core_zone":"核心"},"geometry":{"type":"Polygon","coordinates":[[[114.2905,30.5928],[114.298,30.5928],[114.298,30.59905],[114.2905,30.59905],[114.2905,30.5928]]]}},{"type":"Feature","properties":{"cell_id":"wuhan_04_04","city_id":"wuhan","city_name_zh":"武汉","row":4,"column":4,"area_km2":0.4989,"center_lon":114.30175,"center_lat":30.595925,"distance_to_center_km":0.5,"facility_count":1,"transit_count":0,"healthcare_count":0,"education_count":1,"park_count":0,"service_diversity":1,"facility_density_km2":2.0045,"road_segment_count":122,"road_length_m":6989.54,"road_density_km_km2":14.0102,"intersection_count":34,"elevation_m":29,"terrain_relief_m":22,"source_note":"OSM道路与设施聚合；SRTM高程采样；均为教学裁剪","accessibility_proxy":0.4437,"osm_intensity_class":"高","core_zone":"核心"},"geometry":{"type":"Polygon","coordinates":[[[114.298,30.5928],[114.3055,30.5928],[114.3055,30.59905],[114.298,30.59905],[114.298,30.5928]]]}},{"type":"Feature","properties":{"cell_id":"wuhan_04_05","city_id":"wuhan","city_name_zh":"武汉","row":4,"column":5,"area_km2":0.4989,"center_lon":114.30925,"center_lat":30.595925,"distance_to_center_km":0.5,"facility_count":0,"transit_count":0,"healthcare_count":0,"education_count":0,"park_count":0,"service_diversity":0,"facility_density_km2":0.0,"road_segment_count":2,"road_length_m":2331.09,"road_density_km_km2":4.6726,"intersection_count":1,"elevation_m":16,"terrain_relief_m":7,"source_note":"OSM道路与设施聚合；SRTM高程采样；均为教学裁剪","accessibility_proxy":0.2779,"osm_intensity_class":"较高","core_zone":"核心"},"geometry":{"type":"Polygon","coordinates":[[[114.3055,30.5928],[114.313,30.5928],[114.313,30.59905],[114.3055,30.59905],[114.3055,30.5928]]]}},{"type":"Feature","properties":{"cell_id":"wuhan_04_06","city_id":"wuhan","city_name_zh":"武汉","row":4,"column":6,"area_km2":0.4989,"center_lon":114.31675,"center_lat":30.595925,"distance_to_center_km":1.131,"facility_count":0,"transit_count":0,"healthcare_count":0,"education_count":0,"park_count":0,"service_diversity":0,"facility_density_km2":0.0,"road_segment_count":13,"road_length_m":602.29,"road_density_km_km2":1.2073,"intersection_count":0,"elevation_m":16,"terrain_relief_m":12,"source_note":"OSM道路与设施聚合；SRTM高程采样；均为教学裁剪","accessibility_proxy":0.1886,"osm_intensity_class":"低","core_zone":"核心"},"geometry":{"type":"Polygon","coordinates":[[[114.313,30.5928],[114.3205,30.5928],[114.3205,30.59905],[114.313,30.59905],[114.313,30.5928]]]}},{"type":"Feature","properties":{"cell_id":"wuhan_04_07","city_id":"wuhan","city_name_zh":"武汉","row":4,"column":7,"area_km2":0.4989,"center_lon":114.32425,"center_lat":30.595925,"distance_to_center_km":1.828,"facility_count":0,"transit_count":0,"healthcare_count":0,"education_count":0,"park_count":0,"service_diversity":0,"facility_density_km2":0.0,"road_segment_count":37,"road_length_m":3504.83,"road_density_km_km2":7.0253,"intersection_count":5,"elevation_m":29,"terrain_relief_m":16,"source_note":"OSM道路与设施聚合；SRTM高程采样；均为教学裁剪","accessibility_proxy":0.2356,"osm_intensity_class":"较低","core_zone":"内圈"},"geometry":{"type":"Polygon","coordinates":[[[114.3205,30.5928],[114.328,30.5928],[114.328,30.59905],[114.3205,30.59905],[114.3205,30.5928]]]}},{"type":"Feature","properties":{"cell_id":"wuhan_04_08","city_id":"wuhan","city_name_zh":"武汉","row":4,"column":8,"area_km2":0.4989,"center_lon":114.33175,"center_lat":30.595925,"distance_to_center_km":2.536,"facility_count":1,"transit_count":1,"healthcare_count":0,"education_count":0,"park_count":0,"service_diversity":1,"facility_density_km2":2.0045,"road_segment_count":94,"road_length_m":4499.41,"road_density_km_km2":9.0189,"intersection_count":18,"elevation_m":28,"terrain_relief_m":7,"source_note":"OSM道路与设施聚合；SRTM高程采样；均为教学裁剪","accessibility_proxy":0.2686,"osm_intensity_class":"较低","core_zone":"内圈"},"geometry":{"type":"Polygon","coordinates":[[[114.328,30.5928],[114.3355,30.5928],[114.3355,30.59905],[114.328,30.59905],[114.328,30.5928]]]}},{"type":"Feature","properties":{"cell_id":"wuhan_05_01","city_id":"wuhan","city_name_zh":"武汉","row":5,"column":1,"area_km2":0.4989,"center_lon":114.27925,"center_lat":30.589675,"distance_to_center_km":2.537,"facility_count":2,"transit_count":1,"healthcare_count":0,"education_count":1,"park_count":0,"service_diversity":2,"facility_density_km2":4.0087,"road_segment_count":172,"road_length_m":7854.1,"road_density_km_km2":15.7422,"intersection_count":35,"elevation_m":38,"terrain_relief_m":10,"source_note":"OSM道路与设施聚合；SRTM高程采样；均为教学裁剪","accessibility_proxy":0.3972,"osm_intensity_class":"高","core_zone":"内圈"},"geometry":{"type":"Polygon","coordinates":[[[114.2755,30.58655],[114.283,30.58655],[114.283,30.5928],[114.2755,30.5928],[114.2755,30.58655]]]}},{"type":"Feature","properties":{"cell_id":"wuhan_05_02","city_id":"wuhan","city_name_zh":"武汉","row":5,"column":2,"area_km2":0.4989,"center_lon":114.28675,"center_lat":30.589675,"distance_to_center_km":1.828,"facility_count":2,"transit_count":0,"healthcare_count":1,"education_count":1,"park_count":0,"service_diversity":2,"facility_density_km2":4.0087,"road_segment_count":243,"road_length_m":12313.0,"road_density_km_km2":24.6793,"intersection_count":77,"elevation_m":39,"terrain_relief_m":10,"source_note":"OSM道路与设施聚合；SRTM高程采样；均为教学裁剪","accessibility_proxy":0.5526,"osm_intensity_class":"高","core_zone":"内圈"},"geometry":{"type":"Polygon","coordinates":[[[114.283,30.58655],[114.2905,30.58655],[114.2905,30.5928],[114.283,30.5928],[114.283,30.58655]]]}},{"type":"Feature","properties":{"cell_id":"wuhan_05_03","city_id":"wuhan","city_name_zh":"武汉","row":5,"column":3,"area_km2":0.4989,"center_lon":114.29425,"center_lat":30.589675,"distance_to_center_km":1.132,"facility_count":0,"transit_count":0,"healthcare_count":0,"education_count":0,"park_count":0,"service_diversity":0,"facility_density_km2":0.0,"road_segment_count":120,"road_length_m":7473.56,"road_density_km_km2":14.9794,"intersection_count":37,"elevation_m":36,"terrain_relief_m":12,"source_note":"OSM道路与设施聚合；SRTM高程采样；均为教学裁剪","accessibility_proxy":0.3839,"osm_intensity_class":"高","core_zone":"核心"},"geometry":{"type":"Polygon","coordinates":[[[114.2905,30.58655],[114.298,30.58655],[114.298,30.5928],[114.2905,30.5928],[114.2905,30.58655]]]}},{"type":"Feature","properties":{"cell_id":"wuhan_05_04","city_id":"wuhan","city_name_zh":"武汉","row":5,"column":4,"area_km2":0.4989,"center_lon":114.30175,"center_lat":30.589675,"distance_to_center_km":0.5,"facility_count":0,"transit_count":0,"healthcare_count":0,"education_count":0,"park_count":0,"service_diversity":0,"facility_density_km2":0.0,"road_segment_count":81,"road_length_m":2671.47,"road_density_km_km2":5.3545,"intersection_count":17,"elevation_m":14,"terrain_relief_m":25,"source_note":"OSM道路与设施聚合；SRTM高程采样；均为教学裁剪","accessibility_proxy":0.2876,"osm_intensity_class":"较高","core_zone":"核心"},"geometry":{"type":"Polygon","coordinates":[[[114.298,30.58655],[114.3055,30.58655],[114.3055,30.5928],[114.298,30.5928],[114.298,30.58655]]]}},{"type":"Feature","properties":{"cell_id":"wuhan_05_05","city_id":"wuhan","city_name_zh":"武汉","row":5,"column":5,"area_km2":0.4989,"center_lon":114.30925,"center_lat":30.589675,"distance_to_center_km":0.5,"facility_count":0,"transit_count":0,"healthcare_count":0,"education_count":0,"park_count":0,"service_diversity":0,"facility_density_km2":0.0,"road_segment_count":0,"road_length_m":0.0,"road_density_km_km2":0.0,"intersection_count":0,"elevation_m":16,"terrain_relief_m":1,"source_note":"OSM道路与设施聚合；SRTM高程采样；均为教学裁剪","accessibility_proxy":0.2116,"osm_intensity_class":"较低","core_zone":"核心"},"geometry":{"type":"Polygon","coordinates":[[[114.3055,30.58655],[114.313,30.58655],[114.313,30.5928],[114.3055,30.5928],[114.3055,30.58655]]]}},{"type":"Feature","properties":{"cell_id":"wuhan_05_06","city_id":"wuhan","city_name_zh":"武汉","row":5,"column":6,"area_km2":0.4989,"center_lon":114.31675,"center_lat":30.589675,"distance_to_center_km":1.132,"facility_count":0,"transit_count":0,"healthcare_count":0,"education_count":0,"park_count":0,"service_diversity":0,"facility_density_km2":0.0,"road_segment_count":36,"road_length_m":3375.08,"road_density_km_km2":6.7648,"intersection_count":12,"elevation_m":22,"terrain_relief_m":16,"source_note":"OSM道路与设施聚合；SRTM高程采样；均为教学裁剪","accessibility_proxy":0.2674,"osm_intensity_class":"较低","core_zone":"核心"},"geometry":{"type":"Polygon","coordinates":[[[114.313,30.58655],[114.3205,30.58655],[114.3205,30.5928],[114.313,30.5928],[114.313,30.58655]]]}},{"type":"Feature","properties":{"cell_id":"wuhan_05_07","city_id":"wuhan","city_name_zh":"武汉","row":5,"column":7,"area_km2":0.4989,"center_lon":114.32425,"center_lat":30.589675,"distance_to_center_km":1.828,"facility_count":0,"transit_count":0,"healthcare_count":0,"education_count":0,"park_count":0,"service_diversity":0,"facility_density_km2":0.0,"road_segment_count":129,"road_length_m":8311.26,"road_density_km_km2":16.6585,"intersection_count":26,"elevation_m":27,"terrain_relief_m":5,"source_note":"OSM道路与设施聚合；SRTM高程采样；均为教学裁剪","accessibility_proxy":0.3722,"osm_intensity_class":"较高","core_zone":"内圈"},"geometry":{"type":"Polygon","coordinates":[[[114.3205,30.58655],[114.328,30.58655],[114.328,30.5928],[114.3205,30.5928],[114.3205,30.58655]]]}},{"type":"Feature","properties":{"cell_id":"wuhan_05_08","city_id":"wuhan","city_name_zh":"武汉","row":5,"column":8,"area_km2":0.4989,"center_lon":114.33175,"center_lat":30.589675,"distance_to_center_km":2.537,"facility_count":0,"transit_count":0,"healthcare_count":0,"education_count":0,"park_count":0,"service_diversity":0,"facility_density_km2":0.0,"road_segment_count":108,"road_length_m":7047.87,"road_density_km_km2":14.1262,"intersection_count":20,"elevation_m":27,"terrain_relief_m":3,"source_note":"OSM道路与设施聚合；SRTM高程采样；均为教学裁剪","accessibility_proxy":0.3077,"osm_intensity_class":"较高","core_zone":"内圈"},"geometry":{"type":"Polygon","coordinates":[[[114.328,30.58655],[114.3355,30.58655],[114.3355,30.5928],[114.328,30.5928],[114.328,30.58655]]]}},{"type":"Feature","properties":{"cell_id":"wuhan_06_01","city_id":"wuhan","city_name_zh":"武汉","row":6,"column":1,"area_km2":0.499,"center_lon":114.27925,"center_lat":30.583425,"distance_to_center_km":2.72,"facility_count":2,"transit_count":0,"healthcare_count":1,"education_count":1,"park_count":0,"service_diversity":2,"facility_density_km2":4.0084,"road_segment_count":91,"road_length_m":6424.06,"road_density_km_km2":12.8751,"intersection_count":26,"elevation_m":45,"terrain_relief_m":17,"source_note":"OSM道路与设施聚合；SRTM高程采样；均为教学裁剪","accessibility_proxy":0.3502,"osm_intensity_class":"较高","core_zone":"内圈"},"geometry":{"type":"Polygon","coordinates":[[[114.2755,30.5803],[114.283,30.5803],[114.283,30.58655],[114.2755,30.58655],[114.2755,30.5803]]]}},{"type":"Feature","properties":{"cell_id":"wuhan_06_02","city_id":"wuhan","city_name_zh":"武汉","row":6,"column":2,"area_km2":0.499,"center_lon":114.28675,"center_lat":30.583425,"distance_to_center_km":2.076,"facility_count":3,"transit_count":1,"healthcare_count":1,"education_count":1,"park_count":0,"service_diversity":3,"facility_density_km2":6.0126,"road_segment_count":209,"road_length_m":9470.97,"road_density_km_km2":18.9817,"intersection_count":65,"elevation_m":32,"terrain_relief_m":14,"source_note":"OSM道路与设施聚合；SRTM高程采样；均为教学裁剪","accessibility_proxy":0.4943,"osm_intensity_class":"高","core_zone":"内圈"},"geometry":{"type":"Polygon","coordinates":[[[114.283,30.5803],[114.2905,30.5803],[114.2905,30.58655],[114.283,30.58655],[114.283,30.5803]]]}},{"type":"Feature","properties":{"cell_id":"wuhan_06_03","city_id":"wuhan","city_name_zh":"武汉","row":6,"column":3,"area_km2":0.499,"center_lon":114.29425,"center_lat":30.583425,"distance_to_center_km":1.499,"facility_count":0,"transit_count":0,"healthcare_count":0,"education_count":0,"park_count":0,"service_diversity":0,"facility_density_km2":0.0,"road_segment_count":260,"road_length_m":8286.08,"road_density_km_km2":16.6069,"intersection_count":32,"elevation_m":33,"terrain_relief_m":29,"source_note":"OSM道路与设施聚合；SRTM高程采样；均为教学裁剪","accessibility_proxy":0.3872,"osm_intensity_class":"高","core_zone":"核心"},"geometry":{"type":"Polygon","coordinates":[[[114.2905,30.5803],[114.298,30.5803],[114.298,30.58655],[114.2905,30.58655],[114.2905,30.5803]]]}},{"type":"Feature","properties":{"cell_id":"wuhan_06_04","city_id":"wuhan","city_name_zh":"武汉","row":6,"column":4,"area_km2":0.499,"center_lon":114.30175,"center_lat":30.583425,"distance_to_center_km":1.103,"facility_count":0,"transit_count":0,"healthcare_count":0,"education_count":0,"park_count":0,"service_diversity":0,"facility_density_km2":0.0,"road_segment_count":3,"road_length_m":2831.65,"road_density_km_km2":5.6752,"intersection_count":0,"elevation_m":16,"terrain_relief_m":11,"source_note":"OSM道路与设施聚合；SRTM高程采样；均为教学裁剪","accessibility_proxy":0.2536,"osm_intensity_class":"较低","core_zone":"核心"},"geometry":{"type":"Polygon","coordinates":[[[114.298,30.5803],[114.3055,30.5803],[114.3055,30.58655],[114.298,30.58655],[114.298,30.5803]]]}},{"type":"Feature","properties":{"cell_id":"wuhan_06_05","city_id":"wuhan","city_name_zh":"武汉","row":6,"column":5,"area_km2":0.499,"center_lon":114.30925,"center_lat":30.583425,"distance_to_center_km":1.103,"facility_count":0,"transit_count":0,"healthcare_count":0,"education_count":0,"park_count":0,"service_diversity":0,"facility_density_km2":0.0,"road_segment_count":14,"road_length_m":712.11,"road_density_km_km2":1.4272,"intersection_count":4,"elevation_m":16,"terrain_relief_m":11,"source_note":"OSM道路与设施聚合；SRTM高程采样；均为教学裁剪","accessibility_proxy":0.1933,"osm_intensity_class":"低","core_zone":"核心"},"geometry":{"type":"Polygon","coordinates":[[[114.3055,30.5803],[114.313,30.5803],[114.313,30.58655],[114.3055,30.58655],[114.3055,30.5803]]]}},{"type":"Feature","properties":{"cell_id":"wuhan_06_06","city_id":"wuhan","city_name_zh":"武汉","row":6,"column":6,"area_km2":0.499,"center_lon":114.31675,"center_lat":30.583425,"distance_to_center_km":1.499,"facility_count":1,"transit_count":1,"healthcare_count":0,"education_count":0,"park_count":0,"service_diversity":1,"facility_density_km2":2.0042,"road_segment_count":58,"road_length_m":5802.74,"road_density_km_km2":11.6298,"intersection_count":24,"elevation_m":23,"terrain_relief_m":16,"source_note":"OSM道路与设施聚合；SRTM高程采样；均为教学裁剪","accessibility_proxy":0.35,"osm_intensity_class":"较高","core_zone":"核心"},"geometry":{"type":"Polygon","coordinates":[[[114.313,30.5803],[114.3205,30.5803],[114.3205,30.58655],[114.313,30.58655],[114.313,30.5803]]]}},{"type":"Feature","properties":{"cell_id":"wuhan_06_07","city_id":"wuhan","city_name_zh":"武汉","row":6,"column":7,"area_km2":0.499,"center_lon":114.32425,"center_lat":30.583425,"distance_to_center_km":2.076,"facility_count":5,"transit_count":2,"healthcare_count":0,"education_count":3,"park_count":0,"service_diversity":2,"facility_density_km2":10.021,"road_segment_count":107,"road_length_m":8278.52,"road_density_km_km2":16.5918,"intersection_count":41,"elevation_m":27,"terrain_relief_m":7,"source_note":"OSM道路与设施聚合；SRTM高程采样；均为教学裁剪","accessibility_proxy":0.5271,"osm_intensity_class":"高","core_zone":"内圈"},"geometry":{"type":"Polygon","coordinates":[[[114.3205,30.5803],[114.328,30.5803],[114.328,30.58655],[114.3205,30.58655],[114.3205,30.5803]]]}},{"type":"Feature","properties":{"cell_id":"wuhan_06_08","city_id":"wuhan","city_name_zh":"武汉","row":6,"column":8,"area_km2":0.499,"center_lon":114.33175,"center_lat":30.583425,"distance_to_center_km":2.72,"facility_count":0,"transit_count":0,"healthcare_count":0,"education_count":0,"park_count":0,"service_diversity":0,"facility_density_km2":0.0,"road_segment_count":99,"road_length_m":7262.35,"road_density_km_km2":14.5552,"intersection_count":27,"elevation_m":26,"terrain_relief_m":7,"source_note":"OSM道路与设施聚合；SRTM高程采样；均为教学裁剪","accessibility_proxy":0.3074,"osm_intensity_class":"较高","core_zone":"内圈"},"geometry":{"type":"Polygon","coordinates":[[[114.328,30.5803],[114.3355,30.5803],[114.3355,30.58655],[114.328,30.58655],[114.328,30.5803]]]}},{"type":"Feature","properties":{"cell_id":"wuhan_07_01","city_id":"wuhan","city_name_zh":"武汉","row":7,"column":1,"area_km2":0.499,"center_lon":114.27925,"center_lat":30.577175,"distance_to_center_km":3.055,"facility_count":6,"transit_count":1,"healthcare_count":0,"education_count":5,"park_count":0,"service_diversity":2,"facility_density_km2":12.0244,"road_segment_count":258,"road_length_m":10139.24,"road_density_km_km2":20.3197,"intersection_count":71,"elevation_m":42,"terrain_relief_m":14,"source_note":"OSM道路与设施聚合；SRTM高程采样；均为教学裁剪","accessibility_proxy":0.5785,"osm_intensity_class":"高","core_zone":"外圈"},"geometry":{"type":"Polygon","coordinates":[[[114.2755,30.57405],[114.283,30.57405],[114.283,30.5803],[114.2755,30.5803],[114.2755,30.57405]]]}},{"type":"Feature","properties":{"cell_id":"wuhan_07_02","city_id":"wuhan","city_name_zh":"武汉","row":7,"column":2,"area_km2":0.499,"center_lon":114.28675,"center_lat":30.577175,"distance_to_center_km":2.498,"facility_count":1,"transit_count":0,"healthcare_count":0,"education_count":1,"park_count":0,"service_diversity":1,"facility_density_km2":2.0041,"road_segment_count":476,"road_length_m":12015.83,"road_density_km_km2":24.0805,"intersection_count":157,"elevation_m":32,"terrain_relief_m":22,"source_note":"OSM道路与设施聚合；SRTM高程采样；均为教学裁剪","accessibility_proxy":0.4836,"osm_intensity_class":"高","core_zone":"内圈"},"geometry":{"type":"Polygon","coordinates":[[[114.283,30.57405],[114.2905,30.57405],[114.2905,30.5803],[114.283,30.5803],[114.283,30.57405]]]}},{"type":"Feature","properties":{"cell_id":"wuhan_07_03","city_id":"wuhan","city_name_zh":"武汉","row":7,"column":3,"area_km2":0.499,"center_lon":114.29425,"center_lat":30.577175,"distance_to_center_km":2.044,"facility_count":0,"transit_count":0,"healthcare_count":0,"education_count":0,"park_count":0,"service_diversity":0,"facility_density_km2":0.0,"road_segment_count":106,"road_length_m":2192.11,"road_density_km_km2":4.3931,"intersection_count":16,"elevation_m":17,"terrain_relief_m":29,"source_note":"OSM道路与设施聚合；SRTM高程采样；均为教学裁剪","accessibility_proxy":0.1888,"osm_intensity_class":"低","core_zone":"内圈"},"geometry":{"type":"Polygon","coordinates":[[[114.2905,30.57405],[114.298,30.57405],[114.298,30.5803],[114.2905,30.5803],[114.2905,30.57405]]]}},{"type":"Feature","properties":{"cell_id":"wuhan_07_04","city_id":"wuhan","city_name_zh":"武汉","row":7,"column":4,"area_km2":0.499,"center_lon":114.30175,"center_lat":30.577175,"distance_to_center_km":1.774,"facility_count":0,"transit_count":0,"healthcare_count":0,"education_count":0,"park_count":0,"service_diversity":0,"facility_density_km2":0.0,"road_segment_count":0,"road_length_m":0.0,"road_density_km_km2":0.0,"intersection_count":0,"elevation_m":16,"terrain_relief_m":4,"source_note":"OSM道路与设施聚合；SRTM高程采样；均为教学裁剪","accessibility_proxy":0.1384,"osm_intensity_class":"低","core_zone":"内圈"},"geometry":{"type":"Polygon","coordinates":[[[114.298,30.57405],[114.3055,30.57405],[114.3055,30.5803],[114.298,30.5803],[114.298,30.57405]]]}},{"type":"Feature","properties":{"cell_id":"wuhan_07_05","city_id":"wuhan","city_name_zh":"武汉","row":7,"column":5,"area_km2":0.499,"center_lon":114.30925,"center_lat":30.577175,"distance_to_center_km":1.774,"facility_count":0,"transit_count":0,"healthcare_count":0,"education_count":0,"park_count":0,"service_diversity":0,"facility_density_km2":0.0,"road_segment_count":92,"road_length_m":4371.17,"road_density_km_km2":8.7601,"intersection_count":11,"elevation_m":41,"terrain_relief_m":25,"source_note":"OSM道路与设施聚合；SRTM高程采样；均为教学裁剪","accessibility_proxy":0.2626,"osm_intensity_class":"较低","core_zone":"内圈"},"geometry":{"type":"Polygon","coordinates":[[[114.3055,30.57405],[114.313,30.57405],[114.313,30.5803],[114.3055,30.5803],[114.3055,30.57405]]]}},{"type":"Feature","properties":{"cell_id":"wuhan_07_06","city_id":"wuhan","city_name_zh":"武汉","row":7,"column":6,"area_km2":0.499,"center_lon":114.31675,"center_lat":30.577175,"distance_to_center_km":2.044,"facility_count":0,"transit_count":0,"healthcare_count":0,"education_count":0,"park_count":0,"service_diversity":0,"facility_density_km2":0.0,"road_segment_count":128,"road_length_m":7363.72,"road_density_km_km2":14.7574,"intersection_count":23,"elevation_m":29,"terrain_relief_m":10,"source_note":"OSM道路与设施聚合；SRTM高程采样；均为教学裁剪","accessibility_proxy":0.3358,"osm_intensity_class":"较高","core_zone":"内圈"},"geometry":{"type":"Polygon","coordinates":[[[114.313,30.57405],[114.3205,30.57405],[114.3205,30.5803],[114.313,30.5803],[114.313,30.57405]]]}},{"type":"Feature","properties":{"cell_id":"wuhan_07_07","city_id":"wuhan","city_name_zh":"武汉","row":7,"column":7,"area_km2":0.499,"center_lon":114.32425,"center_lat":30.577175,"distance_to_center_km":2.498,"facility_count":12,"transit_count":5,"healthcare_count":0,"education_count":7,"park_count":0,"service_diversity":2,"facility_density_km2":24.0488,"road_segment_count":177,"road_length_m":7428.97,"road_density_km_km2":14.8882,"intersection_count":32,"elevation_m":25,"terrain_relief_m":13,"source_note":"OSM道路与设施聚合；SRTM高程采样；均为教学裁剪","accessibility_proxy":0.7199,"osm_intensity_class":"高","core_zone":"内圈"},"geometry":{"type":"Polygon","coordinates":[[[114.3205,30.57405],[114.328,30.57405],[114.328,30.5803],[114.3205,30.5803],[114.3205,30.57405]]]}},{"type":"Feature","properties":{"cell_id":"wuhan_07_08","city_id":"wuhan","city_name_zh":"武汉","row":7,"column":8,"area_km2":0.499,"center_lon":114.33175,"center_lat":30.577175,"distance_to_center_km":3.055,"facility_count":0,"transit_count":0,"healthcare_count":0,"education_count":0,"park_count":0,"service_diversity":0,"facility_density_km2":0.0,"road_segment_count":163,"road_length_m":5982.35,"road_density_km_km2":11.989,"intersection_count":17,"elevation_m":22,"terrain_relief_m":6,"source_note":"OSM道路与设施聚合；SRTM高程采样；均为教学裁剪","accessibility_proxy":0.2603,"osm_intensity_class":"较低","core_zone":"外圈"},"geometry":{"type":"Polygon","coordinates":[[[114.328,30.57405],[114.3355,30.57405],[114.3355,30.5803],[114.328,30.5803],[114.328,30.57405]]]}},{"type":"Feature","properties":{"cell_id":"wuhan_08_01","city_id":"wuhan","city_name_zh":"武汉","row":8,"column":1,"area_km2":0.499,"center_lon":114.27925,"center_lat":30.570925,"distance_to_center_km":3.497,"facility_count":4,"transit_count":0,"healthcare_count":0,"education_count":4,"park_count":0,"service_diversity":1,"facility_density_km2":8.0158,"road_segment_count":215,"road_length_m":8103.74,"road_density_km_km2":16.2394,"intersection_count":36,"elevation_m":48,"terrain_relief_m":30,"source_note":"OSM道路与设施聚合；SRTM高程采样；均为教学裁剪","accessibility_proxy":0.4416,"osm_intensity_class":"高","core_zone":"外圈"},"geometry":{"type":"Polygon","coordinates":[[[114.2755,30.5678],[114.283,30.5678],[114.283,30.57405],[114.2755,30.57405],[114.2755,30.5678]]]}},{"type":"Feature","properties":{"cell_id":"wuhan_08_02","city_id":"wuhan","city_name_zh":"武汉","row":8,"column":2,"area_km2":0.499,"center_lon":114.28675,"center_lat":30.570925,"distance_to_center_km":3.023,"facility_count":3,"transit_count":0,"healthcare_count":0,"education_count":3,"park_count":0,"service_diversity":1,"facility_density_km2":6.0118,"road_segment_count":224,"road_length_m":6399.52,"road_density_km_km2":12.8242,"intersection_count":67,"elevation_m":38,"terrain_relief_m":22,"source_note":"OSM道路与设施聚合；SRTM高程采样；均为教学裁剪","accessibility_proxy":0.3731,"osm_intensity_class":"较高","core_zone":"外圈"},"geometry":{"type":"Polygon","coordinates":[[[114.283,30.5678],[114.2905,30.5678],[114.2905,30.57405],[114.283,30.57405],[114.283,30.5678]]]}},{"type":"Feature","properties":{"cell_id":"wuhan_08_03","city_id":"wuhan","city_name_zh":"武汉","row":8,"column":3,"area_km2":0.499,"center_lon":114.29425,"center_lat":30.570925,"distance_to_center_km":2.66,"facility_count":0,"transit_count":0,"healthcare_count":0,"education_count":0,"park_count":0,"service_diversity":0,"facility_density_km2":0.0,"road_segment_count":0,"road_length_m":0.0,"road_density_km_km2":0.0,"intersection_count":0,"elevation_m":16,"terrain_relief_m":7,"source_note":"OSM道路与设施聚合；SRTM高程采样；均为教学裁剪","accessibility_proxy":0.103,"osm_intensity_class":"低","core_zone":"内圈"},"geometry":{"type":"Polygon","coordinates":[[[114.2905,30.5678],[114.298,30.5678],[114.298,30.57405],[114.2905,30.57405],[114.2905,30.5678]]]}},{"type":"Feature","properties":{"cell_id":"wuhan_08_04","city_id":"wuhan","city_name_zh":"武汉","row":8,"column":4,"area_km2":0.499,"center_lon":114.30175,"center_lat":30.570925,"distance_to_center_km":2.459,"facility_count":0,"transit_count":0,"healthcare_count":0,"education_count":0,"park_count":0,"service_diversity":0,"facility_density_km2":0.0,"road_segment_count":41,"road_length_m":1939.59,"road_density_km_km2":3.8868,"intersection_count":8,"elevation_m":17,"terrain_relief_m":15,"source_note":"OSM道路与设施聚合；SRTM高程采样；均为教学裁剪","accessibility_proxy":0.1653,"osm_intensity_class":"低","core_zone":"内圈"},"geometry":{"type":"Polygon","coordinates":[[[114.298,30.5678],[114.3055,30.5678],[114.3055,30.57405],[114.298,30.57405],[114.298,30.5678]]]}},{"type":"Feature","properties":{"cell_id":"wuhan_08_05","city_id":"wuhan","city_name_zh":"武汉","row":8,"column":5,"area_km2":0.499,"center_lon":114.30925,"center_lat":30.570925,"distance_to_center_km":2.459,"facility_count":1,"transit_count":1,"healthcare_count":0,"education_count":0,"park_count":0,"service_diversity":1,"facility_density_km2":2.0039,"road_segment_count":265,"road_length_m":6499.65,"road_density_km_km2":13.0249,"intersection_count":27,"elevation_m":31,"terrain_relief_m":11,"source_note":"OSM道路与设施聚合；SRTM高程采样；均为教学裁剪","accessibility_proxy":0.3282,"osm_intensity_class":"较高","core_zone":"内圈"},"geometry":{"type":"Polygon","coordinates":[[[114.3055,30.5678],[114.313,30.5678],[114.313,30.57405],[114.3055,30.57405],[114.3055,30.5678]]]}},{"type":"Feature","properties":{"cell_id":"wuhan_08_06","city_id":"wuhan","city_name_zh":"武汉","row":8,"column":6,"area_km2":0.499,"center_lon":114.31675,"center_lat":30.570925,"distance_to_center_km":2.66,"facility_count":0,"transit_count":0,"healthcare_count":0,"education_count":0,"park_count":0,"service_diversity":0,"facility_density_km2":0.0,"road_segment_count":130,"road_length_m":7157.46,"road_density_km_km2":14.3431,"intersection_count":12,"elevation_m":22,"terrain_relief_m":8,"source_note":"OSM道路与设施聚合；SRTM高程采样；均为教学裁剪","accessibility_proxy":0.3064,"osm_intensity_class":"较高","core_zone":"内圈"},"geometry":{"type":"Polygon","coordinates":[[[114.313,30.5678],[114.3205,30.5678],[114.3205,30.57405],[114.313,30.57405],[114.313,30.5678]]]}},{"type":"Feature","properties":{"cell_id":"wuhan_08_07","city_id":"wuhan","city_name_zh":"武汉","row":8,"column":7,"area_km2":0.499,"center_lon":114.32425,"center_lat":30.570925,"distance_to_center_km":3.023,"facility_count":0,"transit_count":0,"healthcare_count":0,"education_count":0,"park_count":0,"service_diversity":0,"facility_density_km2":0.0,"road_segment_count":58,"road_length_m":1795.03,"road_density_km_km2":3.5971,"intersection_count":2,"elevation_m":19,"terrain_relief_m":4,"source_note":"OSM道路与设施聚合；SRTM高程采样；均为教学裁剪","accessibility_proxy":0.1423,"osm_intensity_class":"低","core_zone":"外圈"},"geometry":{"type":"Polygon","coordinates":[[[114.3205,30.5678],[114.328,30.5678],[114.328,30.57405],[114.3205,30.57405],[114.3205,30.5678]]]}},{"type":"Feature","properties":{"cell_id":"wuhan_08_08","city_id":"wuhan","city_name_zh":"武汉","row":8,"column":8,"area_km2":0.499,"center_lon":114.33175,"center_lat":30.570925,"distance_to_center_km":3.497,"facility_count":0,"transit_count":0,"healthcare_count":0,"education_count":0,"park_count":0,"service_diversity":0,"facility_density_km2":0.0,"road_segment_count":69,"road_length_m":458.15,"road_density_km_km2":0.9181,"intersection_count":0,"elevation_m":19,"terrain_relief_m":3,"source_note":"OSM道路与设施聚合；SRTM高程采样；均为教学裁剪","accessibility_proxy":0.0909,"osm_intensity_class":"低","core_zone":"外圈"},"geometry":{"type":"Polygon","coordinates":[[[114.328,30.5678],[114.3355,30.5678],[114.3355,30.57405],[114.328,30.57405],[114.328,30.5678]]]}}]}