{"type":"FeatureCollection","name":"wuhan_ghsl_boundary","crs":{"type":"name","properties":{"name":"urn:ogc:def:crs:OGC:1.3:CRS84"}},"features":[{"type":"Feature","properties":{"uc_id":10131,"city_name_en":"Wuhan","city_name_zh":"武汉","country":"China","urban_area_km2_2025":772,"population_2025":8079484,"population_density_km2_2025":10465.65,"gdp_average_ppp_1990":8494137,"gdp_average_ppp_2000":34343480,"gdp_average_ppp_2010":95998750,"gdp_average_ppp_2020":198295700,"gdp_total_ppp_1990":8570584064,"gdp_total_ppp_2000":34789941248,"gdp_total_ppp_2010":97726726144,"gdp_total_ppp_2020":202000000000,"hdi_1990":0.469,"hdi_2000":0.566,"hdi_2010":0.688,"hdi_2020":0.771},"geometry":{"type":"Polygon","coordinates":[[[114.171496424667,30.6684561114275],[114.182450228815,30.6684561114275],[114.176156233981,30.659891263867],[114.198062634043,30.659891263867],[114.204357836213,30.6684561114275],[114.237219247758,30.6684561114275],[114.230922233686,30.659891263867],[114.285688233392,30.659891263867],[114.291988266701,30.6684561114275],[114.346757284746,30.6684561114275],[114.340454233097,30.659891263867],[114.351407433577,30.659891263867],[114.345106513631,30.6513267036375],[114.356059110443,30.6513267036375],[114.343464267527,30.6341984429163],[114.354415657902,30.6341984429163],[114.360712315343,30.6427624303686],[114.371664308487,30.6427624303686],[114.377964303169,30.6513267036375],[114.410822092707,30.6513267036375],[114.417126632865,30.659891263867],[114.428079833345,30.659891263867],[114.434387715235,30.6684561114275],[114.445341518485,30.6684561114275],[114.451652743006,30.6770212459168],[114.462607150822,30.6770212459168],[114.456295322633,30.6684561114275],[114.467249125882,30.6684561114275],[114.460939432988,30.659891263867],[114.47189263257,30.659891263867],[114.465585074074,30.6513267036375],[114.476537670886,30.6513267036375],[114.463929558955,30.6341984429163],[114.474880948431,30.6341984429163],[114.468580394099,30.625634743228],[114.479531181704,30.625634743228],[114.473232758176,30.6170713293867],[114.495133127847,30.6170713293867],[114.488836235048,30.6085082017934],[114.499785817114,30.6085082017934],[114.493491055118,30.599945360076],[114.482542074025,30.599945360076],[114.469961949107,30.5828205358734],[114.480909726458,30.5828205358734],[114.455779819915,30.5485743178256],[114.433889071201,30.5485743178256],[114.440166255861,30.5571354436055],[114.429220281429,30.5571354436055],[114.435499591503,30.5656968553446],[114.380766714479,30.5656968553446],[114.368216825057,30.5485743178256],[114.379162199414,30.5485743178256],[114.372890740615,30.5400134768576],[114.405725063463,30.5400134768576],[114.411998322486,30.5485743178256],[114.422943696843,30.5485743178256],[114.416669837746,30.5400134768576],[114.427614612029,30.5400134768576],[114.421342876549,30.5314529211009],[114.432287050757,30.5314529211009],[114.426017437996,30.5228926509554],[114.436961013028,30.5228926509554],[114.430693522986,30.5143326660464],[114.452579473799,30.5143326660464],[114.458848162194,30.5228926509554],[114.469791737225,30.5228926509554],[114.450992038403,30.4972135504392],[114.461933815906,30.4972135504392],[114.455672091251,30.4886544205389],[114.477554449701,30.4886544205389],[114.465036763984,30.4715370131191],[114.475976746653,30.4715370131191],[114.463468733994,30.45442074383],[114.474407521005,30.45442074383],[114.468156990258,30.4458630350438],[114.47909517989,30.4458630350438],[114.472846767369,30.4373056104352],[114.483784359621,30.4373056104352],[114.477538063532,30.428748470402],[114.466601067762,30.428748470402],[114.460358080167,30.4201916137924],[114.449421680878,30.4201916137924],[114.424479215904,30.3859670233322],[114.402611182888,30.3859670233322],[114.408841546458,30.3945227461515],[114.397906934816,30.3945227461515],[114.404139408528,30.4030787516576],[114.393204201303,30.4030787516576],[114.399438786954,30.4116350410035],[114.388502984146,30.4116350410035],[114.394739682635,30.4201916137924],[114.383803283346,30.4201916137924],[114.390042094672,30.428748470402],[114.379105098901,30.428748470402],[114.385346023963,30.4373056104352],[114.352533245411,30.4373056104352],[114.358775091246,30.4458630350438],[114.315022331821,30.4458630350438],[114.308782874606,30.4373056104352],[114.297845281456,30.4373056104352],[114.304084142189,30.4458630350438],[114.293145952558,30.4458630350438],[114.305630611714,30.4629787363962],[114.294691226424,30.4629787363962],[114.300937026644,30.4715370131191],[114.268117078637,30.4715370131191],[114.274363797832,30.4800955743746],[114.24154205589,30.4800955743746],[114.279068610047,30.5314529211009],[114.268124435839,30.5314529211009],[114.249350734261,30.5057729659994],[114.216523605121,30.5057729659994],[114.235291912316,30.5314529211009],[114.224347738108,30.5314529211009],[114.230608675838,30.5400134768576],[114.208719127273,30.5400134768576],[114.202459389692,30.5314529211009],[114.191515214585,30.5314529211009],[114.179005089987,30.5143326660464],[114.189948064945,30.5143326660464],[114.177447602626,30.4972135504392],[114.188389380129,30.4972135504392],[114.182142620509,30.4886544205389],[114.193083798836,30.4886544205389],[114.186839152952,30.4800955743746],[114.208720313947,30.4800955743746],[114.214966156387,30.4886544205389],[114.225907335612,30.4886544205389],[114.219660894894,30.4800955743746],[114.230601475841,30.4800955743746],[114.218115533891,30.4629787363962],[114.2071761495,30.4629787363962],[114.200937842128,30.45442074383],[114.168121480196,30.45442074383],[114.174357995428,30.4629787363962],[114.163418610139,30.4629787363962],[114.169657236412,30.4715370131191],[114.147777271973,30.4715370131191],[114.141539841357,30.4629787363962],[114.130600456068,30.4629787363962],[114.118134914857,30.4458630350438],[114.107196724327,30.4458630350438],[114.113427545139,30.45442074383],[114.102488757229,30.45442074383],[114.108721687286,30.4629787363962],[114.086842917605,30.4629787363962],[114.099314508969,30.4800955743746],[114.110255089916,30.4800955743746],[114.135233188362,30.5143326660464],[114.124290212506,30.5143326660464],[114.130540920222,30.5228926509554],[114.141484495254,30.5228926509554],[114.160254712267,30.5485743178256],[114.14930933791,30.5485743178256],[114.155570911647,30.5571354436055],[114.133678962783,30.5571354436055],[114.127418589195,30.5485743178256],[114.083637091766,30.5485743178256],[114.089895063259,30.5571354436055],[114.100841037691,30.5571354436055],[114.107102328459,30.5656968553446],[114.118048903864,30.5656968553446],[114.130580844947,30.5828205358734],[114.119633067596,30.5828205358734],[114.12590251866,30.5913828054091],[114.114954139438,30.5913828054091],[114.121225711424,30.599945360076],[114.088378769941,30.599945360076],[114.094651259108,30.6085082017934],[114.083701676143,30.6085082017934],[114.089976288029,30.6170713293867],[114.079026102295,30.6170713293867],[114.085302836001,30.625634743228],[114.074352048395,30.625634743228],[114.086912486734,30.6427624303686],[114.108816473023,30.6427624303686],[114.115101989557,30.6513267036375],[114.126054585471,30.6513267036375],[114.13863501402,30.6684561114275],[114.127681209872,30.6684561114275],[114.140271356395,30.6855866669327],[114.162181381159,30.6855866669327],[114.168481763015,30.6941523763899],[114.190392996013,30.6941523763899],[114.171496424667,30.6684561114275]]]}}]}