{"type":"FeatureCollection","name":"wuhan_facilities","crs":{"type":"name","properties":{"name":"urn:ogc:def:crs:OGC:1.3:CRS84"}},"features":[{"type":"Feature","properties":{"facility_id":"osm_node_1882003788","osm_id":"1882003788","name":"江岸区少年儿童图书馆","category":"culture","category_zh":"文化","amenity":"library","railway":null,"source":"OpenStreetMap"},"geometry":{"type":"Point","coordinates":[114.2966575,30.594486]}},{"type":"Feature","properties":{"facility_id":"osm_node_12802896948","osm_id":"12802896948","name":"新能源与电气工程学院","category":"education","category_zh":"教育","amenity":"college","railway":null,"source":"OpenStreetMap"},"geometry":{"type":"Point","coordinates":[114.3244357,30.5793351]}},{"type":"Feature","properties":{"facility_id":"osm_node_1877184719","osm_id":"1877184719","name":"江汉区大夹街小学","category":"education","category_zh":"教育","amenity":"school","railway":null,"source":"OpenStreetMap"},"geometry":{"type":"Point","coordinates":[114.2773226,30.5702612]}},{"type":"Feature","properties":{"facility_id":"osm_node_1877189308","osm_id":"1877189308","name":"江汉区福建街小学","category":"education","category_zh":"教育","amenity":"school","railway":null,"source":"OpenStreetMap"},"geometry":{"type":"Point","coordinates":[114.2788528,30.5734703]}},{"type":"Feature","properties":{"facility_id":"osm_node_1877189309","osm_id":"1877189309","name":"武汉市第52中学","category":"education","category_zh":"教育","amenity":"school","railway":null,"source":"OpenStreetMap"},"geometry":{"type":"Point","coordinates":[114.2789976,30.5726297]}},{"type":"Feature","properties":{"facility_id":"osm_node_1877192751","osm_id":"1877192751","name":"江汉区大兴路小学","category":"education","category_zh":"教育","amenity":"school","railway":null,"source":"OpenStreetMap"},"geometry":{"type":"Point","coordinates":[114.2840667,30.5710268]}},{"type":"Feature","properties":{"facility_id":"osm_node_1877192754","osm_id":"1877192754","name":"汉口回民小学","category":"education","category_zh":"教育","amenity":"school","railway":null,"source":"OpenStreetMap"},"geometry":{"type":"Point","coordinates":[114.2825432,30.5744815]}},{"type":"Feature","properties":{"facility_id":"osm_node_1877192770","osm_id":"1877192770","name":"黄陂街小学分校","category":"education","category_zh":"教育","amenity":"school","railway":null,"source":"OpenStreetMap"},"geometry":{"type":"Point","coordinates":[114.2851289,30.5733273]}},{"type":"Feature","properties":{"facility_id":"osm_node_1877192772","osm_id":"1877192772","name":"武汉市人民中学","category":"education","category_zh":"教育","amenity":"school","railway":null,"source":"OpenStreetMap"},"geometry":{"type":"Point","coordinates":[114.2846675,30.5719505]}},{"type":"Feature","properties":{"facility_id":"osm_node_1877205750","osm_id":"1877205750","name":"江汉区武汉关小学","category":"education","category_zh":"教育","amenity":"school","railway":null,"source":"OpenStreetMap"},"geometry":{"type":"Point","coordinates":[114.2842064,30.5781673]}},{"type":"Feature","properties":{"facility_id":"osm_node_1877205758","osm_id":"1877205758","name":"江汉区清芬路小学","category":"education","category_zh":"教育","amenity":"school","railway":null,"source":"OpenStreetMap"},"geometry":{"type":"Point","coordinates":[114.2818018,30.5759239]}},{"type":"Feature","properties":{"facility_id":"osm_node_1877205818","osm_id":"1877205818","name":"武汉市第51中学","category":"education","category_zh":"教育","amenity":"school","railway":null,"source":"OpenStreetMap"},"geometry":{"type":"Point","coordinates":[114.2813888,30.576598]}},{"type":"Feature","properties":{"facility_id":"osm_node_1880350181","osm_id":"1880350181","name":"硚口区人和街小学","category":"education","category_zh":"教育","amenity":"school","railway":null,"source":"OpenStreetMap"},"geometry":{"type":"Point","coordinates":[114.2763301,30.5711988]}},{"type":"Feature","properties":{"facility_id":"osm_node_1880410734","osm_id":"1880410734","name":"武汉市旅游学校","category":"education","category_zh":"教育","amenity":"school","railway":null,"source":"OpenStreetMap"},"geometry":{"type":"Point","coordinates":[114.27655,30.577508]}},{"type":"Feature","properties":{"facility_id":"osm_node_1880426710","osm_id":"1880426710","name":"江汉区前进二路小学","category":"education","category_zh":"教育","amenity":"school","railway":null,"source":"OpenStreetMap"},"geometry":{"type":"Point","coordinates":[114.2795908,30.5789437]}},{"type":"Feature","properties":{"facility_id":"osm_node_1880437958","osm_id":"1880437958","name":"江汉区桃源坊小学","category":"education","category_zh":"教育","amenity":"school","railway":null,"source":"OpenStreetMap"},"geometry":{"type":"Point","coordinates":[114.2803419,30.5808788]}},{"type":"Feature","properties":{"facility_id":"osm_node_1880537884","osm_id":"1880537884","name":"武汉市第21中学","category":"education","category_zh":"教育","amenity":"school","railway":null,"source":"OpenStreetMap"},"geometry":{"type":"Point","coordinates":[114.2885709,30.5844528]}},{"type":"Feature","properties":{"facility_id":"osm_node_1881995733","osm_id":"1881995733","name":"武汉市实验学校","category":"education","category_zh":"教育","amenity":"school","railway":null,"source":"OpenStreetMap"},"geometry":{"type":"Point","coordinates":[114.2973869,30.5970877]}},{"type":"Feature","properties":{"facility_id":"osm_node_1882003761","osm_id":"1882003761","name":"江岸区一元路小学","category":"education","category_zh":"教育","amenity":"school","railway":null,"source":"OpenStreetMap"},"geometry":{"type":"Point","coordinates":[114.2985457,30.5946452]}},{"type":"Feature","properties":{"facility_id":"osm_node_1882031170","osm_id":"1882031170","name":"武汉市警予中学","category":"education","category_zh":"教育","amenity":"school","railway":null,"source":"OpenStreetMap"},"geometry":{"type":"Point","coordinates":[114.2858159,30.5902076]}},{"type":"Feature","properties":{"facility_id":"osm_node_1882106099","osm_id":"1882106099","name":"江岸区沈阳路小学","category":"education","category_zh":"教育","amenity":"school","railway":null,"source":"OpenStreetMap"},"geometry":{"type":"Point","coordinates":[114.2987388,30.6063269]}},{"type":"Feature","properties":{"facility_id":"osm_node_1882108657","osm_id":"1882108657","name":"武汉市第41中学","category":"education","category_zh":"教育","amenity":"school","railway":null,"source":"OpenStreetMap"},"geometry":{"type":"Point","coordinates":[114.299515,30.6055836]}},{"type":"Feature","properties":{"facility_id":"osm_node_1882113489","osm_id":"1882113489","name":"江岸区四唯路小学","category":"education","category_zh":"教育","amenity":"school","railway":null,"source":"OpenStreetMap"},"geometry":{"type":"Point","coordinates":[114.300552,30.6021117]}},{"type":"Feature","properties":{"facility_id":"osm_node_1882171601","osm_id":"1882171601","name":"江岸区长春街小学","category":"education","category_zh":"教育","amenity":"school","railway":null,"source":"OpenStreetMap"},"geometry":{"type":"Point","coordinates":[114.3048006,30.6089309]}},{"type":"Feature","properties":{"facility_id":"osm_node_1882173159","osm_id":"1882173159","name":"武汉市第二中学","category":"education","category_zh":"教育","amenity":"school","railway":null,"source":"OpenStreetMap"},"geometry":{"type":"Point","coordinates":[114.3021932,30.6088476]}},{"type":"Feature","properties":{"facility_id":"osm_node_1882271328","osm_id":"1882271328","name":"武汉六中上智中学（黄石路）","category":"education","category_zh":"教育","amenity":"school","railway":null,"source":"OpenStreetMap"},"geometry":{"type":"Point","coordinates":[114.2829287,30.5910136]}},{"type":"Feature","properties":{"facility_id":"osm_node_5324074761","osm_id":"5324074761","name":"计算机与信息工程学院","category":"education","category_zh":"教育","amenity":"college","railway":null,"source":"OpenStreetMap"},"geometry":{"type":"Point","coordinates":[114.3261585,30.5794554]}},{"type":"Feature","properties":{"facility_id":"osm_node_5324074762","osm_id":"5324074762","name":"物理与电子技术学院","category":"education","category_zh":"教育","amenity":"college","railway":null,"source":"OpenStreetMap"},"geometry":{"type":"Point","coordinates":[114.3262432,30.5795278]}},{"type":"Feature","properties":{"facility_id":"osm_node_5324074790","osm_id":"5324074790","name":"马克思主义学院","category":"education","category_zh":"教育","amenity":"college","railway":null,"source":"OpenStreetMap"},"geometry":{"type":"Point","coordinates":[114.3262801,30.5808708]}},{"type":"Feature","properties":{"facility_id":"osm_node_5324074791","osm_id":"5324074791","name":"政法与公共管理学院","category":"education","category_zh":"教育","amenity":"college","railway":null,"source":"OpenStreetMap"},"geometry":{"type":"Point","coordinates":[114.3262292,30.5809229]}},{"type":"Feature","properties":{"facility_id":"osm_node_5324074804","osm_id":"5324074804","name":"体育学院","category":"education","category_zh":"教育","amenity":"college","railway":null,"source":"OpenStreetMap"},"geometry":{"type":"Point","coordinates":[114.3269938,30.5815767]}},{"type":"Feature","properties":{"facility_id":"osm_node_5324075385","osm_id":"5324075385","name":"历史文化学院","category":"education","category_zh":"教育","amenity":"college","railway":null,"source":"OpenStreetMap"},"geometry":{"type":"Point","coordinates":[114.3251791,30.5781121]}},{"type":"Feature","properties":{"facility_id":"osm_node_5324075386","osm_id":"5324075386","name":"新闻传播学院","category":"education","category_zh":"教育","amenity":"college","railway":null,"source":"OpenStreetMap"},"geometry":{"type":"Point","coordinates":[114.3254071,30.5777727]}},{"type":"Feature","properties":{"facility_id":"osm_node_5324075387","osm_id":"5324075387","name":"文学院","category":"education","category_zh":"教育","amenity":"college","railway":null,"source":"OpenStreetMap"},"geometry":{"type":"Point","coordinates":[114.3259167,30.5775579]}},{"type":"Feature","properties":{"facility_id":"osm_node_5324075388","osm_id":"5324075388","name":"外国语学院","category":"education","category_zh":"教育","amenity":"college","railway":null,"source":"OpenStreetMap"},"geometry":{"type":"Point","coordinates":[114.3260052,30.577641]}},{"type":"Feature","properties":{"facility_id":"osm_node_644831814","osm_id":"644831814","name":"育才中学","category":"education","category_zh":"教育","amenity":"school","railway":null,"source":"OpenStreetMap"},"geometry":{"type":"Point","coordinates":[114.2939562,30.6059611]}},{"type":"Feature","properties":{"facility_id":"osm_node_1880458927","osm_id":"1880458927","name":"武汉博大医院","category":"healthcare","category_zh":"医疗","amenity":"hospital","railway":null,"source":"OpenStreetMap"},"geometry":{"type":"Point","coordinates":[114.2841943,30.581932]}},{"type":"Feature","properties":{"facility_id":"osm_node_1880487196","osm_id":"1880487196","name":"江岸区先锋医院","category":"healthcare","category_zh":"医疗","amenity":"hospital","railway":null,"source":"OpenStreetMap"},"geometry":{"type":"Point","coordinates":[114.284222,30.5887033]}},{"type":"Feature","properties":{"facility_id":"osm_node_1882108666","osm_id":"1882108666","name":"武汉市第八医院","category":"healthcare","category_zh":"医疗","amenity":"hospital","railway":null,"source":"OpenStreetMap"},"geometry":{"type":"Point","coordinates":[114.3000568,30.6060589]}},{"type":"Feature","properties":{"facility_id":"osm_node_1882357302","osm_id":"1882357302","name":"武汉亚洲心脏病医院","category":"healthcare","category_zh":"医疗","amenity":"hospital","railway":null,"source":"OpenStreetMap"},"geometry":{"type":"Point","coordinates":[114.2770445,30.5854626]}},{"type":"Feature","properties":{"facility_id":"osm_node_11329228454","osm_id":"11329228454","name":"湖北大学","category":"transit","category_zh":"公共交通","amenity":null,"railway":"station","source":"OpenStreetMap"},"geometry":{"type":"Point","coordinates":[114.3234733,30.5796437]}},{"type":"Feature","properties":{"facility_id":"osm_node_1419152461","osm_id":"1419152461","name":"江汉路","category":"transit","category_zh":"公共交通","amenity":null,"railway":"station","source":"OpenStreetMap"},"geometry":{"type":"Point","coordinates":[114.2862765,30.5830844]}},{"type":"Feature","properties":{"facility_id":"osm_node_1703084243","osm_id":"1703084243","name":"循礼门","category":"transit","category_zh":"公共交通","amenity":null,"railway":"station","source":"OpenStreetMap"},"geometry":{"type":"Point","coordinates":[114.2816618,30.588009]}},{"type":"Feature","properties":{"facility_id":"osm_node_1703084331","osm_id":"1703084331","name":"大智路","category":"transit","category_zh":"公共交通","amenity":null,"railway":"station","source":"OpenStreetMap"},"geometry":{"type":"Point","coordinates":[114.2896164,30.5949862]}},{"type":"Feature","properties":{"facility_id":"osm_node_5165701878","osm_id":"5165701878","name":"惠濟二路","category":"transit","category_zh":"公共交通","amenity":null,"railway":"station","source":"OpenStreetMap"},"geometry":{"type":"Point","coordinates":[114.2847052,30.6144153]}},{"type":"Feature","properties":{"facility_id":"osm_node_5325077203","osm_id":"5325077203","name":"E出口","category":"transit","category_zh":"公共交通","amenity":null,"railway":"subway_entrance","source":"OpenStreetMap"},"geometry":{"type":"Point","coordinates":[114.3248367,30.5806923]}},{"type":"Feature","properties":{"facility_id":"osm_node_5325077205","osm_id":"5325077205","name":"F出口","category":"transit","category_zh":"公共交通","amenity":null,"railway":"subway_entrance","source":"OpenStreetMap"},"geometry":{"type":"Point","coordinates":[114.323539,30.5795975]}},{"type":"Feature","properties":{"facility_id":"osm_node_5325077206","osm_id":"5325077206","name":"B出口","category":"transit","category_zh":"公共交通","amenity":null,"railway":"subway_entrance","source":"OpenStreetMap"},"geometry":{"type":"Point","coordinates":[114.3233709,30.5797423]}},{"type":"Feature","properties":{"facility_id":"osm_node_5325077207","osm_id":"5325077207","name":"A出口","category":"transit","category_zh":"公共交通","amenity":null,"railway":"subway_entrance","source":"OpenStreetMap"},"geometry":{"type":"Point","coordinates":[114.3246692,30.5808723]}},{"type":"Feature","properties":{"facility_id":"osm_node_5325077208","osm_id":"5325077208","name":"D出口","category":"transit","category_zh":"公共交通","amenity":null,"railway":"subway_entrance","source":"OpenStreetMap"},"geometry":{"type":"Point","coordinates":[114.3230412,30.5791934]}},{"type":"Feature","properties":{"facility_id":"osm_node_5325077209","osm_id":"5325077209","name":"C出口","category":"transit","category_zh":"公共交通","amenity":null,"railway":"subway_entrance","source":"OpenStreetMap"},"geometry":{"type":"Point","coordinates":[114.3228648,30.5793226]}},{"type":"Feature","properties":{"facility_id":"osm_node_6494736569","osm_id":"6494736569","name":"香港路","category":"transit","category_zh":"公共交通","amenity":null,"railway":"station","source":"OpenStreetMap"},"geometry":{"type":"Point","coordinates":[114.2792702,30.6076753]}},{"type":"Feature","properties":{"facility_id":"osm_node_9397102146","osm_id":"9397102146","name":"三层楼","category":"transit","category_zh":"公共交通","amenity":null,"railway":"station","source":"OpenStreetMap"},"geometry":{"type":"Point","coordinates":[114.3090967,30.5717286]}},{"type":"Feature","properties":{"facility_id":"osm_node_9401379333","osm_id":"9401379333","name":"三角路","category":"transit","category_zh":"公共交通","amenity":null,"railway":"station","source":"OpenStreetMap"},"geometry":{"type":"Point","coordinates":[114.3198832,30.5836133]}},{"type":"Feature","properties":{"facility_id":"osm_node_9401733882","osm_id":"9401733882","name":"徐家棚","category":"transit","category_zh":"公共交通","amenity":null,"railway":"station","source":"OpenStreetMap"},"geometry":{"type":"Point","coordinates":[114.3281258,30.5929568]}},{"type":"Feature","properties":{"facility_id":"osm_node_9402057376","osm_id":"9402057376","name":"苗栗路","category":"transit","category_zh":"公共交通","amenity":null,"railway":"station","source":"OpenStreetMap"},"geometry":{"type":"Point","coordinates":[114.2845091,30.6012816]}},{"type":"Feature","properties":{"facility_id":"osm_node_9402057410","osm_id":"9402057410","name":"六渡桥","category":"transit","category_zh":"公共交通","amenity":null,"railway":"station","source":"OpenStreetMap"},"geometry":{"type":"Point","coordinates":[114.2785922,30.5773903]}},{"type":"Feature","properties":{"facility_id":"osm_node_9559866483","osm_id":"9559866483","name":"三阳路","category":"transit","category_zh":"公共交通","amenity":null,"railway":"station","source":"OpenStreetMap"},"geometry":{"type":"Point","coordinates":[114.2964482,30.6019539]}},{"type":"Feature","properties":{"facility_id":"osm_node_9559866484","osm_id":"9559866484","name":"黄浦路","category":"transit","category_zh":"公共交通","amenity":null,"railway":"station","source":"OpenStreetMap"},"geometry":{"type":"Point","coordinates":[114.3027074,30.6108201]}}]}