{"type":"FeatureCollection","name":"chengdu_analysis_grid","crs":{"type":"name","properties":{"name":"urn:ogc:def:crs:OGC:1.3:CRS84"}},"features":[{"type":"Feature","properties":{"cell_id":"chengdu_01_01","city_id":"chengdu","city_name_zh":"成都","row":1,"column":1,"area_km2":0.4989,"center_lon":104.04055,"center_lat":30.594675,"distance_to_center_km":3.497,"facility_count":0,"transit_count":0,"healthcare_count":0,"education_count":0,"park_count":0,"service_diversity":0,"facility_density_km2":0.0,"road_segment_count":35,"road_length_m":3298.61,"road_density_km_km2":6.6118,"intersection_count":6,"elevation_m":489,"terrain_relief_m":6,"source_note":"OSM道路与设施聚合；SRTM高程采样；均为教学裁剪","accessibility_proxy":0.1772,"osm_intensity_class":"低","core_zone":"外圈"},"geometry":{"type":"Polygon","coordinates":[[[104.0368,30.59155],[104.0443,30.59155],[104.0443,30.5978],[104.0368,30.5978],[104.0368,30.59155]]]}},{"type":"Feature","properties":{"cell_id":"chengdu_01_02","city_id":"chengdu","city_name_zh":"成都","row":1,"column":2,"area_km2":0.4989,"center_lon":104.04805,"center_lat":30.594675,"distance_to_center_km":3.023,"facility_count":1,"transit_count":1,"healthcare_count":0,"education_count":0,"park_count":0,"service_diversity":1,"facility_density_km2":2.0044,"road_segment_count":105,"road_length_m":6427.88,"road_density_km_km2":12.8842,"intersection_count":29,"elevation_m":491,"terrain_relief_m":4,"source_note":"OSM道路与设施聚合；SRTM高程采样；均为教学裁剪","accessibility_proxy":0.3248,"osm_intensity_class":"较高","core_zone":"外圈"},"geometry":{"type":"Polygon","coordinates":[[[104.0443,30.59155],[104.0518,30.59155],[104.0518,30.5978],[104.0443,30.5978],[104.0443,30.59155]]]}},{"type":"Feature","properties":{"cell_id":"chengdu_01_03","city_id":"chengdu","city_name_zh":"成都","row":1,"column":3,"area_km2":0.4989,"center_lon":104.05555,"center_lat":30.594675,"distance_to_center_km":2.66,"facility_count":0,"transit_count":0,"healthcare_count":0,"education_count":0,"park_count":0,"service_diversity":0,"facility_density_km2":0.0,"road_segment_count":66,"road_length_m":6120.91,"road_density_km_km2":12.2689,"intersection_count":22,"elevation_m":487,"terrain_relief_m":6,"source_note":"OSM道路与设施聚合；SRTM高程采样；均为教学裁剪","accessibility_proxy":0.2873,"osm_intensity_class":"较低","core_zone":"内圈"},"geometry":{"type":"Polygon","coordinates":[[[104.0518,30.59155],[104.0593,30.59155],[104.0593,30.5978],[104.0518,30.5978],[104.0518,30.59155]]]}},{"type":"Feature","properties":{"cell_id":"chengdu_01_04","city_id":"chengdu","city_name_zh":"成都","row":1,"column":4,"area_km2":0.4989,"center_lon":104.06305,"center_lat":30.594675,"distance_to_center_km":2.459,"facility_count":5,"transit_count":5,"healthcare_count":0,"education_count":0,"park_count":0,"service_diversity":1,"facility_density_km2":10.0221,"road_segment_count":82,"road_length_m":7308.72,"road_density_km_km2":14.6498,"intersection_count":26,"elevation_m":486,"terrain_relief_m":4,"source_note":"OSM道路与设施聚合；SRTM高程采样；均为教学裁剪","accessibility_proxy":0.5302,"osm_intensity_class":"高","core_zone":"内圈"},"geometry":{"type":"Polygon","coordinates":[[[104.0593,30.59155],[104.0668,30.59155],[104.0668,30.5978],[104.0593,30.5978],[104.0593,30.59155]]]}},{"type":"Feature","properties":{"cell_id":"chengdu_01_05","city_id":"chengdu","city_name_zh":"成都","row":1,"column":5,"area_km2":0.4989,"center_lon":104.07055,"center_lat":30.594675,"distance_to_center_km":2.459,"facility_count":0,"transit_count":0,"healthcare_count":0,"education_count":0,"park_count":0,"service_diversity":0,"facility_density_km2":0.0,"road_segment_count":148,"road_length_m":7404.47,"road_density_km_km2":14.8417,"intersection_count":36,"elevation_m":485,"terrain_relief_m":5,"source_note":"OSM道路与设施聚合；SRTM高程采样；均为教学裁剪","accessibility_proxy":0.3331,"osm_intensity_class":"较高","core_zone":"内圈"},"geometry":{"type":"Polygon","coordinates":[[[104.0668,30.59155],[104.0743,30.59155],[104.0743,30.5978],[104.0668,30.5978],[104.0668,30.59155]]]}},{"type":"Feature","properties":{"cell_id":"chengdu_01_06","city_id":"chengdu","city_name_zh":"成都","row":1,"column":6,"area_km2":0.4989,"center_lon":104.07805,"center_lat":30.594675,"distance_to_center_km":2.66,"facility_count":0,"transit_count":0,"healthcare_count":0,"education_count":0,"park_count":0,"service_diversity":0,"facility_density_km2":0.0,"road_segment_count":91,"road_length_m":4203.13,"road_density_km_km2":8.4249,"intersection_count":14,"elevation_m":482,"terrain_relief_m":4,"source_note":"OSM道路与设施聚合；SRTM高程采样；均为教学裁剪","accessibility_proxy":0.2296,"osm_intensity_class":"低","core_zone":"内圈"},"geometry":{"type":"Polygon","coordinates":[[[104.0743,30.59155],[104.0818,30.59155],[104.0818,30.5978],[104.0743,30.5978],[104.0743,30.59155]]]}},{"type":"Feature","properties":{"cell_id":"chengdu_01_07","city_id":"chengdu","city_name_zh":"成都","row":1,"column":7,"area_km2":0.4989,"center_lon":104.08555,"center_lat":30.594675,"distance_to_center_km":3.023,"facility_count":1,"transit_count":1,"healthcare_count":0,"education_count":0,"park_count":0,"service_diversity":1,"facility_density_km2":2.0044,"road_segment_count":90,"road_length_m":5271.85,"road_density_km_km2":10.567,"intersection_count":16,"elevation_m":482,"terrain_relief_m":3,"source_note":"OSM道路与设施聚合；SRTM高程采样；均为教学裁剪","accessibility_proxy":0.29,"osm_intensity_class":"较低","core_zone":"外圈"},"geometry":{"type":"Polygon","coordinates":[[[104.0818,30.59155],[104.0893,30.59155],[104.0893,30.5978],[104.0818,30.5978],[104.0818,30.59155]]]}},{"type":"Feature","properties":{"cell_id":"chengdu_01_08","city_id":"chengdu","city_name_zh":"成都","row":1,"column":8,"area_km2":0.4989,"center_lon":104.09305,"center_lat":30.594675,"distance_to_center_km":3.497,"facility_count":0,"transit_count":0,"healthcare_count":0,"education_count":0,"park_count":0,"service_diversity":0,"facility_density_km2":0.0,"road_segment_count":126,"road_length_m":6577.05,"road_density_km_km2":13.1832,"intersection_count":15,"elevation_m":490,"terrain_relief_m":20,"source_note":"OSM道路与设施聚合；SRTM高程采样；均为教学裁剪","accessibility_proxy":0.2759,"osm_intensity_class":"较低","core_zone":"外圈"},"geometry":{"type":"Polygon","coordinates":[[[104.0893,30.59155],[104.0968,30.59155],[104.0968,30.5978],[104.0893,30.5978],[104.0893,30.59155]]]}},{"type":"Feature","properties":{"cell_id":"chengdu_02_01","city_id":"chengdu","city_name_zh":"成都","row":2,"column":1,"area_km2":0.4989,"center_lon":104.04055,"center_lat":30.588425,"distance_to_center_km":3.055,"facility_count":1,"transit_count":1,"healthcare_count":0,"education_count":0,"park_count":0,"service_diversity":1,"facility_density_km2":2.0043,"road_segment_count":48,"road_length_m":5336.0,"road_density_km_km2":10.6949,"intersection_count":15,"elevation_m":489,"terrain_relief_m":6,"source_note":"OSM道路与设施聚合；SRTM高程采样；均为教学裁剪","accessibility_proxy":0.2909,"osm_intensity_class":"较低","core_zone":"外圈"},"geometry":{"type":"Polygon","coordinates":[[[104.0368,30.5853],[104.0443,30.5853],[104.0443,30.59155],[104.0368,30.59155],[104.0368,30.5853]]]}},{"type":"Feature","properties":{"cell_id":"chengdu_02_02","city_id":"chengdu","city_name_zh":"成都","row":2,"column":2,"area_km2":0.4989,"center_lon":104.04805,"center_lat":30.588425,"distance_to_center_km":2.498,"facility_count":2,"transit_count":1,"healthcare_count":1,"education_count":0,"park_count":0,"service_diversity":2,"facility_density_km2":4.0086,"road_segment_count":29,"road_length_m":4104.61,"road_density_km_km2":8.2269,"intersection_count":9,"elevation_m":488,"terrain_relief_m":8,"source_note":"OSM道路与设施聚合；SRTM高程采样；均为教学裁剪","accessibility_proxy":0.3123,"osm_intensity_class":"较高","core_zone":"内圈"},"geometry":{"type":"Polygon","coordinates":[[[104.0443,30.5853],[104.0518,30.5853],[104.0518,30.59155],[104.0443,30.59155],[104.0443,30.5853]]]}},{"type":"Feature","properties":{"cell_id":"chengdu_02_03","city_id":"chengdu","city_name_zh":"成都","row":2,"column":3,"area_km2":0.4989,"center_lon":104.05555,"center_lat":30.588425,"distance_to_center_km":2.044,"facility_count":2,"transit_count":1,"healthcare_count":1,"education_count":0,"park_count":0,"service_diversity":2,"facility_density_km2":4.0086,"road_segment_count":116,"road_length_m":8344.65,"road_density_km_km2":16.7252,"intersection_count":27,"elevation_m":491,"terrain_relief_m":6,"source_note":"OSM道路与设施聚合；SRTM高程采样；均为教学裁剪","accessibility_proxy":0.4577,"osm_intensity_class":"高","core_zone":"内圈"},"geometry":{"type":"Polygon","coordinates":[[[104.0518,30.5853],[104.0593,30.5853],[104.0593,30.59155],[104.0518,30.59155],[104.0518,30.5853]]]}},{"type":"Feature","properties":{"cell_id":"chengdu_02_04","city_id":"chengdu","city_name_zh":"成都","row":2,"column":4,"area_km2":0.4989,"center_lon":104.06305,"center_lat":30.588425,"distance_to_center_km":1.774,"facility_count":1,"transit_count":1,"healthcare_count":0,"education_count":0,"park_count":0,"service_diversity":1,"facility_density_km2":2.0043,"road_segment_count":205,"road_length_m":11625.8,"road_density_km_km2":23.3016,"intersection_count":64,"elevation_m":485,"terrain_relief_m":3,"source_note":"OSM道路与设施聚合；SRTM高程采样；均为教学裁剪","accessibility_proxy":0.5284,"osm_intensity_class":"高","core_zone":"内圈"},"geometry":{"type":"Polygon","coordinates":[[[104.0593,30.5853],[104.0668,30.5853],[104.0668,30.59155],[104.0593,30.59155],[104.0593,30.5853]]]}},{"type":"Feature","properties":{"cell_id":"chengdu_02_05","city_id":"chengdu","city_name_zh":"成都","row":2,"column":5,"area_km2":0.4989,"center_lon":104.07055,"center_lat":30.588425,"distance_to_center_km":1.774,"facility_count":2,"transit_count":2,"healthcare_count":0,"education_count":0,"park_count":0,"service_diversity":1,"facility_density_km2":4.0086,"road_segment_count":149,"road_length_m":7952.42,"road_density_km_km2":15.939,"intersection_count":30,"elevation_m":484,"terrain_relief_m":5,"source_note":"OSM道路与设施聚合；SRTM高程采样；均为教学裁剪","accessibility_proxy":0.4578,"osm_intensity_class":"高","core_zone":"内圈"},"geometry":{"type":"Polygon","coordinates":[[[104.0668,30.5853],[104.0743,30.5853],[104.0743,30.59155],[104.0668,30.59155],[104.0668,30.5853]]]}},{"type":"Feature","properties":{"cell_id":"chengdu_02_06","city_id":"chengdu","city_name_zh":"成都","row":2,"column":6,"area_km2":0.4989,"center_lon":104.07805,"center_lat":30.588425,"distance_to_center_km":2.044,"facility_count":0,"transit_count":0,"healthcare_count":0,"education_count":0,"park_count":0,"service_diversity":0,"facility_density_km2":0.0,"road_segment_count":97,"road_length_m":6479.9,"road_density_km_km2":12.9877,"intersection_count":21,"elevation_m":479,"terrain_relief_m":5,"source_note":"OSM道路与设施聚合；SRTM高程采样；均为教学裁剪","accessibility_proxy":0.3216,"osm_intensity_class":"较高","core_zone":"内圈"},"geometry":{"type":"Polygon","coordinates":[[[104.0743,30.5853],[104.0818,30.5853],[104.0818,30.59155],[104.0743,30.59155],[104.0743,30.5853]]]}},{"type":"Feature","properties":{"cell_id":"chengdu_02_07","city_id":"chengdu","city_name_zh":"成都","row":2,"column":7,"area_km2":0.4989,"center_lon":104.08555,"center_lat":30.588425,"distance_to_center_km":2.498,"facility_count":0,"transit_count":0,"healthcare_count":0,"education_count":0,"park_count":0,"service_diversity":0,"facility_density_km2":0.0,"road_segment_count":97,"road_length_m":7231.24,"road_density_km_km2":14.4936,"intersection_count":26,"elevation_m":480,"terrain_relief_m":3,"source_note":"OSM道路与设施聚合；SRTM高程采样；均为教学裁剪","accessibility_proxy":0.3264,"osm_intensity_class":"较高","core_zone":"内圈"},"geometry":{"type":"Polygon","coordinates":[[[104.0818,30.5853],[104.0893,30.5853],[104.0893,30.59155],[104.0818,30.59155],[104.0818,30.5853]]]}},{"type":"Feature","properties":{"cell_id":"chengdu_02_08","city_id":"chengdu","city_name_zh":"成都","row":2,"column":8,"area_km2":0.4989,"center_lon":104.09305,"center_lat":30.588425,"distance_to_center_km":3.055,"facility_count":0,"transit_count":0,"healthcare_count":0,"education_count":0,"park_count":0,"service_diversity":0,"facility_density_km2":0.0,"road_segment_count":72,"road_length_m":4562.81,"road_density_km_km2":9.1452,"intersection_count":13,"elevation_m":502,"terrain_relief_m":20,"source_note":"OSM道路与设施聚合；SRTM高程采样；均为教学裁剪","accessibility_proxy":0.2277,"osm_intensity_class":"低","core_zone":"外圈"},"geometry":{"type":"Polygon","coordinates":[[[104.0893,30.5853],[104.0968,30.5853],[104.0968,30.59155],[104.0893,30.59155],[104.0893,30.5853]]]}},{"type":"Feature","properties":{"cell_id":"chengdu_03_01","city_id":"chengdu","city_name_zh":"成都","row":3,"column":1,"area_km2":0.499,"center_lon":104.04055,"center_lat":30.582175,"distance_to_center_km":2.721,"facility_count":0,"transit_count":0,"healthcare_count":0,"education_count":0,"park_count":0,"service_diversity":0,"facility_density_km2":0.0,"road_segment_count":115,"road_length_m":7146.63,"road_density_km_km2":14.3231,"intersection_count":37,"elevation_m":488,"terrain_relief_m":5,"source_note":"OSM道路与设施聚合；SRTM高程采样；均为教学裁剪","accessibility_proxy":0.3161,"osm_intensity_class":"较高","core_zone":"内圈"},"geometry":{"type":"Polygon","coordinates":[[[104.0368,30.57905],[104.0443,30.57905],[104.0443,30.5853],[104.0368,30.5853],[104.0368,30.57905]]]}},{"type":"Feature","properties":{"cell_id":"chengdu_03_02","city_id":"chengdu","city_name_zh":"成都","row":3,"column":2,"area_km2":0.499,"center_lon":104.04805,"center_lat":30.582175,"distance_to_center_km":2.076,"facility_count":1,"transit_count":1,"healthcare_count":0,"education_count":0,"park_count":0,"service_diversity":1,"facility_density_km2":2.0042,"road_segment_count":28,"road_length_m":3462.06,"road_density_km_km2":6.9386,"intersection_count":6,"elevation_m":491,"terrain_relief_m":4,"source_note":"OSM道路与设施聚合；SRTM高程采样；均为教学裁剪","accessibility_proxy":0.2694,"osm_intensity_class":"较低","core_zone":"内圈"},"geometry":{"type":"Polygon","coordinates":[[[104.0443,30.57905],[104.0518,30.57905],[104.0518,30.5853],[104.0443,30.5853],[104.0443,30.57905]]]}},{"type":"Feature","properties":{"cell_id":"chengdu_03_03","city_id":"chengdu","city_name_zh":"成都","row":3,"column":3,"area_km2":0.499,"center_lon":104.05555,"center_lat":30.582175,"distance_to_center_km":1.499,"facility_count":0,"transit_count":0,"healthcare_count":0,"education_count":0,"park_count":0,"service_diversity":0,"facility_density_km2":0.0,"road_segment_count":70,"road_length_m":7013.72,"road_density_km_km2":14.0567,"intersection_count":19,"elevation_m":486,"terrain_relief_m":3,"source_note":"OSM道路与设施聚合；SRTM高程采样；均为教学裁剪","accessibility_proxy":0.3628,"osm_intensity_class":"较高","core_zone":"核心"},"geometry":{"type":"Polygon","coordinates":[[[104.0518,30.57905],[104.0593,30.57905],[104.0593,30.5853],[104.0518,30.5853],[104.0518,30.57905]]]}},{"type":"Feature","properties":{"cell_id":"chengdu_03_04","city_id":"chengdu","city_name_zh":"成都","row":3,"column":4,"area_km2":0.499,"center_lon":104.06305,"center_lat":30.582175,"distance_to_center_km":1.103,"facility_count":4,"transit_count":4,"healthcare_count":0,"education_count":0,"park_count":0,"service_diversity":1,"facility_density_km2":8.0167,"road_segment_count":131,"road_length_m":9314.9,"road_density_km_km2":18.6686,"intersection_count":43,"elevation_m":486,"terrain_relief_m":3,"source_note":"OSM道路与设施聚合；SRTM高程采样；均为教学裁剪","accessibility_proxy":0.6135,"osm_intensity_class":"高","core_zone":"核心"},"geometry":{"type":"Polygon","coordinates":[[[104.0593,30.57905],[104.0668,30.57905],[104.0668,30.5853],[104.0593,30.5853],[104.0593,30.57905]]]}},{"type":"Feature","properties":{"cell_id":"chengdu_03_05","city_id":"chengdu","city_name_zh":"成都","row":3,"column":5,"area_km2":0.499,"center_lon":104.07055,"center_lat":30.582175,"distance_to_center_km":1.103,"facility_count":0,"transit_count":0,"healthcare_count":0,"education_count":0,"park_count":0,"service_diversity":0,"facility_density_km2":0.0,"road_segment_count":87,"road_length_m":7437.57,"road_density_km_km2":14.9062,"intersection_count":25,"elevation_m":481,"terrain_relief_m":9,"source_note":"OSM道路与设施聚合；SRTM高程采样；均为教学裁剪","accessibility_proxy":0.397,"osm_intensity_class":"高","core_zone":"核心"},"geometry":{"type":"Polygon","coordinates":[[[104.0668,30.57905],[104.0743,30.57905],[104.0743,30.5853],[104.0668,30.5853],[104.0668,30.57905]]]}},{"type":"Feature","properties":{"cell_id":"chengdu_03_06","city_id":"chengdu","city_name_zh":"成都","row":3,"column":6,"area_km2":0.499,"center_lon":104.07805,"center_lat":30.582175,"distance_to_center_km":1.499,"facility_count":2,"transit_count":2,"healthcare_count":0,"education_count":0,"park_count":0,"service_diversity":1,"facility_density_km2":4.0083,"road_segment_count":89,"road_length_m":5477.67,"road_density_km_km2":10.9782,"intersection_count":16,"elevation_m":478,"terrain_relief_m":7,"source_note":"OSM道路与设施聚合；SRTM高程采样；均为教学裁剪","accessibility_proxy":0.3966,"osm_intensity_class":"较高","core_zone":"核心"},"geometry":{"type":"Polygon","coordinates":[[[104.0743,30.57905],[104.0818,30.57905],[104.0818,30.5853],[104.0743,30.5853],[104.0743,30.57905]]]}},{"type":"Feature","properties":{"cell_id":"chengdu_03_07","city_id":"chengdu","city_name_zh":"成都","row":3,"column":7,"area_km2":0.499,"center_lon":104.08555,"center_lat":30.582175,"distance_to_center_km":2.076,"facility_count":3,"transit_count":3,"healthcare_count":0,"education_count":0,"park_count":0,"service_diversity":1,"facility_density_km2":6.0125,"road_segment_count":105,"road_length_m":8898.4,"road_density_km_km2":17.8339,"intersection_count":31,"elevation_m":481,"terrain_relief_m":4,"source_note":"OSM道路与设施聚合；SRTM高程采样；均为教学裁剪","accessibility_proxy":0.513,"osm_intensity_class":"高","core_zone":"内圈"},"geometry":{"type":"Polygon","coordinates":[[[104.0818,30.57905],[104.0893,30.57905],[104.0893,30.5853],[104.0818,30.5853],[104.0818,30.57905]]]}},{"type":"Feature","properties":{"cell_id":"chengdu_03_08","city_id":"chengdu","city_name_zh":"成都","row":3,"column":8,"area_km2":0.499,"center_lon":104.09305,"center_lat":30.582175,"distance_to_center_km":2.721,"facility_count":0,"transit_count":0,"healthcare_count":0,"education_count":0,"park_count":0,"service_diversity":0,"facility_density_km2":0.0,"road_segment_count":28,"road_length_m":2037.25,"road_density_km_km2":4.083,"intersection_count":7,"elevation_m":492,"terrain_relief_m":19,"source_note":"OSM道路与设施聚合；SRTM高程采样；均为教学裁剪","accessibility_proxy":0.1623,"osm_intensity_class":"低","core_zone":"内圈"},"geometry":{"type":"Polygon","coordinates":[[[104.0893,30.57905],[104.0968,30.57905],[104.0968,30.5853],[104.0893,30.5853],[104.0893,30.57905]]]}},{"type":"Feature","properties":{"cell_id":"chengdu_04_01","city_id":"chengdu","city_name_zh":"成都","row":4,"column":1,"area_km2":0.499,"center_lon":104.04055,"center_lat":30.575925,"distance_to_center_km":2.537,"facility_count":0,"transit_count":0,"healthcare_count":0,"education_count":0,"park_count":0,"service_diversity":0,"facility_density_km2":0.0,"road_segment_count":76,"road_length_m":3558.89,"road_density_km_km2":7.1322,"intersection_count":13,"elevation_m":486,"terrain_relief_m":4,"source_note":"OSM道路与设施聚合；SRTM高程采样；均为教学裁剪","accessibility_proxy":0.2144,"osm_intensity_class":"低","core_zone":"内圈"},"geometry":{"type":"Polygon","coordinates":[[[104.0368,30.5728],[104.0443,30.5728],[104.0443,30.57905],[104.0368,30.57905],[104.0368,30.5728]]]}},{"type":"Feature","properties":{"cell_id":"chengdu_04_02","city_id":"chengdu","city_name_zh":"成都","row":4,"column":2,"area_km2":0.499,"center_lon":104.04805,"center_lat":30.575925,"distance_to_center_km":1.828,"facility_count":2,"transit_count":2,"healthcare_count":0,"education_count":0,"park_count":0,"service_diversity":1,"facility_density_km2":4.0081,"road_segment_count":148,"road_length_m":5167.0,"road_density_km_km2":10.3549,"intersection_count":21,"elevation_m":488,"terrain_relief_m":4,"source_note":"OSM道路与设施聚合；SRTM高程采样；均为教学裁剪","accessibility_proxy":0.3715,"osm_intensity_class":"较高","core_zone":"内圈"},"geometry":{"type":"Polygon","coordinates":[[[104.0443,30.5728],[104.0518,30.5728],[104.0518,30.57905],[104.0443,30.57905],[104.0443,30.5728]]]}},{"type":"Feature","properties":{"cell_id":"chengdu_04_03","city_id":"chengdu","city_name_zh":"成都","row":4,"column":3,"area_km2":0.499,"center_lon":104.05555,"center_lat":30.575925,"distance_to_center_km":1.132,"facility_count":0,"transit_count":0,"healthcare_count":0,"education_count":0,"park_count":0,"service_diversity":0,"facility_density_km2":0.0,"road_segment_count":152,"road_length_m":9112.23,"road_density_km_km2":18.2613,"intersection_count":35,"elevation_m":484,"terrain_relief_m":4,"source_note":"OSM道路与设施聚合；SRTM高程采样；均为教学裁剪","accessibility_proxy":0.4457,"osm_intensity_class":"高","core_zone":"核心"},"geometry":{"type":"Polygon","coordinates":[[[104.0518,30.5728],[104.0593,30.5728],[104.0593,30.57905],[104.0518,30.57905],[104.0518,30.5728]]]}},{"type":"Feature","properties":{"cell_id":"chengdu_04_04","city_id":"chengdu","city_name_zh":"成都","row":4,"column":4,"area_km2":0.499,"center_lon":104.06305,"center_lat":30.575925,"distance_to_center_km":0.5,"facility_count":10,"transit_count":10,"healthcare_count":0,"education_count":0,"park_count":0,"service_diversity":1,"facility_density_km2":20.0404,"road_segment_count":143,"road_length_m":8801.35,"road_density_km_km2":17.6383,"intersection_count":28,"elevation_m":484,"terrain_relief_m":3,"source_note":"OSM道路与设施聚合；SRTM高程采样；均为教学裁剪","accessibility_proxy":0.8766,"osm_intensity_class":"高","core_zone":"核心"},"geometry":{"type":"Polygon","coordinates":[[[104.0593,30.5728],[104.0668,30.5728],[104.0668,30.57905],[104.0593,30.57905],[104.0593,30.5728]]]}},{"type":"Feature","properties":{"cell_id":"chengdu_04_05","city_id":"chengdu","city_name_zh":"成都","row":4,"column":5,"area_km2":0.499,"center_lon":104.07055,"center_lat":30.575925,"distance_to_center_km":0.5,"facility_count":1,"transit_count":1,"healthcare_count":0,"education_count":0,"park_count":0,"service_diversity":1,"facility_density_km2":2.004,"road_segment_count":123,"road_length_m":6293.5,"road_density_km_km2":12.6124,"intersection_count":21,"elevation_m":477,"terrain_relief_m":9,"source_note":"OSM道路与设施聚合；SRTM高程采样；均为教学裁剪","accessibility_proxy":0.4411,"osm_intensity_class":"高","core_zone":"核心"},"geometry":{"type":"Polygon","coordinates":[[[104.0668,30.5728],[104.0743,30.5728],[104.0743,30.57905],[104.0668,30.57905],[104.0668,30.5728]]]}},{"type":"Feature","properties":{"cell_id":"chengdu_04_06","city_id":"chengdu","city_name_zh":"成都","row":4,"column":6,"area_km2":0.499,"center_lon":104.07805,"center_lat":30.575925,"distance_to_center_km":1.132,"facility_count":0,"transit_count":0,"healthcare_count":0,"education_count":0,"park_count":0,"service_diversity":0,"facility_density_km2":0.0,"road_segment_count":112,"road_length_m":5222.11,"road_density_km_km2":10.4653,"intersection_count":12,"elevation_m":480,"terrain_relief_m":4,"source_note":"OSM道路与设施聚合；SRTM高程采样；均为教学裁剪","accessibility_proxy":0.3286,"osm_intensity_class":"较高","core_zone":"核心"},"geometry":{"type":"Polygon","coordinates":[[[104.0743,30.5728],[104.0818,30.5728],[104.0818,30.57905],[104.0743,30.57905],[104.0743,30.5728]]]}},{"type":"Feature","properties":{"cell_id":"chengdu_04_07","city_id":"chengdu","city_name_zh":"成都","row":4,"column":7,"area_km2":0.499,"center_lon":104.08555,"center_lat":30.575925,"distance_to_center_km":1.828,"facility_count":0,"transit_count":0,"healthcare_count":0,"education_count":0,"park_count":0,"service_diversity":0,"facility_density_km2":0.0,"road_segment_count":74,"road_length_m":5769.98,"road_density_km_km2":11.5633,"intersection_count":20,"elevation_m":482,"terrain_relief_m":6,"source_note":"OSM道路与设施聚合；SRTM高程采样；均为教学裁剪","accessibility_proxy":0.3096,"osm_intensity_class":"较低","core_zone":"内圈"},"geometry":{"type":"Polygon","coordinates":[[[104.0818,30.5728],[104.0893,30.5728],[104.0893,30.57905],[104.0818,30.57905],[104.0818,30.5728]]]}},{"type":"Feature","properties":{"cell_id":"chengdu_04_08","city_id":"chengdu","city_name_zh":"成都","row":4,"column":8,"area_km2":0.499,"center_lon":104.09305,"center_lat":30.575925,"distance_to_center_km":2.537,"facility_count":0,"transit_count":0,"healthcare_count":0,"education_count":0,"park_count":0,"service_diversity":0,"facility_density_km2":0.0,"road_segment_count":47,"road_length_m":3657.94,"road_density_km_km2":7.3307,"intersection_count":12,"elevation_m":480,"terrain_relief_m":16,"source_note":"OSM道路与设施聚合；SRTM高程采样；均为教学裁剪","accessibility_proxy":0.2174,"osm_intensity_class":"低","core_zone":"内圈"},"geometry":{"type":"Polygon","coordinates":[[[104.0893,30.5728],[104.0968,30.5728],[104.0968,30.57905],[104.0893,30.57905],[104.0893,30.5728]]]}},{"type":"Feature","properties":{"cell_id":"chengdu_05_01","city_id":"chengdu","city_name_zh":"成都","row":5,"column":1,"area_km2":0.499,"center_lon":104.04055,"center_lat":30.569675,"distance_to_center_km":2.537,"facility_count":2,"transit_count":2,"healthcare_count":0,"education_count":0,"park_count":0,"service_diversity":1,"facility_density_km2":4.0078,"road_segment_count":142,"road_length_m":3379.94,"road_density_km_km2":6.7731,"intersection_count":11,"elevation_m":480,"terrain_relief_m":9,"source_note":"OSM道路与设施聚合；SRTM高程采样；均为教学裁剪","accessibility_proxy":0.289,"osm_intensity_class":"较低","core_zone":"内圈"},"geometry":{"type":"Polygon","coordinates":[[[104.0368,30.56655],[104.0443,30.56655],[104.0443,30.5728],[104.0368,30.5728],[104.0368,30.56655]]]}},{"type":"Feature","properties":{"cell_id":"chengdu_05_02","city_id":"chengdu","city_name_zh":"成都","row":5,"column":2,"area_km2":0.499,"center_lon":104.04805,"center_lat":30.569675,"distance_to_center_km":1.828,"facility_count":0,"transit_count":0,"healthcare_count":0,"education_count":0,"park_count":0,"service_diversity":0,"facility_density_km2":0.0,"road_segment_count":59,"road_length_m":1289.43,"road_density_km_km2":2.5839,"intersection_count":2,"elevation_m":485,"terrain_relief_m":4,"source_note":"OSM道路与设施聚合；SRTM高程采样；均为教学裁剪","accessibility_proxy":0.1747,"osm_intensity_class":"低","core_zone":"内圈"},"geometry":{"type":"Polygon","coordinates":[[[104.0443,30.56655],[104.0518,30.56655],[104.0518,30.5728],[104.0443,30.5728],[104.0443,30.56655]]]}},{"type":"Feature","properties":{"cell_id":"chengdu_05_03","city_id":"chengdu","city_name_zh":"成都","row":5,"column":3,"area_km2":0.499,"center_lon":104.05555,"center_lat":30.569675,"distance_to_center_km":1.132,"facility_count":0,"transit_count":0,"healthcare_count":0,"education_count":0,"park_count":0,"service_diversity":0,"facility_density_km2":0.0,"road_segment_count":29,"road_length_m":2313.0,"road_density_km_km2":4.635,"intersection_count":3,"elevation_m":485,"terrain_relief_m":4,"source_note":"OSM道路与设施聚合；SRTM高程采样；均为教学裁剪","accessibility_proxy":0.241,"osm_intensity_class":"低","core_zone":"核心"},"geometry":{"type":"Polygon","coordinates":[[[104.0518,30.56655],[104.0593,30.56655],[104.0593,30.5728],[104.0518,30.5728],[104.0518,30.56655]]]}},{"type":"Feature","properties":{"cell_id":"chengdu_05_04","city_id":"chengdu","city_name_zh":"成都","row":5,"column":4,"area_km2":0.499,"center_lon":104.06305,"center_lat":30.569675,"distance_to_center_km":0.5,"facility_count":4,"transit_count":4,"healthcare_count":0,"education_count":0,"park_count":0,"service_diversity":1,"facility_density_km2":8.0156,"road_segment_count":72,"road_length_m":4245.0,"road_density_km_km2":8.5066,"intersection_count":8,"elevation_m":482,"terrain_relief_m":6,"source_note":"OSM道路与设施聚合；SRTM高程采样；均为教学裁剪","accessibility_proxy":0.4994,"osm_intensity_class":"高","core_zone":"核心"},"geometry":{"type":"Polygon","coordinates":[[[104.0593,30.56655],[104.0668,30.56655],[104.0668,30.5728],[104.0593,30.5728],[104.0593,30.56655]]]}},{"type":"Feature","properties":{"cell_id":"chengdu_05_05","city_id":"chengdu","city_name_zh":"成都","row":5,"column":5,"area_km2":0.499,"center_lon":104.07055,"center_lat":30.569675,"distance_to_center_km":0.5,"facility_count":0,"transit_count":0,"healthcare_count":0,"education_count":0,"park_count":0,"service_diversity":0,"facility_density_km2":0.0,"road_segment_count":28,"road_length_m":984.72,"road_density_km_km2":1.9733,"intersection_count":1,"elevation_m":482,"terrain_relief_m":9,"source_note":"OSM道路与设施聚合；SRTM高程采样；均为教学裁剪","accessibility_proxy":0.2413,"osm_intensity_class":"低","core_zone":"核心"},"geometry":{"type":"Polygon","coordinates":[[[104.0668,30.56655],[104.0743,30.56655],[104.0743,30.5728],[104.0668,30.5728],[104.0668,30.56655]]]}},{"type":"Feature","properties":{"cell_id":"chengdu_05_06","city_id":"chengdu","city_name_zh":"成都","row":5,"column":6,"area_km2":0.499,"center_lon":104.07805,"center_lat":30.569675,"distance_to_center_km":1.132,"facility_count":0,"transit_count":0,"healthcare_count":0,"education_count":0,"park_count":0,"service_diversity":0,"facility_density_km2":0.0,"road_segment_count":61,"road_length_m":1955.35,"road_density_km_km2":3.9183,"intersection_count":0,"elevation_m":476,"terrain_relief_m":4,"source_note":"OSM道路与设施聚合；SRTM高程采样；均为教学裁剪","accessibility_proxy":0.2303,"osm_intensity_class":"低","core_zone":"核心"},"geometry":{"type":"Polygon","coordinates":[[[104.0743,30.56655],[104.0818,30.56655],[104.0818,30.5728],[104.0743,30.5728],[104.0743,30.56655]]]}},{"type":"Feature","properties":{"cell_id":"chengdu_05_07","city_id":"chengdu","city_name_zh":"成都","row":5,"column":7,"area_km2":0.499,"center_lon":104.08555,"center_lat":30.569675,"distance_to_center_km":1.828,"facility_count":0,"transit_count":0,"healthcare_count":0,"education_count":0,"park_count":0,"service_diversity":0,"facility_density_km2":0.0,"road_segment_count":15,"road_length_m":819.83,"road_density_km_km2":1.6429,"intersection_count":0,"elevation_m":481,"terrain_relief_m":5,"source_note":"OSM道路与设施聚合；SRTM高程采样；均为教学裁剪","accessibility_proxy":0.1606,"osm_intensity_class":"低","core_zone":"内圈"},"geometry":{"type":"Polygon","coordinates":[[[104.0818,30.56655],[104.0893,30.56655],[104.0893,30.5728],[104.0818,30.5728],[104.0818,30.56655]]]}},{"type":"Feature","properties":{"cell_id":"chengdu_05_08","city_id":"chengdu","city_name_zh":"成都","row":5,"column":8,"area_km2":0.499,"center_lon":104.09305,"center_lat":30.569675,"distance_to_center_km":2.537,"facility_count":0,"transit_count":0,"healthcare_count":0,"education_count":0,"park_count":0,"service_diversity":0,"facility_density_km2":0.0,"road_segment_count":34,"road_length_m":1720.01,"road_density_km_km2":3.4467,"intersection_count":3,"elevation_m":482,"terrain_relief_m":5,"source_note":"OSM道路与设施聚合；SRTM高程采样；均为教学裁剪","accessibility_proxy":0.1591,"osm_intensity_class":"低","core_zone":"内圈"},"geometry":{"type":"Polygon","coordinates":[[[104.0893,30.56655],[104.0968,30.56655],[104.0968,30.5728],[104.0893,30.5728],[104.0893,30.56655]]]}},{"type":"Feature","properties":{"cell_id":"chengdu_06_01","city_id":"chengdu","city_name_zh":"成都","row":6,"column":1,"area_km2":0.4991,"center_lon":104.04055,"center_lat":30.563425,"distance_to_center_km":2.721,"facility_count":2,"transit_count":2,"healthcare_count":0,"education_count":0,"park_count":0,"service_diversity":1,"facility_density_km2":4.0076,"road_segment_count":50,"road_length_m":4176.46,"road_density_km_km2":8.3687,"intersection_count":12,"elevation_m":482,"terrain_relief_m":4,"source_note":"OSM道路与设施聚合；SRTM高程采样；均为教学裁剪","accessibility_proxy":0.3066,"osm_intensity_class":"较低","core_zone":"内圈"},"geometry":{"type":"Polygon","coordinates":[[[104.0368,30.5603],[104.0443,30.5603],[104.0443,30.56655],[104.0368,30.56655],[104.0368,30.5603]]]}},{"type":"Feature","properties":{"cell_id":"chengdu_06_02","city_id":"chengdu","city_name_zh":"成都","row":6,"column":2,"area_km2":0.4991,"center_lon":104.04805,"center_lat":30.563425,"distance_to_center_km":2.076,"facility_count":1,"transit_count":1,"healthcare_count":0,"education_count":0,"park_count":0,"service_diversity":1,"facility_density_km2":2.0038,"road_segment_count":112,"road_length_m":6198.95,"road_density_km_km2":12.4214,"intersection_count":21,"elevation_m":483,"terrain_relief_m":5,"source_note":"OSM道路与设施聚合；SRTM高程采样；均为教学裁剪","accessibility_proxy":0.3517,"osm_intensity_class":"较高","core_zone":"内圈"},"geometry":{"type":"Polygon","coordinates":[[[104.0443,30.5603],[104.0518,30.5603],[104.0518,30.56655],[104.0443,30.56655],[104.0443,30.5603]]]}},{"type":"Feature","properties":{"cell_id":"chengdu_06_03","city_id":"chengdu","city_name_zh":"成都","row":6,"column":3,"area_km2":0.4991,"center_lon":104.05555,"center_lat":30.563425,"distance_to_center_km":1.499,"facility_count":0,"transit_count":0,"healthcare_count":0,"education_count":0,"park_count":0,"service_diversity":0,"facility_density_km2":0.0,"road_segment_count":49,"road_length_m":4488.7,"road_density_km_km2":8.9944,"intersection_count":15,"elevation_m":485,"terrain_relief_m":7,"source_note":"OSM道路与设施聚合；SRTM高程采样；均为教学裁剪","accessibility_proxy":0.2868,"osm_intensity_class":"较低","core_zone":"核心"},"geometry":{"type":"Polygon","coordinates":[[[104.0518,30.5603],[104.0593,30.5603],[104.0593,30.56655],[104.0518,30.56655],[104.0518,30.5603]]]}},{"type":"Feature","properties":{"cell_id":"chengdu_06_04","city_id":"chengdu","city_name_zh":"成都","row":6,"column":4,"area_km2":0.4991,"center_lon":104.06305,"center_lat":30.563425,"distance_to_center_km":1.103,"facility_count":0,"transit_count":0,"healthcare_count":0,"education_count":0,"park_count":0,"service_diversity":0,"facility_density_km2":0.0,"road_segment_count":102,"road_length_m":7833.53,"road_density_km_km2":15.6967,"intersection_count":24,"elevation_m":484,"terrain_relief_m":4,"source_note":"OSM道路与设施聚合；SRTM高程采样；均为教学裁剪","accessibility_proxy":0.4089,"osm_intensity_class":"高","core_zone":"核心"},"geometry":{"type":"Polygon","coordinates":[[[104.0593,30.5603],[104.0668,30.5603],[104.0668,30.56655],[104.0593,30.56655],[104.0593,30.5603]]]}},{"type":"Feature","properties":{"cell_id":"chengdu_06_05","city_id":"chengdu","city_name_zh":"成都","row":6,"column":5,"area_km2":0.4991,"center_lon":104.07055,"center_lat":30.563425,"distance_to_center_km":1.103,"facility_count":0,"transit_count":0,"healthcare_count":0,"education_count":0,"park_count":0,"service_diversity":0,"facility_density_km2":0.0,"road_segment_count":63,"road_length_m":2408.39,"road_density_km_km2":4.8259,"intersection_count":7,"elevation_m":478,"terrain_relief_m":10,"source_note":"OSM道路与设施聚合；SRTM高程采样；均为教学裁剪","accessibility_proxy":0.2456,"osm_intensity_class":"较低","core_zone":"核心"},"geometry":{"type":"Polygon","coordinates":[[[104.0668,30.5603],[104.0743,30.5603],[104.0743,30.56655],[104.0668,30.56655],[104.0668,30.5603]]]}},{"type":"Feature","properties":{"cell_id":"chengdu_06_06","city_id":"chengdu","city_name_zh":"成都","row":6,"column":6,"area_km2":0.4991,"center_lon":104.07805,"center_lat":30.563425,"distance_to_center_km":1.499,"facility_count":0,"transit_count":0,"healthcare_count":0,"education_count":0,"park_count":0,"service_diversity":0,"facility_density_km2":0.0,"road_segment_count":176,"road_length_m":6894.68,"road_density_km_km2":13.8154,"intersection_count":18,"elevation_m":474,"terrain_relief_m":5,"source_note":"OSM道路与设施聚合；SRTM高程采样；均为教学裁剪","accessibility_proxy":0.3592,"osm_intensity_class":"较高","core_zone":"核心"},"geometry":{"type":"Polygon","coordinates":[[[104.0743,30.5603],[104.0818,30.5603],[104.0818,30.56655],[104.0743,30.56655],[104.0743,30.5603]]]}},{"type":"Feature","properties":{"cell_id":"chengdu_06_07","city_id":"chengdu","city_name_zh":"成都","row":6,"column":7,"area_km2":0.4991,"center_lon":104.08555,"center_lat":30.563425,"distance_to_center_km":2.076,"facility_count":0,"transit_count":0,"healthcare_count":0,"education_count":0,"park_count":0,"service_diversity":0,"facility_density_km2":0.0,"road_segment_count":82,"road_length_m":5080.04,"road_density_km_km2":10.1793,"intersection_count":20,"elevation_m":478,"terrain_relief_m":9,"source_note":"OSM道路与设施聚合；SRTM高程采样；均为教学裁剪","accessibility_proxy":0.278,"osm_intensity_class":"较低","core_zone":"内圈"},"geometry":{"type":"Polygon","coordinates":[[[104.0818,30.5603],[104.0893,30.5603],[104.0893,30.56655],[104.0818,30.56655],[104.0818,30.5603]]]}},{"type":"Feature","properties":{"cell_id":"chengdu_06_08","city_id":"chengdu","city_name_zh":"成都","row":6,"column":8,"area_km2":0.4991,"center_lon":104.09305,"center_lat":30.563425,"distance_to_center_km":2.721,"facility_count":1,"transit_count":1,"healthcare_count":0,"education_count":0,"park_count":0,"service_diversity":1,"facility_density_km2":2.0038,"road_segment_count":63,"road_length_m":4338.2,"road_density_km_km2":8.6928,"intersection_count":19,"elevation_m":479,"terrain_relief_m":5,"source_note":"OSM道路与设施聚合；SRTM高程采样；均为教学裁剪","accessibility_proxy":0.2715,"osm_intensity_class":"较低","core_zone":"内圈"},"geometry":{"type":"Polygon","coordinates":[[[104.0893,30.5603],[104.0968,30.5603],[104.0968,30.56655],[104.0893,30.56655],[104.0893,30.5603]]]}},{"type":"Feature","properties":{"cell_id":"chengdu_07_01","city_id":"chengdu","city_name_zh":"成都","row":7,"column":1,"area_km2":0.4991,"center_lon":104.04055,"center_lat":30.557175,"distance_to_center_km":3.055,"facility_count":0,"transit_count":0,"healthcare_count":0,"education_count":0,"park_count":0,"service_diversity":0,"facility_density_km2":0.0,"road_segment_count":44,"road_length_m":5152.08,"road_density_km_km2":10.323,"intersection_count":14,"elevation_m":481,"terrain_relief_m":3,"source_note":"OSM道路与设施聚合；SRTM高程采样；均为教学裁剪","accessibility_proxy":0.2454,"osm_intensity_class":"较低","core_zone":"外圈"},"geometry":{"type":"Polygon","coordinates":[[[104.0368,30.55405],[104.0443,30.55405],[104.0443,30.5603],[104.0368,30.5603],[104.0368,30.55405]]]}},{"type":"Feature","properties":{"cell_id":"chengdu_07_02","city_id":"chengdu","city_name_zh":"成都","row":7,"column":2,"area_km2":0.4991,"center_lon":104.04805,"center_lat":30.557175,"distance_to_center_km":2.498,"facility_count":0,"transit_count":0,"healthcare_count":0,"education_count":0,"park_count":0,"service_diversity":0,"facility_density_km2":0.0,"road_segment_count":33,"road_length_m":3379.47,"road_density_km_km2":6.7713,"intersection_count":10,"elevation_m":486,"terrain_relief_m":3,"source_note":"OSM道路与设施聚合；SRTM高程采样；均为教学裁剪","accessibility_proxy":0.2104,"osm_intensity_class":"低","core_zone":"内圈"},"geometry":{"type":"Polygon","coordinates":[[[104.0443,30.55405],[104.0518,30.55405],[104.0518,30.5603],[104.0443,30.5603],[104.0443,30.55405]]]}},{"type":"Feature","properties":{"cell_id":"chengdu_07_03","city_id":"chengdu","city_name_zh":"成都","row":7,"column":3,"area_km2":0.4991,"center_lon":104.05555,"center_lat":30.557175,"distance_to_center_km":2.044,"facility_count":0,"transit_count":0,"healthcare_count":0,"education_count":0,"park_count":0,"service_diversity":0,"facility_density_km2":0.0,"road_segment_count":75,"road_length_m":7774.4,"road_density_km_km2":15.5772,"intersection_count":22,"elevation_m":482,"terrain_relief_m":3,"source_note":"OSM道路与设施聚合；SRTM高程采样；均为教学裁剪","accessibility_proxy":0.3605,"osm_intensity_class":"较高","core_zone":"内圈"},"geometry":{"type":"Polygon","coordinates":[[[104.0518,30.55405],[104.0593,30.55405],[104.0593,30.5603],[104.0518,30.5603],[104.0518,30.55405]]]}},{"type":"Feature","properties":{"cell_id":"chengdu_07_04","city_id":"chengdu","city_name_zh":"成都","row":7,"column":4,"area_km2":0.4991,"center_lon":104.06305,"center_lat":30.557175,"distance_to_center_km":1.774,"facility_count":3,"transit_count":3,"healthcare_count":0,"education_count":0,"park_count":0,"service_diversity":1,"facility_density_km2":6.011,"road_segment_count":109,"road_length_m":9554.95,"road_density_km_km2":19.1448,"intersection_count":31,"elevation_m":483,"terrain_relief_m":4,"source_note":"OSM道路与设施聚合；SRTM高程采样；均为教学裁剪","accessibility_proxy":0.5459,"osm_intensity_class":"高","core_zone":"内圈"},"geometry":{"type":"Polygon","coordinates":[[[104.0593,30.55405],[104.0668,30.55405],[104.0668,30.5603],[104.0593,30.5603],[104.0593,30.55405]]]}},{"type":"Feature","properties":{"cell_id":"chengdu_07_05","city_id":"chengdu","city_name_zh":"成都","row":7,"column":5,"area_km2":0.4991,"center_lon":104.07055,"center_lat":30.557175,"distance_to_center_km":1.774,"facility_count":4,"transit_count":4,"healthcare_count":0,"education_count":0,"park_count":0,"service_diversity":1,"facility_density_km2":8.0146,"road_segment_count":94,"road_length_m":2691.52,"road_density_km_km2":5.3929,"intersection_count":3,"elevation_m":481,"terrain_relief_m":10,"source_note":"OSM道路与设施聚合；SRTM高程采样；均为教学裁剪","accessibility_proxy":0.3794,"osm_intensity_class":"较高","core_zone":"内圈"},"geometry":{"type":"Polygon","coordinates":[[[104.0668,30.55405],[104.0743,30.55405],[104.0743,30.5603],[104.0668,30.5603],[104.0668,30.55405]]]}},{"type":"Feature","properties":{"cell_id":"chengdu_07_06","city_id":"chengdu","city_name_zh":"成都","row":7,"column":6,"area_km2":0.4991,"center_lon":104.07805,"center_lat":30.557175,"distance_to_center_km":2.044,"facility_count":0,"transit_count":0,"healthcare_count":0,"education_count":0,"park_count":0,"service_diversity":0,"facility_density_km2":0.0,"road_segment_count":83,"road_length_m":3653.1,"road_density_km_km2":7.3195,"intersection_count":2,"elevation_m":477,"terrain_relief_m":2,"source_note":"OSM道路与设施聚合；SRTM高程采样；均为教学裁剪","accessibility_proxy":0.2364,"osm_intensity_class":"低","core_zone":"内圈"},"geometry":{"type":"Polygon","coordinates":[[[104.0743,30.55405],[104.0818,30.55405],[104.0818,30.5603],[104.0743,30.5603],[104.0743,30.55405]]]}},{"type":"Feature","properties":{"cell_id":"chengdu_07_07","city_id":"chengdu","city_name_zh":"成都","row":7,"column":7,"area_km2":0.4991,"center_lon":104.08555,"center_lat":30.557175,"distance_to_center_km":2.498,"facility_count":0,"transit_count":0,"healthcare_count":0,"education_count":0,"park_count":0,"service_diversity":0,"facility_density_km2":0.0,"road_segment_count":203,"road_length_m":7141.18,"road_density_km_km2":14.3085,"intersection_count":41,"elevation_m":483,"terrain_relief_m":9,"source_note":"OSM道路与设施聚合；SRTM高程采样；均为教学裁剪","accessibility_proxy":0.3236,"osm_intensity_class":"较高","core_zone":"内圈"},"geometry":{"type":"Polygon","coordinates":[[[104.0818,30.55405],[104.0893,30.55405],[104.0893,30.5603],[104.0818,30.5603],[104.0818,30.55405]]]}},{"type":"Feature","properties":{"cell_id":"chengdu_07_08","city_id":"chengdu","city_name_zh":"成都","row":7,"column":8,"area_km2":0.4991,"center_lon":104.09305,"center_lat":30.557175,"distance_to_center_km":3.055,"facility_count":0,"transit_count":0,"healthcare_count":0,"education_count":0,"park_count":0,"service_diversity":0,"facility_density_km2":0.0,"road_segment_count":57,"road_length_m":4914.03,"road_density_km_km2":9.846,"intersection_count":17,"elevation_m":481,"terrain_relief_m":5,"source_note":"OSM道路与设施聚合；SRTM高程采样；均为教学裁剪","accessibility_proxy":0.2382,"osm_intensity_class":"低","core_zone":"外圈"},"geometry":{"type":"Polygon","coordinates":[[[104.0893,30.55405],[104.0968,30.55405],[104.0968,30.5603],[104.0893,30.5603],[104.0893,30.55405]]]}},{"type":"Feature","properties":{"cell_id":"chengdu_08_01","city_id":"chengdu","city_name_zh":"成都","row":8,"column":1,"area_km2":0.4991,"center_lon":104.04055,"center_lat":30.550925,"distance_to_center_km":3.498,"facility_count":1,"transit_count":1,"healthcare_count":0,"education_count":0,"park_count":0,"service_diversity":1,"facility_density_km2":2.0035,"road_segment_count":55,"road_length_m":5620.52,"road_density_km_km2":11.2609,"intersection_count":16,"elevation_m":480,"terrain_relief_m":4,"source_note":"OSM道路与设施聚合；SRTM高程采样；均为教学裁剪","accessibility_proxy":0.287,"osm_intensity_class":"较低","core_zone":"外圈"},"geometry":{"type":"Polygon","coordinates":[[[104.0368,30.5478],[104.0443,30.5478],[104.0443,30.55405],[104.0368,30.55405],[104.0368,30.5478]]]}},{"type":"Feature","properties":{"cell_id":"chengdu_08_02","city_id":"chengdu","city_name_zh":"成都","row":8,"column":2,"area_km2":0.4991,"center_lon":104.04805,"center_lat":30.550925,"distance_to_center_km":3.023,"facility_count":0,"transit_count":0,"healthcare_count":0,"education_count":0,"park_count":0,"service_diversity":0,"facility_density_km2":0.0,"road_segment_count":27,"road_length_m":3405.66,"road_density_km_km2":6.8233,"intersection_count":5,"elevation_m":485,"terrain_relief_m":3,"source_note":"OSM道路与设施聚合；SRTM高程采样；均为教学裁剪","accessibility_proxy":0.1938,"osm_intensity_class":"低","core_zone":"外圈"},"geometry":{"type":"Polygon","coordinates":[[[104.0443,30.5478],[104.0518,30.5478],[104.0518,30.55405],[104.0443,30.55405],[104.0443,30.5478]]]}},{"type":"Feature","properties":{"cell_id":"chengdu_08_03","city_id":"chengdu","city_name_zh":"成都","row":8,"column":3,"area_km2":0.4991,"center_lon":104.05555,"center_lat":30.550925,"distance_to_center_km":2.66,"facility_count":0,"transit_count":0,"healthcare_count":0,"education_count":0,"park_count":0,"service_diversity":0,"facility_density_km2":0.0,"road_segment_count":87,"road_length_m":7505.39,"road_density_km_km2":15.0372,"intersection_count":31,"elevation_m":481,"terrain_relief_m":3,"source_note":"OSM道路与设施聚合；SRTM高程采样；均为教学裁剪","accessibility_proxy":0.3289,"osm_intensity_class":"较高","core_zone":"内圈"},"geometry":{"type":"Polygon","coordinates":[[[104.0518,30.5478],[104.0593,30.5478],[104.0593,30.55405],[104.0518,30.55405],[104.0518,30.5478]]]}},{"type":"Feature","properties":{"cell_id":"chengdu_08_04","city_id":"chengdu","city_name_zh":"成都","row":8,"column":4,"area_km2":0.4991,"center_lon":104.06305,"center_lat":30.550925,"distance_to_center_km":2.459,"facility_count":3,"transit_count":3,"healthcare_count":0,"education_count":0,"park_count":0,"service_diversity":1,"facility_density_km2":6.0106,"road_segment_count":154,"road_length_m":8834.65,"road_density_km_km2":17.7004,"intersection_count":44,"elevation_m":479,"terrain_relief_m":7,"source_note":"OSM道路与设施聚合；SRTM高程采样；均为教学裁剪","accessibility_proxy":0.496,"osm_intensity_class":"高","core_zone":"内圈"},"geometry":{"type":"Polygon","coordinates":[[[104.0593,30.5478],[104.0668,30.5478],[104.0668,30.55405],[104.0593,30.55405],[104.0593,30.5478]]]}},{"type":"Feature","properties":{"cell_id":"chengdu_08_05","city_id":"chengdu","city_name_zh":"成都","row":8,"column":5,"area_km2":0.4991,"center_lon":104.07055,"center_lat":30.550925,"distance_to_center_km":2.459,"facility_count":2,"transit_count":2,"healthcare_count":0,"education_count":0,"park_count":0,"service_diversity":1,"facility_density_km2":4.0071,"road_segment_count":147,"road_length_m":7369.75,"road_density_km_km2":14.7655,"intersection_count":26,"elevation_m":484,"terrain_relief_m":8,"source_note":"OSM道路与设施聚合；SRTM高程采样；均为教学裁剪","accessibility_proxy":0.4119,"osm_intensity_class":"高","core_zone":"内圈"},"geometry":{"type":"Polygon","coordinates":[[[104.0668,30.5478],[104.0743,30.5478],[104.0743,30.55405],[104.0668,30.55405],[104.0668,30.5478]]]}},{"type":"Feature","properties":{"cell_id":"chengdu_08_06","city_id":"chengdu","city_name_zh":"成都","row":8,"column":6,"area_km2":0.4991,"center_lon":104.07805,"center_lat":30.550925,"distance_to_center_km":2.66,"facility_count":0,"transit_count":0,"healthcare_count":0,"education_count":0,"park_count":0,"service_diversity":0,"facility_density_km2":0.0,"road_segment_count":144,"road_length_m":6348.63,"road_density_km_km2":12.7196,"intersection_count":32,"elevation_m":478,"terrain_relief_m":2,"source_note":"OSM道路与设施聚合；SRTM高程采样；均为教学裁剪","accessibility_proxy":0.2941,"osm_intensity_class":"较低","core_zone":"内圈"},"geometry":{"type":"Polygon","coordinates":[[[104.0743,30.5478],[104.0818,30.5478],[104.0818,30.55405],[104.0743,30.55405],[104.0743,30.5478]]]}},{"type":"Feature","properties":{"cell_id":"chengdu_08_07","city_id":"chengdu","city_name_zh":"成都","row":8,"column":7,"area_km2":0.4991,"center_lon":104.08555,"center_lat":30.550925,"distance_to_center_km":3.023,"facility_count":0,"transit_count":0,"healthcare_count":0,"education_count":0,"park_count":0,"service_diversity":0,"facility_density_km2":0.0,"road_segment_count":77,"road_length_m":5586.77,"road_density_km_km2":11.1932,"intersection_count":24,"elevation_m":475,"terrain_relief_m":7,"source_note":"OSM道路与设施聚合；SRTM高程采样；均为教学裁剪","accessibility_proxy":0.2594,"osm_intensity_class":"较低","core_zone":"外圈"},"geometry":{"type":"Polygon","coordinates":[[[104.0818,30.5478],[104.0893,30.5478],[104.0893,30.55405],[104.0818,30.55405],[104.0818,30.5478]]]}},{"type":"Feature","properties":{"cell_id":"chengdu_08_08","city_id":"chengdu","city_name_zh":"成都","row":8,"column":8,"area_km2":0.4991,"center_lon":104.09305,"center_lat":30.550925,"distance_to_center_km":3.498,"facility_count":5,"transit_count":5,"healthcare_count":0,"education_count":0,"park_count":0,"service_diversity":1,"facility_density_km2":10.0176,"road_segment_count":113,"road_length_m":8063.02,"road_density_km_km2":16.1545,"intersection_count":30,"elevation_m":479,"terrain_relief_m":7,"source_note":"OSM道路与设施聚合；SRTM高程采样；均为教学裁剪","accessibility_proxy":0.5205,"osm_intensity_class":"高","core_zone":"外圈"},"geometry":{"type":"Polygon","coordinates":[[[104.0893,30.5478],[104.0968,30.5478],[104.0968,30.55405],[104.0893,30.55405],[104.0893,30.5478]]]}}]}