{"type":"FeatureCollection","name":"chengdu_ghsl_boundary","crs":{"type":"name","properties":{"name":"urn:ogc:def:crs:OGC:1.3:CRS84"}},"features":[{"type":"Feature","properties":{"uc_id":6378,"city_name_en":"Chengdu","city_name_zh":"成都","country":"China","urban_area_km2_2025":867,"population_2025":5609626,"population_density_km2_2025":6470.16,"gdp_average_ppp_1990":8180355,"gdp_average_ppp_2000":21674680,"gdp_average_ppp_2010":71525830,"gdp_average_ppp_2020":99238950,"gdp_total_ppp_1990":9562834944,"gdp_total_ppp_2000":25381048320,"gdp_total_ppp_2010":83756752896,"gdp_total_ppp_2020":116000000000,"hdi_1990":0.44,"hdi_2000":0.542,"hdi_2010":0.651,"hdi_2020":0.736},"geometry":{"type":"Polygon","coordinates":[[[104.002728631773,30.8912432302954],[104.024667821241,30.8912432302954],[104.018877031188,30.8826708824527],[104.029846015068,30.8826708824527],[104.018270747423,30.8655270569741],[104.029238511391,30.8655270569741],[104.017672064304,30.8483843890855],[104.006705520248,30.8483843890855],[103.989376485717,30.822672559158],[104.000341202599,30.822672559158],[103.994569260099,30.8141025275128],[103.983605152274,30.8141025275128],[103.972069994407,30.7969633310662],[103.983032886811,30.7969633310662],[103.977268453328,30.7883941655322],[103.988230737572,30.7883941655322],[103.982468197738,30.7798252889978],[104.070161614502,30.7798252889978],[104.06439671659,30.7712567018679],[104.075357786312,30.7712567018679],[104.069594782947,30.7626884022319],[104.102476172126,30.7626884022319],[104.108240995478,30.7712567018679],[104.1192020652,30.7712567018679],[104.130740436341,30.7883941655322],[104.119778152097,30.7883941655322],[104.125550486262,30.7969633310662],[104.114587593858,30.7969633310662],[104.120361825266,30.8055327844232],[104.131325324931,30.8055327844232],[104.14288252476,30.822672559158],[104.13191780698,30.822672559158],[104.143483822875,30.8398134895789],[104.16541569287,30.8398134895789],[104.171203683773,30.8483843890855],[104.182170227828,30.8483843890855],[104.17638162697,30.8398134895789],[104.198313496965,30.8398134895789],[104.19252618968,30.8312428797249],[104.21445684156,30.8312428797249],[104.22024536696,30.8398134895789],[104.26410910695,30.8398134895789],[104.25831814442,30.8312428797249],[104.247352818481,30.8312428797249],[104.229996827304,30.8055327844232],[104.219033327639,30.8055327844232],[104.213253623695,30.7969633310662],[104.180364947382,30.7969633310662],[104.174589574216,30.7883941655322],[104.163627289972,30.7883941655322],[104.157855030366,30.7798252889978],[104.146893353383,30.7798252889978],[104.123831775562,30.7455526678306],[104.134791025297,30.7455526678306],[104.129031277427,30.7369852331016],[104.139989920799,30.7369852331016],[104.134232065679,30.728418085939],[104.199980292228,30.728418085939],[104.188464810161,30.7112846559274],[104.19942163714,30.7112846559274],[104.176418222538,30.6770212459168],[104.187372630354,30.6770212459168],[104.181627410038,30.6684561114275],[104.192581214186,30.6684561114275],[104.186837883926,30.659891263867],[104.208744283988,30.659891263867],[104.203002238319,30.6513267036375],[104.192049642405,30.6513267036375],[104.18631069233,30.6427624303686],[104.175358699186,30.6427624303686],[104.163889477661,30.625634743228],[104.174840264367,30.625634743228],[104.157653285822,30.599945360076],[104.168602266016,30.599945360076],[104.162877644071,30.5913828054091],[104.173826023293,30.5913828054091],[104.168103284216,30.5828205358734],[104.157155506865,30.5828205358734],[104.151435853501,30.5742585526428],[104.118594324367,30.5742585526428],[104.112878956866,30.5656968553446],[104.101932381461,30.5656968553446],[104.090510289148,30.5485743178256],[104.101455663506,30.5485743178256],[104.078638816412,30.5143326660464],[104.089581791369,30.5143326660464],[104.078187024011,30.4972135504392],[104.089128801514,30.4972135504392],[104.066366543243,30.4629787363962],[104.055427157954,30.4629787363962],[104.061113418244,30.4715370131191],[104.050173435575,30.4715370131191],[104.055861567954,30.4800955743746],[104.044920987905,30.4800955743746],[104.050610992373,30.4886544205389],[104.017787455597,30.4886544205389],[104.023478136496,30.4972135504392],[104.012536358993,30.4972135504392],[104.01822891288,30.5057729659994],[103.985401783741,30.5057729659994],[103.979711026485,30.4972135504392],[103.957827472377,30.4972135504392],[103.952140382942,30.4886544205389],[103.941199203717,30.4886544205389],[103.963959990547,30.5228926509554],[103.953016416414,30.5228926509554],[103.970111170319,30.5485743178256],[103.959165795962,30.5485743178256],[103.964868397505,30.5571354436055],[103.942976448642,30.5571354436055],[103.937275047247,30.5485743178256],[103.92632967289,30.5485743178256],[103.909242117185,30.5228926509554],[103.898298542153,30.5228926509554],[103.903991321517,30.5314529211009],[103.882102973101,30.5314529211009],[103.899192549117,30.5571354436055],[103.888246574685,30.5571354436055],[103.89394744787,30.5656968553446],[103.883000872465,30.5656968553446],[103.888703621332,30.5742585526428],[103.877756444954,30.5742585526428],[103.883461068605,30.5828205358734],[103.861565513006,30.5828205358734],[103.867271411366,30.5913828054091],[103.856323032144,30.5913828054091],[103.862030807085,30.599945360076],[103.87297978728,30.599945360076],[103.901558871476,30.6427624303686],[103.91251086462,30.6427624303686],[103.918234731981,30.6513267036375],[103.929187328793,30.6513267036375],[103.940643727766,30.6684561114275],[103.929689924517,30.6684561114275],[103.935421250589,30.6770212459168],[103.924466842774,30.6770212459168],[103.930200053512,30.6855866669327],[103.908290029646,30.6855866669327],[103.914024519585,30.6941523763899],[103.903068903536,30.6941523763899],[103.90880527814,30.7027183723409],[103.897849056626,30.7027183723409],[103.903587316794,30.7112846559274],[103.892630490714,30.7112846559274],[103.909858405487,30.7369852331016],[103.898899762115,30.7369852331016],[103.904646780857,30.7455526678306],[103.893687531122,30.7455526678306],[103.899436438123,30.754120391266],[103.888476582025,30.754120391266],[103.894227377285,30.7626884022319],[103.883266914825,30.7626884022319],[103.88901960014,30.7712567018679],[103.87805852952,30.7712567018679],[103.88381310489,30.7798252889978],[103.861889750924,30.7798252889978],[103.856136390076,30.7712567018679],[103.834214250632,30.7712567018679],[103.839966396958,30.7798252889978],[103.850928073941,30.7798252889978],[103.862441072167,30.7969633310662],[103.851478179763,30.7969633310662],[103.868764598218,30.822672559158],[103.857799881336,30.822672559158],[103.863566414181,30.8312428797249],[103.90742771794,30.8312428797249],[103.901658749762,30.822672559158],[103.923588183526,30.822672559158],[103.917820500837,30.8141025275128],[103.950712826107,30.8141025275128],[103.956482334172,30.822672559158],[103.967447051953,30.822672559158],[103.97899479881,30.8398134895789],[103.968028863813,30.8398134895789],[103.979585417753,30.8569555778386],[103.990552571765,30.8569555778386],[104.002120378003,30.8740988245432],[103.991152004079,30.8740988245432],[103.996939062531,30.8826708824527],[103.985970078651,30.8826708824527],[103.991759037039,30.8912432302954],[103.980789442305,30.8912432302954],[103.986580302427,30.8998158684353],[104.008520713604,30.8998158684353],[104.002728631773,30.8912432302954]]]}}]}