{"type":"FeatureCollection","name":"chengdu_facilities","crs":{"type":"name","properties":{"name":"urn:ogc:def:crs:OGC:1.3:CRS84"}},"features":[{"type":"Feature","properties":{"facility_id":"osm_node_4661854188","osm_id":"4661854188","name":"成都市急救指挥中心(120)","category":"healthcare","category_zh":"医疗","amenity":"hospital","railway":null,"source":"OpenStreetMap"},"geometry":{"type":"Point","coordinates":[104.0513544,30.5915278]}},{"type":"Feature","properties":{"facility_id":"osm_node_4702508991","osm_id":"4702508991","name":"拉斐尔口腔","category":"healthcare","category_zh":"医疗","amenity":"hospital","railway":null,"source":"OpenStreetMap"},"geometry":{"type":"Point","coordinates":[104.0524212,30.5900136]}},{"type":"Feature","properties":{"facility_id":"osm_node_11395933362","osm_id":"11395933362","name":"A口","category":"transit","category_zh":"公共交通","amenity":null,"railway":"subway_entrance","source":"OpenStreetMap"},"geometry":{"type":"Point","coordinates":[104.066535,30.5719081]}},{"type":"Feature","properties":{"facility_id":"osm_node_11763066425","osm_id":"11763066425","name":"未命名设施","category":"transit","category_zh":"公共交通","amenity":null,"railway":"subway_entrance","source":"OpenStreetMap"},"geometry":{"type":"Point","coordinates":[104.0429953,30.5670482]}},{"type":"Feature","properties":{"facility_id":"osm_node_11763066426","osm_id":"11763066426","name":"未命名设施","category":"transit","category_zh":"公共交通","amenity":null,"railway":"subway_entrance","source":"OpenStreetMap"},"geometry":{"type":"Point","coordinates":[104.0433815,30.5649705]}},{"type":"Feature","properties":{"facility_id":"osm_node_11763066427","osm_id":"11763066427","name":"未命名设施","category":"transit","category_zh":"公共交通","amenity":null,"railway":"subway_entrance","source":"OpenStreetMap"},"geometry":{"type":"Point","coordinates":[104.0441393,30.565058]}},{"type":"Feature","properties":{"facility_id":"osm_node_11763066428","osm_id":"11763066428","name":"未命名设施","category":"transit","category_zh":"公共交通","amenity":null,"railway":"subway_entrance","source":"OpenStreetMap"},"geometry":{"type":"Point","coordinates":[104.0447153,30.5661704]}},{"type":"Feature","properties":{"facility_id":"osm_node_11807439723","osm_id":"11807439723","name":"未命名设施","category":"transit","category_zh":"公共交通","amenity":null,"railway":"subway_entrance","source":"OpenStreetMap"},"geometry":{"type":"Point","coordinates":[104.0809912,30.5818951]}},{"type":"Feature","properties":{"facility_id":"osm_node_11807439724","osm_id":"11807439724","name":"未命名设施","category":"transit","category_zh":"公共交通","amenity":null,"railway":"subway_entrance","source":"OpenStreetMap"},"geometry":{"type":"Point","coordinates":[104.0809714,30.5812805]}},{"type":"Feature","properties":{"facility_id":"osm_node_11807439725","osm_id":"11807439725","name":"未命名设施","category":"transit","category_zh":"公共交通","amenity":null,"railway":"subway_entrance","source":"OpenStreetMap"},"geometry":{"type":"Point","coordinates":[104.0830619,30.5813349]}},{"type":"Feature","properties":{"facility_id":"osm_node_11807439726","osm_id":"11807439726","name":"未命名设施","category":"transit","category_zh":"公共交通","amenity":null,"railway":"subway_entrance","source":"OpenStreetMap"},"geometry":{"type":"Point","coordinates":[104.085109,30.5813383]}},{"type":"Feature","properties":{"facility_id":"osm_node_12074960371","osm_id":"12074960371","name":"H","category":"transit","category_zh":"公共交通","amenity":null,"railway":"subway_entrance","source":"OpenStreetMap"},"geometry":{"type":"Point","coordinates":[104.0652614,30.5803157]}},{"type":"Feature","properties":{"facility_id":"osm_node_12074960372","osm_id":"12074960372","name":"G","category":"transit","category_zh":"公共交通","amenity":null,"railway":"subway_entrance","source":"OpenStreetMap"},"geometry":{"type":"Point","coordinates":[104.0662138,30.580171]}},{"type":"Feature","properties":{"facility_id":"osm_node_12074960373","osm_id":"12074960373","name":"F","category":"transit","category_zh":"公共交通","amenity":null,"railway":"subway_entrance","source":"OpenStreetMap"},"geometry":{"type":"Point","coordinates":[104.0664,30.5784185]}},{"type":"Feature","properties":{"facility_id":"osm_node_12074960374","osm_id":"12074960374","name":"E2","category":"transit","category_zh":"公共交通","amenity":null,"railway":"subway_entrance","source":"OpenStreetMap"},"geometry":{"type":"Point","coordinates":[104.0664441,30.5778427]}},{"type":"Feature","properties":{"facility_id":"osm_node_12074960375","osm_id":"12074960375","name":"E1","category":"transit","category_zh":"公共交通","amenity":null,"railway":"subway_entrance","source":"OpenStreetMap"},"geometry":{"type":"Point","coordinates":[104.0653429,30.5773198]}},{"type":"Feature","properties":{"facility_id":"osm_node_12074960376","osm_id":"12074960376","name":"J","category":"transit","category_zh":"公共交通","amenity":null,"railway":"subway_entrance","source":"OpenStreetMap"},"geometry":{"type":"Point","coordinates":[104.0650356,30.5783422]}},{"type":"Feature","properties":{"facility_id":"osm_node_12074960377","osm_id":"12074960377","name":"K","category":"transit","category_zh":"公共交通","amenity":null,"railway":"subway_entrance","source":"OpenStreetMap"},"geometry":{"type":"Point","coordinates":[104.0643155,30.5783056]}},{"type":"Feature","properties":{"facility_id":"osm_node_12074960378","osm_id":"12074960378","name":"L","category":"transit","category_zh":"公共交通","amenity":null,"railway":"subway_entrance","source":"OpenStreetMap"},"geometry":{"type":"Point","coordinates":[104.0639044,30.5785886]}},{"type":"Feature","properties":{"facility_id":"osm_node_12074960379","osm_id":"12074960379","name":"A","category":"transit","category_zh":"公共交通","amenity":null,"railway":"subway_entrance","source":"OpenStreetMap"},"geometry":{"type":"Point","coordinates":[104.061588,30.5784567]}},{"type":"Feature","properties":{"facility_id":"osm_node_12074960380","osm_id":"12074960380","name":"B","category":"transit","category_zh":"公共交通","amenity":null,"railway":"subway_entrance","source":"OpenStreetMap"},"geometry":{"type":"Point","coordinates":[104.0624115,30.5777053]}},{"type":"Feature","properties":{"facility_id":"osm_node_12864948521","osm_id":"12864948521","name":"未命名设施","category":"transit","category_zh":"公共交通","amenity":null,"railway":"subway_entrance","source":"OpenStreetMap"},"geometry":{"type":"Point","coordinates":[104.0489096,30.5755244]}},{"type":"Feature","properties":{"facility_id":"osm_node_13380485910","osm_id":"13380485910","name":"府城桥","category":"transit","category_zh":"公共交通","amenity":null,"railway":"station","source":"OpenStreetMap"},"geometry":{"type":"Point","coordinates":[104.0731875,30.5912769]}},{"type":"Feature","properties":{"facility_id":"osm_node_13380485918","osm_id":"13380485918","name":"金融城北","category":"transit","category_zh":"公共交通","amenity":null,"railway":"station","source":"OpenStreetMap"},"geometry":{"type":"Point","coordinates":[104.0672093,30.5910068]}},{"type":"Feature","properties":{"facility_id":"osm_node_13380485921","osm_id":"13380485921","name":"益州大道","category":"transit","category_zh":"公共交通","amenity":null,"railway":"station","source":"OpenStreetMap"},"geometry":{"type":"Point","coordinates":[104.0579647,30.5910484]}},{"type":"Feature","properties":{"facility_id":"osm_node_13380485922","osm_id":"13380485922","name":"市一医院","category":"transit","category_zh":"公共交通","amenity":null,"railway":"station","source":"OpenStreetMap"},"geometry":{"type":"Point","coordinates":[104.0494648,30.590888]}},{"type":"Feature","properties":{"facility_id":"osm_node_13380485923","osm_id":"13380485923","name":"新园大道","category":"transit","category_zh":"公共交通","amenity":null,"railway":"station","source":"OpenStreetMap"},"geometry":{"type":"Point","coordinates":[104.0372783,30.5904794]}},{"type":"Feature","properties":{"facility_id":"osm_node_4699401031","osm_id":"4699401031","name":"未命名设施","category":"transit","category_zh":"公共交通","amenity":null,"railway":"subway_entrance","source":"OpenStreetMap"},"geometry":{"type":"Point","coordinates":[104.06162,30.5970125]}},{"type":"Feature","properties":{"facility_id":"osm_node_4699401032","osm_id":"4699401032","name":"未命名设施","category":"transit","category_zh":"公共交通","amenity":null,"railway":"subway_entrance","source":"OpenStreetMap"},"geometry":{"type":"Point","coordinates":[104.0610933,30.5970229]}},{"type":"Feature","properties":{"facility_id":"osm_node_4699401033","osm_id":"4699401033","name":"未命名设施","category":"transit","category_zh":"公共交通","amenity":null,"railway":"subway_entrance","source":"OpenStreetMap"},"geometry":{"type":"Point","coordinates":[104.0616385,30.5962595]}},{"type":"Feature","properties":{"facility_id":"osm_node_4699401034","osm_id":"4699401034","name":"未命名设施","category":"transit","category_zh":"公共交通","amenity":null,"railway":"subway_entrance","source":"OpenStreetMap"},"geometry":{"type":"Point","coordinates":[104.0609221,30.5965759]}},{"type":"Feature","properties":{"facility_id":"osm_node_5621961657","osm_id":"5621961657","name":"未命名设施","category":"transit","category_zh":"公共交通","amenity":null,"railway":"subway_entrance","source":"OpenStreetMap"},"geometry":{"type":"Point","coordinates":[104.0671563,30.5482107]}},{"type":"Feature","properties":{"facility_id":"osm_node_5621961658","osm_id":"5621961658","name":"未命名设施","category":"transit","category_zh":"公共交通","amenity":null,"railway":"subway_entrance","source":"OpenStreetMap"},"geometry":{"type":"Point","coordinates":[104.0660405,30.5480559]}},{"type":"Feature","properties":{"facility_id":"osm_node_5621961662","osm_id":"5621961662","name":"未命名设施","category":"transit","category_zh":"公共交通","amenity":null,"railway":"subway_entrance","source":"OpenStreetMap"},"geometry":{"type":"Point","coordinates":[104.065625,30.5577362]}},{"type":"Feature","properties":{"facility_id":"osm_node_5621961663","osm_id":"5621961663","name":"B","category":"transit","category_zh":"公共交通","amenity":null,"railway":"subway_entrance","source":"OpenStreetMap"},"geometry":{"type":"Point","coordinates":[104.0658291,30.5570094]}},{"type":"Feature","properties":{"facility_id":"osm_node_5621961681","osm_id":"5621961681","name":"C","category":"transit","category_zh":"公共交通","amenity":null,"railway":"subway_entrance","source":"OpenStreetMap"},"geometry":{"type":"Point","coordinates":[104.0622586,30.5782605]}},{"type":"Feature","properties":{"facility_id":"osm_node_5621961685","osm_id":"5621961685","name":"未命名设施","category":"transit","category_zh":"公共交通","amenity":null,"railway":"subway_entrance","source":"OpenStreetMap"},"geometry":{"type":"Point","coordinates":[104.0614218,30.5844859]}},{"type":"Feature","properties":{"facility_id":"osm_node_5621961686","osm_id":"5621961686","name":"A口","category":"transit","category_zh":"公共交通","amenity":null,"railway":"subway_entrance","source":"OpenStreetMap"},"geometry":{"type":"Point","coordinates":[104.0613963,30.5853864]}},{"type":"Feature","properties":{"facility_id":"osm_node_7089244025","osm_id":"7089244025","name":"市一医院","category":"transit","category_zh":"公共交通","amenity":null,"railway":"station","source":"OpenStreetMap"},"geometry":{"type":"Point","coordinates":[104.0480025,30.5922294]}},{"type":"Feature","properties":{"facility_id":"osm_node_7089244026","osm_id":"7089244026","name":"交子大道","category":"transit","category_zh":"公共交通","amenity":null,"railway":"station","source":"OpenStreetMap"},"geometry":{"type":"Point","coordinates":[104.0477168,30.5841855]}},{"type":"Feature","properties":{"facility_id":"osm_node_7089244028","osm_id":"7089244028","name":"锦城湖","category":"transit","category_zh":"公共交通","amenity":null,"railway":"station","source":"OpenStreetMap"},"geometry":{"type":"Point","coordinates":[104.0439781,30.566911]}},{"type":"Feature","properties":{"facility_id":"osm_node_7089244030","osm_id":"7089244030","name":"大源","category":"transit","category_zh":"公共交通","amenity":null,"railway":"station","source":"OpenStreetMap"},"geometry":{"type":"Point","coordinates":[104.0441655,30.5518852]}},{"type":"Feature","properties":{"facility_id":"osm_node_7947192948","osm_id":"7947192948","name":"孵化园","category":"transit","category_zh":"公共交通","amenity":null,"railway":"station","source":"OpenStreetMap"},"geometry":{"type":"Point","coordinates":[104.0637315,30.5778968]}},{"type":"Feature","properties":{"facility_id":"osm_node_7947192950","osm_id":"7947192950","name":"锦城广场","category":"transit","category_zh":"公共交通","amenity":null,"railway":"station","source":"OpenStreetMap"},"geometry":{"type":"Point","coordinates":[104.063393,30.5714455]}},{"type":"Feature","properties":{"facility_id":"osm_node_7947192951","osm_id":"7947192951","name":"锦城广场东","category":"transit","category_zh":"公共交通","amenity":null,"railway":"station","source":"OpenStreetMap"},"geometry":{"type":"Point","coordinates":[104.0667242,30.5712237]}},{"type":"Feature","properties":{"facility_id":"osm_node_7947192953","osm_id":"7947192953","name":"世纪城","category":"transit","category_zh":"公共交通","amenity":null,"railway":"station","source":"OpenStreetMap"},"geometry":{"type":"Point","coordinates":[104.0664501,30.5573119]}},{"type":"Feature","properties":{"facility_id":"osm_node_8242639373","osm_id":"8242639373","name":"金石路","category":"transit","category_zh":"公共交通","amenity":null,"railway":"station","source":"OpenStreetMap"},"geometry":{"type":"Point","coordinates":[104.0866213,30.5926907]}},{"type":"Feature","properties":{"facility_id":"osm_node_8242639374","osm_id":"8242639374","name":"金融城东","category":"transit","category_zh":"公共交通","amenity":null,"railway":"station","source":"OpenStreetMap"},"geometry":{"type":"Point","coordinates":[104.0818708,30.5815986]}},{"type":"Feature","properties":{"facility_id":"osm_node_8242639376","osm_id":"8242639376","name":"中和","category":"transit","category_zh":"公共交通","amenity":null,"railway":"station","source":"OpenStreetMap"},"geometry":{"type":"Point","coordinates":[104.0939965,30.5604919]}},{"type":"Feature","properties":{"facility_id":"osm_node_8242639377","osm_id":"8242639377","name":"张家寺","category":"transit","category_zh":"公共交通","amenity":null,"railway":"station","source":"OpenStreetMap"},"geometry":{"type":"Point","coordinates":[104.095871,30.5520241]}},{"type":"Feature","properties":{"facility_id":"osm_node_8242891886","osm_id":"8242891886","name":"天府三街","category":"transit","category_zh":"公共交通","amenity":null,"railway":"station","source":"OpenStreetMap"},"geometry":{"type":"Point","coordinates":[104.0662931,30.5492144]}},{"type":"Feature","properties":{"facility_id":"osm_node_8242891887","osm_id":"8242891887","name":"金融城","category":"transit","category_zh":"公共交通","amenity":null,"railway":"station","source":"OpenStreetMap"},"geometry":{"type":"Point","coordinates":[104.0614928,30.5849419]}},{"type":"Feature","properties":{"facility_id":"osm_node_8242891888","osm_id":"8242891888","name":"高新","category":"transit","category_zh":"公共交通","amenity":null,"railway":"station","source":"OpenStreetMap"},"geometry":{"type":"Point","coordinates":[104.0614525,30.5966272]}},{"type":"Feature","properties":{"facility_id":"osm_node_8260978349","osm_id":"8260978349","name":"锦城大道","category":"transit","category_zh":"公共交通","amenity":null,"railway":"station","source":"OpenStreetMap"},"geometry":{"type":"Point","coordinates":[104.0479304,30.5776822]}},{"type":"Feature","properties":{"facility_id":"osm_node_8260978351","osm_id":"8260978351","name":"心岛","category":"transit","category_zh":"公共交通","amenity":null,"railway":"station","source":"OpenStreetMap"},"geometry":{"type":"Point","coordinates":[104.0703225,30.5782388]}},{"type":"Feature","properties":{"facility_id":"osm_node_9199455772","osm_id":"9199455772","name":"未命名设施","category":"transit","category_zh":"公共交通","amenity":null,"railway":"subway_entrance","source":"OpenStreetMap"},"geometry":{"type":"Point","coordinates":[104.0669668,30.5574828]}},{"type":"Feature","properties":{"facility_id":"osm_node_9199455774","osm_id":"9199455774","name":"未命名设施","category":"transit","category_zh":"公共交通","amenity":null,"railway":"subway_entrance","source":"OpenStreetMap"},"geometry":{"type":"Point","coordinates":[104.0670345,30.5544892]}},{"type":"Feature","properties":{"facility_id":"osm_node_9199455775","osm_id":"9199455775","name":"未命名设施","category":"transit","category_zh":"公共交通","amenity":null,"railway":"subway_entrance","source":"OpenStreetMap"},"geometry":{"type":"Point","coordinates":[104.0669964,30.5558707]}},{"type":"Feature","properties":{"facility_id":"osm_node_9199455790","osm_id":"9199455790","name":"未命名设施","category":"transit","category_zh":"公共交通","amenity":null,"railway":"subway_entrance","source":"OpenStreetMap"},"geometry":{"type":"Point","coordinates":[104.0669163,30.5583425]}},{"type":"Feature","properties":{"facility_id":"osm_node_9609241282","osm_id":"9609241282","name":"B口","category":"transit","category_zh":"公共交通","amenity":null,"railway":"subway_entrance","source":"OpenStreetMap"},"geometry":{"type":"Point","coordinates":[104.0665877,30.5701061]}},{"type":"Feature","properties":{"facility_id":"osm_node_9850905429","osm_id":"9850905429","name":"未命名设施","category":"transit","category_zh":"公共交通","amenity":null,"railway":"subway_entrance","source":"OpenStreetMap"},"geometry":{"type":"Point","coordinates":[104.0655058,30.5491878]}},{"type":"Feature","properties":{"facility_id":"osm_node_9850905439","osm_id":"9850905439","name":"未命名设施","category":"transit","category_zh":"公共交通","amenity":null,"railway":"subway_entrance","source":"OpenStreetMap"},"geometry":{"type":"Point","coordinates":[104.0673157,30.5490024]}},{"type":"Feature","properties":{"facility_id":"osm_node_9925920187","osm_id":"9925920187","name":"未命名设施","category":"transit","category_zh":"公共交通","amenity":null,"railway":"subway_entrance","source":"OpenStreetMap"},"geometry":{"type":"Point","coordinates":[104.0955368,30.5516989]}},{"type":"Feature","properties":{"facility_id":"osm_node_9925920188","osm_id":"9925920188","name":"未命名设施","category":"transit","category_zh":"公共交通","amenity":null,"railway":"subway_entrance","source":"OpenStreetMap"},"geometry":{"type":"Point","coordinates":[104.0950477,30.5528236]}},{"type":"Feature","properties":{"facility_id":"osm_node_9925920189","osm_id":"9925920189","name":"未命名设施","category":"transit","category_zh":"公共交通","amenity":null,"railway":"subway_entrance","source":"OpenStreetMap"},"geometry":{"type":"Point","coordinates":[104.0956113,30.5534536]}},{"type":"Feature","properties":{"facility_id":"osm_node_9925920190","osm_id":"9925920190","name":"未命名设施","category":"transit","category_zh":"公共交通","amenity":null,"railway":"subway_entrance","source":"OpenStreetMap"},"geometry":{"type":"Point","coordinates":[104.0962067,30.553306]}}]}