{"type":"FeatureCollection","name":"nanjing_analysis_grid","crs":{"type":"name","properties":{"name":"urn:ogc:def:crs:OGC:1.3:CRS84"}},"features":[{"type":"Feature","properties":{"cell_id":"nanjing_01_01","city_id":"nanjing","city_name_zh":"南京","row":1,"column":1,"area_km2":0.4911,"center_lon":118.77065,"center_lat":32.082175,"distance_to_center_km":3.469,"facility_count":1,"transit_count":0,"healthcare_count":1,"education_count":0,"park_count":0,"service_diversity":1,"facility_density_km2":2.0364,"road_segment_count":53,"road_length_m":3879.37,"road_density_km_km2":7.8998,"intersection_count":9,"elevation_m":14,"terrain_relief_m":6,"source_note":"OSM道路与设施聚合；SRTM高程采样；均为教学裁剪","accessibility_proxy":0.2569,"osm_intensity_class":"较低","core_zone":"外圈"},"geometry":{"type":"Polygon","coordinates":[[[118.7669,32.07905],[118.7744,32.07905],[118.7744,32.0853],[118.7669,32.0853],[118.7669,32.07905]]]}},{"type":"Feature","properties":{"cell_id":"nanjing_01_02","city_id":"nanjing","city_name_zh":"南京","row":1,"column":2,"area_km2":0.4911,"center_lon":118.77815,"center_lat":32.082175,"distance_to_center_km":3.006,"facility_count":5,"transit_count":5,"healthcare_count":0,"education_count":0,"park_count":0,"service_diversity":1,"facility_density_km2":10.1819,"road_segment_count":53,"road_length_m":4316.58,"road_density_km_km2":8.7902,"intersection_count":13,"elevation_m":14,"terrain_relief_m":7,"source_note":"OSM道路与设施聚合；SRTM高程采样；均为教学裁剪","accessibility_proxy":0.372,"osm_intensity_class":"较高","core_zone":"外圈"},"geometry":{"type":"Polygon","coordinates":[[[118.7744,32.07905],[118.7819,32.07905],[118.7819,32.0853],[118.7744,32.0853],[118.7744,32.07905]]]}},{"type":"Feature","properties":{"cell_id":"nanjing_01_03","city_id":"nanjing","city_name_zh":"南京","row":1,"column":3,"area_km2":0.4911,"center_lon":118.78565,"center_lat":32.082175,"distance_to_center_km":2.653,"facility_count":0,"transit_count":0,"healthcare_count":0,"education_count":0,"park_count":0,"service_diversity":0,"facility_density_km2":0.0,"road_segment_count":0,"road_length_m":0.0,"road_density_km_km2":0.0,"intersection_count":0,"elevation_m":8,"terrain_relief_m":10,"source_note":"OSM道路与设施聚合；SRTM高程采样；均为教学裁剪","accessibility_proxy":0.1032,"osm_intensity_class":"低","core_zone":"内圈"},"geometry":{"type":"Polygon","coordinates":[[[118.7819,32.07905],[118.7894,32.07905],[118.7894,32.0853],[118.7819,32.0853],[118.7819,32.07905]]]}},{"type":"Feature","properties":{"cell_id":"nanjing_01_04","city_id":"nanjing","city_name_zh":"南京","row":1,"column":4,"area_km2":0.4911,"center_lon":118.79315,"center_lat":32.082175,"distance_to_center_km":2.458,"facility_count":0,"transit_count":0,"healthcare_count":0,"education_count":0,"park_count":0,"service_diversity":0,"facility_density_km2":0.0,"road_segment_count":36,"road_length_m":1402.82,"road_density_km_km2":2.8567,"intersection_count":1,"elevation_m":8,"terrain_relief_m":9,"source_note":"OSM道路与设施聚合；SRTM高程采样；均为教学裁剪","accessibility_proxy":0.167,"osm_intensity_class":"低","core_zone":"内圈"},"geometry":{"type":"Polygon","coordinates":[[[118.7894,32.07905],[118.7969,32.07905],[118.7969,32.0853],[118.7894,32.0853],[118.7894,32.07905]]]}},{"type":"Feature","properties":{"cell_id":"nanjing_01_05","city_id":"nanjing","city_name_zh":"南京","row":1,"column":5,"area_km2":0.4911,"center_lon":118.80065,"center_lat":32.082175,"distance_to_center_km":2.458,"facility_count":0,"transit_count":0,"healthcare_count":0,"education_count":0,"park_count":0,"service_diversity":0,"facility_density_km2":0.0,"road_segment_count":72,"road_length_m":4058.88,"road_density_km_km2":8.2654,"intersection_count":6,"elevation_m":12,"terrain_relief_m":8,"source_note":"OSM道路与设施聚合；SRTM高程采样；均为教学裁剪","accessibility_proxy":0.2747,"osm_intensity_class":"较高","core_zone":"内圈"},"geometry":{"type":"Polygon","coordinates":[[[118.7969,32.07905],[118.8044,32.07905],[118.8044,32.0853],[118.7969,32.0853],[118.7969,32.07905]]]}},{"type":"Feature","properties":{"cell_id":"nanjing_01_06","city_id":"nanjing","city_name_zh":"南京","row":1,"column":6,"area_km2":0.4911,"center_lon":118.80815,"center_lat":32.082175,"distance_to_center_km":2.653,"facility_count":10,"transit_count":1,"healthcare_count":0,"education_count":9,"park_count":0,"service_diversity":2,"facility_density_km2":20.3637,"road_segment_count":60,"road_length_m":1506.67,"road_density_km_km2":3.0681,"intersection_count":0,"elevation_m":14,"terrain_relief_m":10,"source_note":"OSM道路与设施聚合；SRTM高程采样；均为教学裁剪","accessibility_proxy":0.3749,"osm_intensity_class":"较高","core_zone":"内圈"},"geometry":{"type":"Polygon","coordinates":[[[118.8044,32.07905],[118.8119,32.07905],[118.8119,32.0853],[118.8044,32.0853],[118.8044,32.07905]]]}},{"type":"Feature","properties":{"cell_id":"nanjing_01_07","city_id":"nanjing","city_name_zh":"南京","row":1,"column":7,"area_km2":0.4911,"center_lon":118.81565,"center_lat":32.082175,"distance_to_center_km":3.006,"facility_count":2,"transit_count":0,"healthcare_count":0,"education_count":2,"park_count":0,"service_diversity":1,"facility_density_km2":4.0727,"road_segment_count":23,"road_length_m":1144.34,"road_density_km_km2":2.3303,"intersection_count":2,"elevation_m":32,"terrain_relief_m":17,"source_note":"OSM道路与设施聚合；SRTM高程采样；均为教学裁剪","accessibility_proxy":0.1803,"osm_intensity_class":"较低","core_zone":"外圈"},"geometry":{"type":"Polygon","coordinates":[[[118.8119,32.07905],[118.8194,32.07905],[118.8194,32.0853],[118.8119,32.0853],[118.8119,32.07905]]]}},{"type":"Feature","properties":{"cell_id":"nanjing_01_08","city_id":"nanjing","city_name_zh":"南京","row":1,"column":8,"area_km2":0.4911,"center_lon":118.82315,"center_lat":32.082175,"distance_to_center_km":3.469,"facility_count":5,"transit_count":3,"healthcare_count":1,"education_count":1,"park_count":0,"service_diversity":3,"facility_density_km2":10.1819,"road_segment_count":100,"road_length_m":3996.08,"road_density_km_km2":8.1375,"intersection_count":16,"elevation_m":36,"terrain_relief_m":16,"source_note":"OSM道路与设施聚合；SRTM高程采样；均为教学裁剪","accessibility_proxy":0.3459,"osm_intensity_class":"较高","core_zone":"外圈"},"geometry":{"type":"Polygon","coordinates":[[[118.8194,32.07905],[118.8269,32.07905],[118.8269,32.0853],[118.8194,32.0853],[118.8194,32.07905]]]}},{"type":"Feature","properties":{"cell_id":"nanjing_02_01","city_id":"nanjing","city_name_zh":"南京","row":2,"column":1,"area_km2":0.4911,"center_lon":118.77065,"center_lat":32.075925,"distance_to_center_km":3.023,"facility_count":1,"transit_count":0,"healthcare_count":1,"education_count":0,"park_count":0,"service_diversity":1,"facility_density_km2":2.0362,"road_segment_count":27,"road_length_m":2422.89,"road_density_km_km2":4.9336,"intersection_count":4,"elevation_m":12,"terrain_relief_m":6,"source_note":"OSM道路与设施聚合；SRTM高程采样；均为教学裁剪","accessibility_proxy":0.2105,"osm_intensity_class":"较低","core_zone":"外圈"},"geometry":{"type":"Polygon","coordinates":[[[118.7669,32.0728],[118.7744,32.0728],[118.7744,32.07905],[118.7669,32.07905],[118.7669,32.0728]]]}},{"type":"Feature","properties":{"cell_id":"nanjing_02_02","city_id":"nanjing","city_name_zh":"南京","row":2,"column":2,"area_km2":0.4911,"center_lon":118.77815,"center_lat":32.075925,"distance_to_center_km":2.478,"facility_count":2,"transit_count":2,"healthcare_count":0,"education_count":0,"park_count":0,"service_diversity":1,"facility_density_km2":4.0725,"road_segment_count":50,"road_length_m":3774.92,"road_density_km_km2":7.6866,"intersection_count":3,"elevation_m":11,"terrain_relief_m":4,"source_note":"OSM道路与设施聚合；SRTM高程采样；均为教学裁剪","accessibility_proxy":0.3045,"osm_intensity_class":"较高","core_zone":"内圈"},"geometry":{"type":"Polygon","coordinates":[[[118.7744,32.0728],[118.7819,32.0728],[118.7819,32.07905],[118.7744,32.07905],[118.7744,32.0728]]]}},{"type":"Feature","properties":{"cell_id":"nanjing_02_03","city_id":"nanjing","city_name_zh":"南京","row":2,"column":3,"area_km2":0.4911,"center_lon":118.78565,"center_lat":32.075925,"distance_to_center_km":2.035,"facility_count":1,"transit_count":0,"healthcare_count":0,"education_count":0,"park_count":1,"service_diversity":1,"facility_density_km2":2.0362,"road_segment_count":16,"road_length_m":655.51,"road_density_km_km2":1.3348,"intersection_count":0,"elevation_m":9,"terrain_relief_m":7,"source_note":"OSM道路与设施聚合；SRTM高程采样；均为教学裁剪","accessibility_proxy":0.1745,"osm_intensity_class":"低","core_zone":"内圈"},"geometry":{"type":"Polygon","coordinates":[[[118.7819,32.0728],[118.7894,32.0728],[118.7894,32.07905],[118.7819,32.07905],[118.7819,32.0728]]]}},{"type":"Feature","properties":{"cell_id":"nanjing_02_04","city_id":"nanjing","city_name_zh":"南京","row":2,"column":4,"area_km2":0.4911,"center_lon":118.79315,"center_lat":32.075925,"distance_to_center_km":1.773,"facility_count":0,"transit_count":0,"healthcare_count":0,"education_count":0,"park_count":0,"service_diversity":0,"facility_density_km2":0.0,"road_segment_count":0,"road_length_m":0.0,"road_density_km_km2":0.0,"intersection_count":0,"elevation_m":8,"terrain_relief_m":8,"source_note":"OSM道路与设施聚合；SRTM高程采样；均为教学裁剪","accessibility_proxy":0.1384,"osm_intensity_class":"低","core_zone":"内圈"},"geometry":{"type":"Polygon","coordinates":[[[118.7894,32.0728],[118.7969,32.0728],[118.7969,32.07905],[118.7894,32.07905],[118.7894,32.0728]]]}},{"type":"Feature","properties":{"cell_id":"nanjing_02_05","city_id":"nanjing","city_name_zh":"南京","row":2,"column":5,"area_km2":0.4911,"center_lon":118.80065,"center_lat":32.075925,"distance_to_center_km":1.773,"facility_count":0,"transit_count":0,"healthcare_count":0,"education_count":0,"park_count":0,"service_diversity":0,"facility_density_km2":0.0,"road_segment_count":20,"road_length_m":285.6,"road_density_km_km2":0.5815,"intersection_count":0,"elevation_m":11,"terrain_relief_m":4,"source_note":"OSM道路与设施聚合；SRTM高程采样；均为教学裁剪","accessibility_proxy":0.15,"osm_intensity_class":"低","core_zone":"内圈"},"geometry":{"type":"Polygon","coordinates":[[[118.7969,32.0728],[118.8044,32.0728],[118.8044,32.07905],[118.7969,32.07905],[118.7969,32.0728]]]}},{"type":"Feature","properties":{"cell_id":"nanjing_02_06","city_id":"nanjing","city_name_zh":"南京","row":2,"column":6,"area_km2":0.4911,"center_lon":118.80815,"center_lat":32.075925,"distance_to_center_km":2.035,"facility_count":11,"transit_count":3,"healthcare_count":1,"education_count":7,"park_count":0,"service_diversity":3,"facility_density_km2":22.3986,"road_segment_count":62,"road_length_m":3845.2,"road_density_km_km2":7.8297,"intersection_count":6,"elevation_m":13,"terrain_relief_m":8,"source_note":"OSM道路与设施聚合；SRTM高程采样；均为教学裁剪","accessibility_proxy":0.5143,"osm_intensity_class":"高","core_zone":"内圈"},"geometry":{"type":"Polygon","coordinates":[[[118.8044,32.0728],[118.8119,32.0728],[118.8119,32.07905],[118.8044,32.07905],[118.8044,32.0728]]]}},{"type":"Feature","properties":{"cell_id":"nanjing_02_07","city_id":"nanjing","city_name_zh":"南京","row":2,"column":7,"area_km2":0.4911,"center_lon":118.81565,"center_lat":32.075925,"distance_to_center_km":2.478,"facility_count":1,"transit_count":0,"healthcare_count":0,"education_count":1,"park_count":0,"service_diversity":1,"facility_density_km2":2.0362,"road_segment_count":17,"road_length_m":1039.75,"road_density_km_km2":2.1172,"intersection_count":2,"elevation_m":27,"terrain_relief_m":17,"source_note":"OSM道路与设施聚合；SRTM高程采样；均为教学裁剪","accessibility_proxy":0.1726,"osm_intensity_class":"低","core_zone":"内圈"},"geometry":{"type":"Polygon","coordinates":[[[118.8119,32.0728],[118.8194,32.0728],[118.8194,32.07905],[118.8119,32.07905],[118.8119,32.0728]]]}},{"type":"Feature","properties":{"cell_id":"nanjing_02_08","city_id":"nanjing","city_name_zh":"南京","row":2,"column":8,"area_km2":0.4911,"center_lon":118.82315,"center_lat":32.075925,"distance_to_center_km":3.023,"facility_count":0,"transit_count":0,"healthcare_count":0,"education_count":0,"park_count":0,"service_diversity":0,"facility_density_km2":0.0,"road_segment_count":35,"road_length_m":1730.52,"road_density_km_km2":3.5237,"intersection_count":2,"elevation_m":36,"terrain_relief_m":60,"source_note":"OSM道路与设施聚合；SRTM高程采样；均为教学裁剪","accessibility_proxy":0.1614,"osm_intensity_class":"低","core_zone":"外圈"},"geometry":{"type":"Polygon","coordinates":[[[118.8194,32.0728],[118.8269,32.0728],[118.8269,32.07905],[118.8194,32.07905],[118.8194,32.0728]]]}},{"type":"Feature","properties":{"cell_id":"nanjing_03_01","city_id":"nanjing","city_name_zh":"南京","row":3,"column":1,"area_km2":0.4911,"center_lon":118.77065,"center_lat":32.069675,"distance_to_center_km":2.684,"facility_count":1,"transit_count":1,"healthcare_count":0,"education_count":0,"park_count":0,"service_diversity":1,"facility_density_km2":2.0361,"road_segment_count":68,"road_length_m":5076.6,"road_density_km_km2":10.3364,"intersection_count":18,"elevation_m":17,"terrain_relief_m":8,"source_note":"OSM道路与设施聚合；SRTM高程采样；均为教学裁剪","accessibility_proxy":0.329,"osm_intensity_class":"较高","core_zone":"内圈"},"geometry":{"type":"Polygon","coordinates":[[[118.7669,32.06655],[118.7744,32.06655],[118.7744,32.0728],[118.7669,32.0728],[118.7669,32.06655]]]}},{"type":"Feature","properties":{"cell_id":"nanjing_03_02","city_id":"nanjing","city_name_zh":"南京","row":3,"column":2,"area_km2":0.4911,"center_lon":118.77815,"center_lat":32.069675,"distance_to_center_km":2.051,"facility_count":5,"transit_count":4,"healthcare_count":1,"education_count":0,"park_count":0,"service_diversity":2,"facility_density_km2":10.1805,"road_segment_count":79,"road_length_m":5320.9,"road_density_km_km2":10.8338,"intersection_count":21,"elevation_m":12,"terrain_relief_m":13,"source_note":"OSM道路与设施聚合；SRTM高程采样；均为教学裁剪","accessibility_proxy":0.4471,"osm_intensity_class":"高","core_zone":"内圈"},"geometry":{"type":"Polygon","coordinates":[[[118.7744,32.06655],[118.7819,32.06655],[118.7819,32.0728],[118.7744,32.0728],[118.7744,32.06655]]]}},{"type":"Feature","properties":{"cell_id":"nanjing_03_03","city_id":"nanjing","city_name_zh":"南京","row":3,"column":3,"area_km2":0.4911,"center_lon":118.78565,"center_lat":32.069675,"distance_to_center_km":1.487,"facility_count":0,"transit_count":0,"healthcare_count":0,"education_count":0,"park_count":0,"service_diversity":0,"facility_density_km2":0.0,"road_segment_count":23,"road_length_m":1220.4,"road_density_km_km2":2.4848,"intersection_count":3,"elevation_m":9,"terrain_relief_m":16,"source_note":"OSM道路与设施聚合；SRTM高程采样；均为教学裁剪","accessibility_proxy":0.2017,"osm_intensity_class":"较低","core_zone":"核心"},"geometry":{"type":"Polygon","coordinates":[[[118.7819,32.06655],[118.7894,32.06655],[118.7894,32.0728],[118.7819,32.0728],[118.7819,32.06655]]]}},{"type":"Feature","properties":{"cell_id":"nanjing_03_04","city_id":"nanjing","city_name_zh":"南京","row":3,"column":4,"area_km2":0.4911,"center_lon":118.79315,"center_lat":32.069675,"distance_to_center_km":1.101,"facility_count":0,"transit_count":0,"healthcare_count":0,"education_count":0,"park_count":0,"service_diversity":0,"facility_density_km2":0.0,"road_segment_count":0,"road_length_m":0.0,"road_density_km_km2":0.0,"intersection_count":0,"elevation_m":9,"terrain_relief_m":10,"source_note":"OSM道路与设施聚合；SRTM高程采样；均为教学裁剪","accessibility_proxy":0.1732,"osm_intensity_class":"低","core_zone":"核心"},"geometry":{"type":"Polygon","coordinates":[[[118.7894,32.06655],[118.7969,32.06655],[118.7969,32.0728],[118.7894,32.0728],[118.7894,32.06655]]]}},{"type":"Feature","properties":{"cell_id":"nanjing_03_05","city_id":"nanjing","city_name_zh":"南京","row":3,"column":5,"area_km2":0.4911,"center_lon":118.80065,"center_lat":32.069675,"distance_to_center_km":1.101,"facility_count":0,"transit_count":0,"healthcare_count":0,"education_count":0,"park_count":0,"service_diversity":0,"facility_density_km2":0.0,"road_segment_count":0,"road_length_m":0.0,"road_density_km_km2":0.0,"intersection_count":0,"elevation_m":8,"terrain_relief_m":3,"source_note":"OSM道路与设施聚合；SRTM高程采样；均为教学裁剪","accessibility_proxy":0.1732,"osm_intensity_class":"低","core_zone":"核心"},"geometry":{"type":"Polygon","coordinates":[[[118.7969,32.06655],[118.8044,32.06655],[118.8044,32.0728],[118.7969,32.0728],[118.7969,32.06655]]]}},{"type":"Feature","properties":{"cell_id":"nanjing_03_06","city_id":"nanjing","city_name_zh":"南京","row":3,"column":6,"area_km2":0.4911,"center_lon":118.80815,"center_lat":32.069675,"distance_to_center_km":1.487,"facility_count":5,"transit_count":4,"healthcare_count":0,"education_count":0,"park_count":1,"service_diversity":2,"facility_density_km2":10.1805,"road_segment_count":38,"road_length_m":3014.17,"road_density_km_km2":6.1371,"intersection_count":4,"elevation_m":11,"terrain_relief_m":11,"source_note":"OSM道路与设施聚合；SRTM高程采样；均为教学裁剪","accessibility_proxy":0.3797,"osm_intensity_class":"较高","core_zone":"核心"},"geometry":{"type":"Polygon","coordinates":[[[118.8044,32.06655],[118.8119,32.06655],[118.8119,32.0728],[118.8044,32.0728],[118.8044,32.06655]]]}},{"type":"Feature","properties":{"cell_id":"nanjing_03_07","city_id":"nanjing","city_name_zh":"南京","row":3,"column":7,"area_km2":0.4911,"center_lon":118.81565,"center_lat":32.069675,"distance_to_center_km":2.051,"facility_count":0,"transit_count":0,"healthcare_count":0,"education_count":0,"park_count":0,"service_diversity":0,"facility_density_km2":0.0,"road_segment_count":58,"road_length_m":1960.25,"road_density_km_km2":3.9913,"intersection_count":2,"elevation_m":27,"terrain_relief_m":97,"source_note":"OSM道路与设施聚合；SRTM高程采样；均为教学裁剪","accessibility_proxy":0.2056,"osm_intensity_class":"较低","core_zone":"内圈"},"geometry":{"type":"Polygon","coordinates":[[[118.8119,32.06655],[118.8194,32.06655],[118.8194,32.0728],[118.8119,32.0728],[118.8119,32.06655]]]}},{"type":"Feature","properties":{"cell_id":"nanjing_03_08","city_id":"nanjing","city_name_zh":"南京","row":3,"column":8,"area_km2":0.4911,"center_lon":118.82315,"center_lat":32.069675,"distance_to_center_km":2.684,"facility_count":0,"transit_count":0,"healthcare_count":0,"education_count":0,"park_count":0,"service_diversity":0,"facility_density_km2":0.0,"road_segment_count":8,"road_length_m":317.89,"road_density_km_km2":0.6473,"intersection_count":0,"elevation_m":143,"terrain_relief_m":206,"source_note":"OSM道路与设施聚合；SRTM高程采样；均为教学裁剪","accessibility_proxy":0.1151,"osm_intensity_class":"低","core_zone":"内圈"},"geometry":{"type":"Polygon","coordinates":[[[118.8194,32.06655],[118.8269,32.06655],[118.8269,32.0728],[118.8194,32.0728],[118.8194,32.06655]]]}},{"type":"Feature","properties":{"cell_id":"nanjing_04_01","city_id":"nanjing","city_name_zh":"南京","row":4,"column":1,"area_km2":0.4912,"center_lon":118.77065,"center_lat":32.063425,"distance_to_center_km":2.498,"facility_count":7,"transit_count":7,"healthcare_count":0,"education_count":0,"park_count":0,"service_diversity":1,"facility_density_km2":14.2517,"road_segment_count":68,"road_length_m":5835.47,"road_density_km_km2":11.8807,"intersection_count":18,"elevation_m":19,"terrain_relief_m":18,"source_note":"OSM道路与设施聚合；SRTM高程采样；均为教学裁剪","accessibility_proxy":0.4926,"osm_intensity_class":"高","core_zone":"内圈"},"geometry":{"type":"Polygon","coordinates":[[[118.7669,32.0603],[118.7744,32.0603],[118.7744,32.06655],[118.7669,32.06655],[118.7669,32.0603]]]}},{"type":"Feature","properties":{"cell_id":"nanjing_04_02","city_id":"nanjing","city_name_zh":"南京","row":4,"column":2,"area_km2":0.4912,"center_lon":118.77815,"center_lat":32.063425,"distance_to_center_km":1.801,"facility_count":8,"transit_count":7,"healthcare_count":0,"education_count":0,"park_count":0,"service_diversity":2,"facility_density_km2":16.2876,"road_segment_count":163,"road_length_m":8014.0,"road_density_km_km2":16.3161,"intersection_count":32,"elevation_m":25,"terrain_relief_m":17,"source_note":"OSM道路与设施聚合；SRTM高程采样；均为教学裁剪","accessibility_proxy":0.6303,"osm_intensity_class":"高","core_zone":"内圈"},"geometry":{"type":"Polygon","coordinates":[[[118.7744,32.0603],[118.7819,32.0603],[118.7819,32.06655],[118.7744,32.06655],[118.7744,32.0603]]]}},{"type":"Feature","properties":{"cell_id":"nanjing_04_03","city_id":"nanjing","city_name_zh":"南京","row":4,"column":3,"area_km2":0.4912,"center_lon":118.78565,"center_lat":32.063425,"distance_to_center_km":1.116,"facility_count":0,"transit_count":0,"healthcare_count":0,"education_count":0,"park_count":0,"service_diversity":0,"facility_density_km2":0.0,"road_segment_count":61,"road_length_m":1997.83,"road_density_km_km2":4.0675,"intersection_count":3,"elevation_m":35,"terrain_relief_m":25,"source_note":"OSM道路与设施聚合；SRTM高程采样；均为教学裁剪","accessibility_proxy":0.2533,"osm_intensity_class":"较低","core_zone":"核心"},"geometry":{"type":"Polygon","coordinates":[[[118.7819,32.0603],[118.7894,32.0603],[118.7894,32.06655],[118.7819,32.06655],[118.7819,32.0603]]]}},{"type":"Feature","properties":{"cell_id":"nanjing_04_04","city_id":"nanjing","city_name_zh":"南京","row":4,"column":4,"area_km2":0.4912,"center_lon":118.79315,"center_lat":32.063425,"distance_to_center_km":0.496,"facility_count":0,"transit_count":0,"healthcare_count":0,"education_count":0,"park_count":0,"service_diversity":0,"facility_density_km2":0.0,"road_segment_count":34,"road_length_m":1109.81,"road_density_km_km2":2.2595,"intersection_count":6,"elevation_m":16,"terrain_relief_m":10,"source_note":"OSM道路与设施聚合；SRTM高程采样；均为教学裁剪","accessibility_proxy":0.2569,"osm_intensity_class":"较低","core_zone":"核心"},"geometry":{"type":"Polygon","coordinates":[[[118.7894,32.0603],[118.7969,32.0603],[118.7969,32.06655],[118.7894,32.06655],[118.7894,32.0603]]]}},{"type":"Feature","properties":{"cell_id":"nanjing_04_05","city_id":"nanjing","city_name_zh":"南京","row":4,"column":5,"area_km2":0.4912,"center_lon":118.80065,"center_lat":32.063425,"distance_to_center_km":0.496,"facility_count":1,"transit_count":0,"healthcare_count":0,"education_count":1,"park_count":0,"service_diversity":1,"facility_density_km2":2.036,"road_segment_count":1,"road_length_m":175.55,"road_density_km_km2":0.3574,"intersection_count":0,"elevation_m":42,"terrain_relief_m":34,"source_note":"OSM道路与设施聚合；SRTM高程采样；均为教学裁剪","accessibility_proxy":0.2401,"osm_intensity_class":"较低","core_zone":"核心"},"geometry":{"type":"Polygon","coordinates":[[[118.7969,32.0603],[118.8044,32.0603],[118.8044,32.06655],[118.7969,32.06655],[118.7969,32.0603]]]}},{"type":"Feature","properties":{"cell_id":"nanjing_04_06","city_id":"nanjing","city_name_zh":"南京","row":4,"column":6,"area_km2":0.4912,"center_lon":118.80815,"center_lat":32.063425,"distance_to_center_km":1.116,"facility_count":2,"transit_count":2,"healthcare_count":0,"education_count":0,"park_count":0,"service_diversity":1,"facility_density_km2":4.0719,"road_segment_count":57,"road_length_m":3287.25,"road_density_km_km2":6.6927,"intersection_count":5,"elevation_m":10,"terrain_relief_m":36,"source_note":"OSM道路与设施聚合；SRTM高程采样；均为教学裁剪","accessibility_proxy":0.3476,"osm_intensity_class":"较高","core_zone":"核心"},"geometry":{"type":"Polygon","coordinates":[[[118.8044,32.0603],[118.8119,32.0603],[118.8119,32.06655],[118.8044,32.06655],[118.8044,32.0603]]]}},{"type":"Feature","properties":{"cell_id":"nanjing_04_07","city_id":"nanjing","city_name_zh":"南京","row":4,"column":7,"area_km2":0.4912,"center_lon":118.81565,"center_lat":32.063425,"distance_to_center_km":1.801,"facility_count":0,"transit_count":0,"healthcare_count":0,"education_count":0,"park_count":0,"service_diversity":0,"facility_density_km2":0.0,"road_segment_count":57,"road_length_m":2394.7,"road_density_km_km2":4.8755,"intersection_count":1,"elevation_m":42,"terrain_relief_m":97,"source_note":"OSM道路与设施聚合；SRTM高程采样；均为教学裁剪","accessibility_proxy":0.2342,"osm_intensity_class":"较低","core_zone":"内圈"},"geometry":{"type":"Polygon","coordinates":[[[118.8119,32.0603],[118.8194,32.0603],[118.8194,32.06655],[118.8119,32.06655],[118.8119,32.0603]]]}},{"type":"Feature","properties":{"cell_id":"nanjing_04_08","city_id":"nanjing","city_name_zh":"南京","row":4,"column":8,"area_km2":0.4912,"center_lon":118.82315,"center_lat":32.063425,"distance_to_center_km":2.498,"facility_count":0,"transit_count":0,"healthcare_count":0,"education_count":0,"park_count":0,"service_diversity":0,"facility_density_km2":0.0,"road_segment_count":0,"road_length_m":0.0,"road_density_km_km2":0.0,"intersection_count":0,"elevation_m":105,"terrain_relief_m":185,"source_note":"OSM道路与设施聚合；SRTM高程采样；均为教学裁剪","accessibility_proxy":0.1087,"osm_intensity_class":"低","core_zone":"内圈"},"geometry":{"type":"Polygon","coordinates":[[[118.8194,32.0603],[118.8269,32.0603],[118.8269,32.06655],[118.8194,32.06655],[118.8194,32.0603]]]}},{"type":"Feature","properties":{"cell_id":"nanjing_05_01","city_id":"nanjing","city_name_zh":"南京","row":5,"column":1,"area_km2":0.4912,"center_lon":118.77065,"center_lat":32.057175,"distance_to_center_km":2.498,"facility_count":2,"transit_count":0,"healthcare_count":0,"education_count":2,"park_count":0,"service_diversity":1,"facility_density_km2":4.0716,"road_segment_count":60,"road_length_m":3220.75,"road_density_km_km2":6.5568,"intersection_count":12,"elevation_m":27,"terrain_relief_m":14,"source_note":"OSM道路与设施聚合；SRTM高程采样；均为教学裁剪","accessibility_proxy":0.2813,"osm_intensity_class":"较高","core_zone":"内圈"},"geometry":{"type":"Polygon","coordinates":[[[118.7669,32.05405],[118.7744,32.05405],[118.7744,32.0603],[118.7669,32.0603],[118.7669,32.05405]]]}},{"type":"Feature","properties":{"cell_id":"nanjing_05_02","city_id":"nanjing","city_name_zh":"南京","row":5,"column":2,"area_km2":0.4912,"center_lon":118.77815,"center_lat":32.057175,"distance_to_center_km":1.801,"facility_count":3,"transit_count":2,"healthcare_count":0,"education_count":0,"park_count":0,"service_diversity":2,"facility_density_km2":6.1074,"road_segment_count":94,"road_length_m":5245.98,"road_density_km_km2":10.6798,"intersection_count":13,"elevation_m":17,"terrain_relief_m":22,"source_note":"OSM道路与设施聚合；SRTM高程采样；均为教学裁剪","accessibility_proxy":0.4129,"osm_intensity_class":"较高","core_zone":"内圈"},"geometry":{"type":"Polygon","coordinates":[[[118.7744,32.05405],[118.7819,32.05405],[118.7819,32.0603],[118.7744,32.0603],[118.7744,32.05405]]]}},{"type":"Feature","properties":{"cell_id":"nanjing_05_03","city_id":"nanjing","city_name_zh":"南京","row":5,"column":3,"area_km2":0.4912,"center_lon":118.78565,"center_lat":32.057175,"distance_to_center_km":1.116,"facility_count":0,"transit_count":0,"healthcare_count":0,"education_count":0,"park_count":0,"service_diversity":0,"facility_density_km2":0.0,"road_segment_count":56,"road_length_m":4556.81,"road_density_km_km2":9.2768,"intersection_count":22,"elevation_m":12,"terrain_relief_m":6,"source_note":"OSM道路与设施聚合；SRTM高程采样；均为教学裁剪","accessibility_proxy":0.357,"osm_intensity_class":"较高","core_zone":"核心"},"geometry":{"type":"Polygon","coordinates":[[[118.7819,32.05405],[118.7894,32.05405],[118.7894,32.0603],[118.7819,32.0603],[118.7819,32.05405]]]}},{"type":"Feature","properties":{"cell_id":"nanjing_05_04","city_id":"nanjing","city_name_zh":"南京","row":5,"column":4,"area_km2":0.4912,"center_lon":118.79315,"center_lat":32.057175,"distance_to_center_km":0.496,"facility_count":9,"transit_count":6,"healthcare_count":0,"education_count":2,"park_count":0,"service_diversity":3,"facility_density_km2":18.3223,"road_segment_count":74,"road_length_m":4529.25,"road_density_km_km2":9.2207,"intersection_count":17,"elevation_m":11,"terrain_relief_m":7,"source_note":"OSM道路与设施聚合；SRTM高程采样；均为教学裁剪","accessibility_proxy":0.5849,"osm_intensity_class":"高","core_zone":"核心"},"geometry":{"type":"Polygon","coordinates":[[[118.7894,32.05405],[118.7969,32.05405],[118.7969,32.0603],[118.7894,32.0603],[118.7894,32.05405]]]}},{"type":"Feature","properties":{"cell_id":"nanjing_05_05","city_id":"nanjing","city_name_zh":"南京","row":5,"column":5,"area_km2":0.4912,"center_lon":118.80065,"center_lat":32.057175,"distance_to_center_km":0.496,"facility_count":5,"transit_count":3,"healthcare_count":0,"education_count":2,"park_count":0,"service_diversity":2,"facility_density_km2":10.1791,"road_segment_count":45,"road_length_m":2798.81,"road_density_km_km2":5.6979,"intersection_count":9,"elevation_m":11,"terrain_relief_m":17,"source_note":"OSM道路与设施聚合；SRTM高程采样；均为教学裁剪","accessibility_proxy":0.4306,"osm_intensity_class":"高","core_zone":"核心"},"geometry":{"type":"Polygon","coordinates":[[[118.7969,32.05405],[118.8044,32.05405],[118.8044,32.0603],[118.7969,32.0603],[118.7969,32.05405]]]}},{"type":"Feature","properties":{"cell_id":"nanjing_05_06","city_id":"nanjing","city_name_zh":"南京","row":5,"column":6,"area_km2":0.4912,"center_lon":118.80815,"center_lat":32.057175,"distance_to_center_km":1.116,"facility_count":1,"transit_count":0,"healthcare_count":0,"education_count":1,"park_count":0,"service_diversity":1,"facility_density_km2":2.0358,"road_segment_count":42,"road_length_m":1768.84,"road_density_km_km2":3.601,"intersection_count":2,"elevation_m":12,"terrain_relief_m":33,"source_note":"OSM道路与设施聚合；SRTM高程采样；均为教学裁剪","accessibility_proxy":0.2651,"osm_intensity_class":"较低","core_zone":"核心"},"geometry":{"type":"Polygon","coordinates":[[[118.8044,32.05405],[118.8119,32.05405],[118.8119,32.0603],[118.8044,32.0603],[118.8044,32.05405]]]}},{"type":"Feature","properties":{"cell_id":"nanjing_05_07","city_id":"nanjing","city_name_zh":"南京","row":5,"column":7,"area_km2":0.4912,"center_lon":118.81565,"center_lat":32.057175,"distance_to_center_km":1.801,"facility_count":0,"transit_count":0,"healthcare_count":0,"education_count":0,"park_count":0,"service_diversity":0,"facility_density_km2":0.0,"road_segment_count":49,"road_length_m":2662.72,"road_density_km_km2":5.4208,"intersection_count":3,"elevation_m":31,"terrain_relief_m":61,"source_note":"OSM道路与设施聚合；SRTM高程采样；均为教学裁剪","accessibility_proxy":0.245,"osm_intensity_class":"较低","core_zone":"内圈"},"geometry":{"type":"Polygon","coordinates":[[[118.8119,32.05405],[118.8194,32.05405],[118.8194,32.0603],[118.8119,32.0603],[118.8119,32.05405]]]}},{"type":"Feature","properties":{"cell_id":"nanjing_05_08","city_id":"nanjing","city_name_zh":"南京","row":5,"column":8,"area_km2":0.4912,"center_lon":118.82315,"center_lat":32.057175,"distance_to_center_km":2.498,"facility_count":0,"transit_count":0,"healthcare_count":0,"education_count":0,"park_count":0,"service_diversity":0,"facility_density_km2":0.0,"road_segment_count":13,"road_length_m":759.35,"road_density_km_km2":1.5459,"intersection_count":0,"elevation_m":46,"terrain_relief_m":47,"source_note":"OSM道路与设施聚合；SRTM高程采样；均为教学裁剪","accessibility_proxy":0.1395,"osm_intensity_class":"低","core_zone":"内圈"},"geometry":{"type":"Polygon","coordinates":[[[118.8194,32.05405],[118.8269,32.05405],[118.8269,32.0603],[118.8194,32.0603],[118.8194,32.05405]]]}},{"type":"Feature","properties":{"cell_id":"nanjing_06_01","city_id":"nanjing","city_name_zh":"南京","row":6,"column":1,"area_km2":0.4912,"center_lon":118.77065,"center_lat":32.050925,"distance_to_center_km":2.685,"facility_count":2,"transit_count":1,"healthcare_count":1,"education_count":0,"park_count":0,"service_diversity":2,"facility_density_km2":4.0714,"road_segment_count":57,"road_length_m":3148.07,"road_density_km_km2":6.4084,"intersection_count":7,"elevation_m":37,"terrain_relief_m":23,"source_note":"OSM道路与设施聚合；SRTM高程采样；均为教学裁剪","accessibility_proxy":0.2718,"osm_intensity_class":"较高","core_zone":"内圈"},"geometry":{"type":"Polygon","coordinates":[[[118.7669,32.0478],[118.7744,32.0478],[118.7744,32.05405],[118.7669,32.05405],[118.7669,32.0478]]]}},{"type":"Feature","properties":{"cell_id":"nanjing_06_02","city_id":"nanjing","city_name_zh":"南京","row":6,"column":2,"area_km2":0.4912,"center_lon":118.77815,"center_lat":32.050925,"distance_to_center_km":2.052,"facility_count":5,"transit_count":4,"healthcare_count":0,"education_count":1,"park_count":0,"service_diversity":2,"facility_density_km2":10.1784,"road_segment_count":96,"road_length_m":5730.57,"road_density_km_km2":11.6656,"intersection_count":24,"elevation_m":13,"terrain_relief_m":12,"source_note":"OSM道路与设施聚合；SRTM高程采样；均为教学裁剪","accessibility_proxy":0.4636,"osm_intensity_class":"高","core_zone":"内圈"},"geometry":{"type":"Polygon","coordinates":[[[118.7744,32.0478],[118.7819,32.0478],[118.7819,32.05405],[118.7744,32.05405],[118.7744,32.0478]]]}},{"type":"Feature","properties":{"cell_id":"nanjing_06_03","city_id":"nanjing","city_name_zh":"南京","row":6,"column":3,"area_km2":0.4912,"center_lon":118.78565,"center_lat":32.050925,"distance_to_center_km":1.487,"facility_count":1,"transit_count":0,"healthcare_count":0,"education_count":1,"park_count":0,"service_diversity":1,"facility_density_km2":2.0357,"road_segment_count":78,"road_length_m":6515.44,"road_density_km_km2":13.2633,"intersection_count":32,"elevation_m":17,"terrain_relief_m":13,"source_note":"OSM道路与设施聚合；SRTM高程采样；均为教学裁剪","accessibility_proxy":0.4373,"osm_intensity_class":"高","core_zone":"核心"},"geometry":{"type":"Polygon","coordinates":[[[118.7819,32.0478],[118.7894,32.0478],[118.7894,32.05405],[118.7819,32.05405],[118.7819,32.0478]]]}},{"type":"Feature","properties":{"cell_id":"nanjing_06_04","city_id":"nanjing","city_name_zh":"南京","row":6,"column":4,"area_km2":0.4912,"center_lon":118.79315,"center_lat":32.050925,"distance_to_center_km":1.101,"facility_count":6,"transit_count":5,"healthcare_count":0,"education_count":1,"park_count":0,"service_diversity":2,"facility_density_km2":12.2141,"road_segment_count":97,"road_length_m":5614.16,"road_density_km_km2":11.4286,"intersection_count":27,"elevation_m":17,"terrain_relief_m":9,"source_note":"OSM道路与设施聚合；SRTM高程采样；均为教学裁剪","accessibility_proxy":0.527,"osm_intensity_class":"高","core_zone":"核心"},"geometry":{"type":"Polygon","coordinates":[[[118.7894,32.0478],[118.7969,32.0478],[118.7969,32.05405],[118.7894,32.05405],[118.7894,32.0478]]]}},{"type":"Feature","properties":{"cell_id":"nanjing_06_05","city_id":"nanjing","city_name_zh":"南京","row":6,"column":5,"area_km2":0.4912,"center_lon":118.80065,"center_lat":32.050925,"distance_to_center_km":1.101,"facility_count":1,"transit_count":0,"healthcare_count":0,"education_count":0,"park_count":0,"service_diversity":1,"facility_density_km2":2.0357,"road_segment_count":40,"road_length_m":2844.94,"road_density_km_km2":5.7914,"intersection_count":3,"elevation_m":11,"terrain_relief_m":2,"source_note":"OSM道路与设施聚合；SRTM高程采样；均为教学裁剪","accessibility_proxy":0.3095,"osm_intensity_class":"较高","core_zone":"核心"},"geometry":{"type":"Polygon","coordinates":[[[118.7969,32.0478],[118.8044,32.0478],[118.8044,32.05405],[118.7969,32.05405],[118.7969,32.0478]]]}},{"type":"Feature","properties":{"cell_id":"nanjing_06_06","city_id":"nanjing","city_name_zh":"南京","row":6,"column":6,"area_km2":0.4912,"center_lon":118.80815,"center_lat":32.050925,"distance_to_center_km":1.487,"facility_count":0,"transit_count":0,"healthcare_count":0,"education_count":0,"park_count":0,"service_diversity":0,"facility_density_km2":0.0,"road_segment_count":10,"road_length_m":520.11,"road_density_km_km2":1.0588,"intersection_count":1,"elevation_m":15,"terrain_relief_m":6,"source_note":"OSM道路与设施聚合；SRTM高程采样；均为教学裁剪","accessibility_proxy":0.1734,"osm_intensity_class":"低","core_zone":"核心"},"geometry":{"type":"Polygon","coordinates":[[[118.8044,32.0478],[118.8119,32.0478],[118.8119,32.05405],[118.8044,32.05405],[118.8044,32.0478]]]}},{"type":"Feature","properties":{"cell_id":"nanjing_06_07","city_id":"nanjing","city_name_zh":"南京","row":6,"column":7,"area_km2":0.4912,"center_lon":118.81565,"center_lat":32.050925,"distance_to_center_km":2.052,"facility_count":0,"transit_count":0,"healthcare_count":0,"education_count":0,"park_count":0,"service_diversity":0,"facility_density_km2":0.0,"road_segment_count":63,"road_length_m":2680.61,"road_density_km_km2":5.4569,"intersection_count":8,"elevation_m":8,"terrain_relief_m":17,"source_note":"OSM道路与设施聚合；SRTM高程采样；均为教学裁剪","accessibility_proxy":0.2347,"osm_intensity_class":"较低","core_zone":"内圈"},"geometry":{"type":"Polygon","coordinates":[[[118.8119,32.0478],[118.8194,32.0478],[118.8194,32.05405],[118.8119,32.05405],[118.8119,32.0478]]]}},{"type":"Feature","properties":{"cell_id":"nanjing_06_08","city_id":"nanjing","city_name_zh":"南京","row":6,"column":8,"area_km2":0.4912,"center_lon":118.82315,"center_lat":32.050925,"distance_to_center_km":2.685,"facility_count":0,"transit_count":0,"healthcare_count":0,"education_count":0,"park_count":0,"service_diversity":0,"facility_density_km2":0.0,"road_segment_count":5,"road_length_m":1292.61,"road_density_km_km2":2.6313,"intersection_count":0,"elevation_m":21,"terrain_relief_m":9,"source_note":"OSM道路与设施聚合；SRTM高程采样；均为教学裁剪","accessibility_proxy":0.1545,"osm_intensity_class":"低","core_zone":"内圈"},"geometry":{"type":"Polygon","coordinates":[[[118.8194,32.0478],[118.8269,32.0478],[118.8269,32.05405],[118.8194,32.05405],[118.8194,32.0478]]]}},{"type":"Feature","properties":{"cell_id":"nanjing_07_01","city_id":"nanjing","city_name_zh":"南京","row":7,"column":1,"area_km2":0.4913,"center_lon":118.77065,"center_lat":32.044675,"distance_to_center_km":3.023,"facility_count":6,"transit_count":4,"healthcare_count":2,"education_count":0,"park_count":0,"service_diversity":2,"facility_density_km2":12.2132,"road_segment_count":47,"road_length_m":3497.09,"road_density_km_km2":7.1185,"intersection_count":12,"elevation_m":23,"terrain_relief_m":15,"source_note":"OSM道路与设施聚合；SRTM高程采样；均为教学裁剪","accessibility_proxy":0.3593,"osm_intensity_class":"较高","core_zone":"外圈"},"geometry":{"type":"Polygon","coordinates":[[[118.7669,32.04155],[118.7744,32.04155],[118.7744,32.0478],[118.7669,32.0478],[118.7669,32.04155]]]}},{"type":"Feature","properties":{"cell_id":"nanjing_07_02","city_id":"nanjing","city_name_zh":"南京","row":7,"column":2,"area_km2":0.4913,"center_lon":118.77815,"center_lat":32.044675,"distance_to_center_km":2.478,"facility_count":19,"transit_count":19,"healthcare_count":0,"education_count":0,"park_count":0,"service_diversity":1,"facility_density_km2":38.6752,"road_segment_count":400,"road_length_m":8262.7,"road_density_km_km2":16.819,"intersection_count":31,"elevation_m":15,"terrain_relief_m":16,"source_note":"OSM道路与设施聚合；SRTM高程采样；均为教学裁剪","accessibility_proxy":0.8442,"osm_intensity_class":"高","core_zone":"内圈"},"geometry":{"type":"Polygon","coordinates":[[[118.7744,32.04155],[118.7819,32.04155],[118.7819,32.0478],[118.7744,32.0478],[118.7744,32.04155]]]}},{"type":"Feature","properties":{"cell_id":"nanjing_07_03","city_id":"nanjing","city_name_zh":"南京","row":7,"column":3,"area_km2":0.4913,"center_lon":118.78565,"center_lat":32.044675,"distance_to_center_km":2.035,"facility_count":3,"transit_count":2,"healthcare_count":0,"education_count":1,"park_count":0,"service_diversity":2,"facility_density_km2":6.1066,"road_segment_count":87,"road_length_m":5808.4,"road_density_km_km2":11.8232,"intersection_count":19,"elevation_m":13,"terrain_relief_m":22,"source_note":"OSM道路与设施聚合；SRTM高程采样；均为教学裁剪","accessibility_proxy":0.4253,"osm_intensity_class":"高","core_zone":"内圈"},"geometry":{"type":"Polygon","coordinates":[[[118.7819,32.04155],[118.7894,32.04155],[118.7894,32.0478],[118.7819,32.0478],[118.7819,32.04155]]]}},{"type":"Feature","properties":{"cell_id":"nanjing_07_04","city_id":"nanjing","city_name_zh":"南京","row":7,"column":4,"area_km2":0.4913,"center_lon":118.79315,"center_lat":32.044675,"distance_to_center_km":1.773,"facility_count":5,"transit_count":5,"healthcare_count":0,"education_count":0,"park_count":0,"service_diversity":1,"facility_density_km2":10.1777,"road_segment_count":139,"road_length_m":6318.22,"road_density_km_km2":12.861,"intersection_count":19,"elevation_m":11,"terrain_relief_m":8,"source_note":"OSM道路与设施聚合；SRTM高程采样；均为教学裁剪","accessibility_proxy":0.4997,"osm_intensity_class":"高","core_zone":"内圈"},"geometry":{"type":"Polygon","coordinates":[[[118.7894,32.04155],[118.7969,32.04155],[118.7969,32.0478],[118.7894,32.0478],[118.7894,32.04155]]]}},{"type":"Feature","properties":{"cell_id":"nanjing_07_05","city_id":"nanjing","city_name_zh":"南京","row":7,"column":5,"area_km2":0.4913,"center_lon":118.80065,"center_lat":32.044675,"distance_to_center_km":1.773,"facility_count":6,"transit_count":5,"healthcare_count":0,"education_count":1,"park_count":0,"service_diversity":2,"facility_density_km2":12.2132,"road_segment_count":110,"road_length_m":5600.4,"road_density_km_km2":11.3998,"intersection_count":24,"elevation_m":15,"terrain_relief_m":8,"source_note":"OSM道路与设施聚合；SRTM高程采样；均为教学裁剪","accessibility_proxy":0.4916,"osm_intensity_class":"高","core_zone":"内圈"},"geometry":{"type":"Polygon","coordinates":[[[118.7969,32.04155],[118.8044,32.04155],[118.8044,32.0478],[118.7969,32.0478],[118.7969,32.04155]]]}},{"type":"Feature","properties":{"cell_id":"nanjing_07_06","city_id":"nanjing","city_name_zh":"南京","row":7,"column":6,"area_km2":0.4913,"center_lon":118.80815,"center_lat":32.044675,"distance_to_center_km":2.035,"facility_count":0,"transit_count":0,"healthcare_count":0,"education_count":0,"park_count":0,"service_diversity":0,"facility_density_km2":0.0,"road_segment_count":24,"road_length_m":3102.86,"road_density_km_km2":6.316,"intersection_count":4,"elevation_m":14,"terrain_relief_m":6,"source_note":"OSM道路与设施聚合；SRTM高程采样；均为教学裁剪","accessibility_proxy":0.2526,"osm_intensity_class":"较低","core_zone":"内圈"},"geometry":{"type":"Polygon","coordinates":[[[118.8044,32.04155],[118.8119,32.04155],[118.8119,32.0478],[118.8044,32.0478],[118.8044,32.04155]]]}},{"type":"Feature","properties":{"cell_id":"nanjing_07_07","city_id":"nanjing","city_name_zh":"南京","row":7,"column":7,"area_km2":0.4913,"center_lon":118.81565,"center_lat":32.044675,"distance_to_center_km":2.478,"facility_count":3,"transit_count":2,"healthcare_count":1,"education_count":0,"park_count":0,"service_diversity":2,"facility_density_km2":6.1066,"road_segment_count":58,"road_length_m":2837.15,"road_density_km_km2":5.7751,"intersection_count":7,"elevation_m":14,"terrain_relief_m":8,"source_note":"OSM道路与设施聚合；SRTM高程采样；均为教学裁剪","accessibility_proxy":0.2875,"osm_intensity_class":"较高","core_zone":"内圈"},"geometry":{"type":"Polygon","coordinates":[[[118.8119,32.04155],[118.8194,32.04155],[118.8194,32.0478],[118.8119,32.0478],[118.8119,32.04155]]]}},{"type":"Feature","properties":{"cell_id":"nanjing_07_08","city_id":"nanjing","city_name_zh":"南京","row":7,"column":8,"area_km2":0.4913,"center_lon":118.82315,"center_lat":32.044675,"distance_to_center_km":3.023,"facility_count":0,"transit_count":0,"healthcare_count":0,"education_count":0,"park_count":0,"service_diversity":0,"facility_density_km2":0.0,"road_segment_count":37,"road_length_m":1582.71,"road_density_km_km2":3.2217,"intersection_count":6,"elevation_m":13,"terrain_relief_m":12,"source_note":"OSM道路与设施聚合；SRTM高程采样；均为教学裁剪","accessibility_proxy":0.1554,"osm_intensity_class":"低","core_zone":"外圈"},"geometry":{"type":"Polygon","coordinates":[[[118.8194,32.04155],[118.8269,32.04155],[118.8269,32.0478],[118.8194,32.0478],[118.8194,32.04155]]]}},{"type":"Feature","properties":{"cell_id":"nanjing_08_01","city_id":"nanjing","city_name_zh":"南京","row":8,"column":1,"area_km2":0.4913,"center_lon":118.77065,"center_lat":32.038425,"distance_to_center_km":3.469,"facility_count":1,"transit_count":0,"healthcare_count":0,"education_count":1,"park_count":0,"service_diversity":1,"facility_density_km2":2.0354,"road_segment_count":62,"road_length_m":4247.28,"road_density_km_km2":8.6449,"intersection_count":15,"elevation_m":16,"terrain_relief_m":16,"source_note":"OSM道路与设施聚合；SRTM高程采样；均为教学裁剪","accessibility_proxy":0.2718,"osm_intensity_class":"较高","core_zone":"外圈"},"geometry":{"type":"Polygon","coordinates":[[[118.7669,32.0353],[118.7744,32.0353],[118.7744,32.04155],[118.7669,32.04155],[118.7669,32.0353]]]}},{"type":"Feature","properties":{"cell_id":"nanjing_08_02","city_id":"nanjing","city_name_zh":"南京","row":8,"column":2,"area_km2":0.4913,"center_lon":118.77815,"center_lat":32.038425,"distance_to_center_km":3.007,"facility_count":4,"transit_count":4,"healthcare_count":0,"education_count":0,"park_count":0,"service_diversity":1,"facility_density_km2":8.1416,"road_segment_count":133,"road_length_m":7267.69,"road_density_km_km2":14.7926,"intersection_count":30,"elevation_m":8,"terrain_relief_m":22,"source_note":"OSM道路与设施聚合；SRTM高程采样；均为教学裁剪","accessibility_proxy":0.4704,"osm_intensity_class":"高","core_zone":"外圈"},"geometry":{"type":"Polygon","coordinates":[[[118.7744,32.0353],[118.7819,32.0353],[118.7819,32.04155],[118.7744,32.04155],[118.7744,32.0353]]]}},{"type":"Feature","properties":{"cell_id":"nanjing_08_03","city_id":"nanjing","city_name_zh":"南京","row":8,"column":3,"area_km2":0.4913,"center_lon":118.78565,"center_lat":32.038425,"distance_to_center_km":2.653,"facility_count":4,"transit_count":2,"healthcare_count":2,"education_count":0,"park_count":0,"service_diversity":2,"facility_density_km2":8.1416,"road_segment_count":127,"road_length_m":6296.78,"road_density_km_km2":12.8164,"intersection_count":35,"elevation_m":15,"terrain_relief_m":22,"source_note":"OSM道路与设施聚合；SRTM高程采样；均为教学裁剪","accessibility_proxy":0.4425,"osm_intensity_class":"高","core_zone":"内圈"},"geometry":{"type":"Polygon","coordinates":[[[118.7819,32.0353],[118.7894,32.0353],[118.7894,32.04155],[118.7819,32.04155],[118.7819,32.0353]]]}},{"type":"Feature","properties":{"cell_id":"nanjing_08_04","city_id":"nanjing","city_name_zh":"南京","row":8,"column":4,"area_km2":0.4913,"center_lon":118.79315,"center_lat":32.038425,"distance_to_center_km":2.458,"facility_count":0,"transit_count":0,"healthcare_count":0,"education_count":0,"park_count":0,"service_diversity":0,"facility_density_km2":0.0,"road_segment_count":165,"road_length_m":8640.36,"road_density_km_km2":17.5866,"intersection_count":59,"elevation_m":15,"terrain_relief_m":8,"source_note":"OSM道路与设施聚合；SRTM高程采样；均为教学裁剪","accessibility_proxy":0.4602,"osm_intensity_class":"高","core_zone":"内圈"},"geometry":{"type":"Polygon","coordinates":[[[118.7894,32.0353],[118.7969,32.0353],[118.7969,32.04155],[118.7894,32.04155],[118.7894,32.0353]]]}},{"type":"Feature","properties":{"cell_id":"nanjing_08_05","city_id":"nanjing","city_name_zh":"南京","row":8,"column":5,"area_km2":0.4913,"center_lon":118.80065,"center_lat":32.038425,"distance_to_center_km":2.458,"facility_count":0,"transit_count":0,"healthcare_count":0,"education_count":0,"park_count":0,"service_diversity":0,"facility_density_km2":0.0,"road_segment_count":50,"road_length_m":3787.91,"road_density_km_km2":7.7099,"intersection_count":9,"elevation_m":10,"terrain_relief_m":8,"source_note":"OSM道路与设施聚合；SRTM高程采样；均为教学裁剪","accessibility_proxy":0.2636,"osm_intensity_class":"较低","core_zone":"内圈"},"geometry":{"type":"Polygon","coordinates":[[[118.7969,32.0353],[118.8044,32.0353],[118.8044,32.04155],[118.7969,32.04155],[118.7969,32.0353]]]}},{"type":"Feature","properties":{"cell_id":"nanjing_08_06","city_id":"nanjing","city_name_zh":"南京","row":8,"column":6,"area_km2":0.4913,"center_lon":118.80815,"center_lat":32.038425,"distance_to_center_km":2.653,"facility_count":0,"transit_count":0,"healthcare_count":0,"education_count":0,"park_count":0,"service_diversity":0,"facility_density_km2":0.0,"road_segment_count":24,"road_length_m":1892.75,"road_density_km_km2":3.8525,"intersection_count":4,"elevation_m":13,"terrain_relief_m":8,"source_note":"OSM道路与设施聚合；SRTM高程采样；均为教学裁剪","accessibility_proxy":0.1799,"osm_intensity_class":"低","core_zone":"内圈"},"geometry":{"type":"Polygon","coordinates":[[[118.8044,32.0353],[118.8119,32.0353],[118.8119,32.04155],[118.8044,32.04155],[118.8044,32.0353]]]}},{"type":"Feature","properties":{"cell_id":"nanjing_08_07","city_id":"nanjing","city_name_zh":"南京","row":8,"column":7,"area_km2":0.4913,"center_lon":118.81565,"center_lat":32.038425,"distance_to_center_km":3.007,"facility_count":3,"transit_count":2,"healthcare_count":0,"education_count":0,"park_count":1,"service_diversity":2,"facility_density_km2":6.1062,"road_segment_count":48,"road_length_m":2788.47,"road_density_km_km2":5.6756,"intersection_count":8,"elevation_m":11,"terrain_relief_m":6,"source_note":"OSM道路与设施聚合；SRTM高程采样；均为教学裁剪","accessibility_proxy":0.2679,"osm_intensity_class":"较低","core_zone":"外圈"},"geometry":{"type":"Polygon","coordinates":[[[118.8119,32.0353],[118.8194,32.0353],[118.8194,32.04155],[118.8119,32.04155],[118.8119,32.0353]]]}},{"type":"Feature","properties":{"cell_id":"nanjing_08_08","city_id":"nanjing","city_name_zh":"南京","row":8,"column":8,"area_km2":0.4913,"center_lon":118.82315,"center_lat":32.038425,"distance_to_center_km":3.469,"facility_count":0,"transit_count":0,"healthcare_count":0,"education_count":0,"park_count":0,"service_diversity":0,"facility_density_km2":0.0,"road_segment_count":48,"road_length_m":2670.35,"road_density_km_km2":5.4352,"intersection_count":4,"elevation_m":7,"terrain_relief_m":17,"source_note":"OSM道路与设施聚合；SRTM高程采样；均为教学裁剪","accessibility_proxy":0.1868,"osm_intensity_class":"较低","core_zone":"外圈"},"geometry":{"type":"Polygon","coordinates":[[[118.8194,32.0353],[118.8269,32.0353],[118.8269,32.04155],[118.8194,32.04155],[118.8194,32.0353]]]}}]}