{"type":"FeatureCollection","name":"nanjing_ghsl_boundary","crs":{"type":"name","properties":{"name":"urn:ogc:def:crs:OGC:1.3:CRS84"}},"features":[{"type":"Feature","properties":{"uc_id":10887,"city_name_en":"Nanjing","city_name_zh":"南京","country":"China","urban_area_km2_2025":1012,"population_2025":8061028,"population_density_km2_2025":7965.44,"gdp_average_ppp_1990":5700444,"gdp_average_ppp_2000":19852160,"gdp_average_ppp_2010":65272020,"gdp_average_ppp_2020":175976900,"gdp_total_ppp_1990":7866611712,"gdp_total_ppp_2000":27395981312,"gdp_total_ppp_2010":90140655616,"gdp_total_ppp_2020":244000000000,"hdi_1990":0.513,"hdi_2000":0.614,"hdi_2010":0.729,"hdi_2020":0.805},"geometry":{"type":"Polygon","coordinates":[[[118.855941521244,32.3614780940144],[118.86701952826,32.3614780940144],[118.859963166482,32.3528544307013],[118.882117866278,32.3528544307013],[118.875063246333,32.344231077437],[118.886139939114,32.344231077437],[118.872038553195,32.3269853020592],[118.849887795206,32.3269853020592],[118.842842996542,32.3183628800679],[118.831768274665,32.3183628800679],[118.81768914271,32.3011189636078],[118.828762553047,32.3011189636078],[118.821726905521,32.2924974700186],[118.832799659189,32.2924974700186],[118.825766404775,32.2838762865231],[118.836838503571,32.2838762865231],[118.829807639574,32.2752554120418],[118.840879083498,32.2752554120418],[118.826825183423,32.2580145903589],[118.837895318502,32.2580145903589],[118.830872279729,32.2493946425156],[118.819802798624,32.2493946425156],[118.805767154112,32.2321556742578],[118.794698981852,32.2321556742578],[118.78768637252,32.2235366532002],[118.776618853335,32.2235366532002],[118.755601205093,32.1976814407268],[118.76666676595,32.1976814407268],[118.759666300044,32.1890636531535],[118.770731208725,32.1890636531535],[118.763733123354,32.1804461733341],[118.774797380756,32.1804461733341],[118.746832735232,32.1459793319637],[118.757894386621,32.1459793319637],[118.750910144289,32.137363390618],[118.761971145298,32.137363390618],[118.754989278111,32.1287477558412],[118.777109980267,32.1287477558412],[118.791079342586,32.1459793319637],[118.802140993975,32.1459793319637],[118.809130866948,32.1545955809641],[118.820193169616,32.1545955809641],[118.827186722087,32.163212137183],[118.838249676034,32.163212137183],[118.8452469107,32.1718290017053],[118.856310515925,32.1718290017053],[118.863311435481,32.1804461733341],[118.907568462394,32.1804461733341],[118.900564936826,32.1718290017053],[118.966946568177,32.1718290017053],[118.938947166834,32.137363390618],[118.950008167843,32.137363390618],[118.943015245988,32.1287477558412],[118.965135948144,32.1287477558412],[118.972130170759,32.137363390618],[118.983191171769,32.137363390618],[118.997190012303,32.1545955809641],[119.008252314971,32.1545955809641],[119.001250727967,32.1459793319637],[119.012312379357,32.1459793319637],[118.998317001828,32.1287477558412],[118.9872566503,32.1287477558412],[118.980264157841,32.1201324288298],[118.969204456694,32.1201324288298],[118.955229857197,32.1029026952794],[118.944171455014,32.1029026952794],[118.923234194312,32.0770603965723],[118.934290649846,32.0770603965723],[118.927316960023,32.0684469093099],[118.960484380873,32.0684469093099],[118.953511768131,32.0598337290517],[118.964566927396,32.0598337290517],[118.957596687104,32.0512208547088],[118.946542175524,32.0512208547088],[118.939575602155,32.042608286715],[118.928521738261,32.042608286715],[118.921558830019,32.0339960247426],[118.91050561381,32.0339960247426],[118.903546367999,32.0253840677016],[118.892493798577,32.0253840677016],[118.871636084591,31.9995500320203],[118.882686715449,31.9995500320203],[118.875739520537,31.9909392982723],[118.886789506404,31.9909392982723],[118.87290285377,31.9737187448753],[118.88395154786,31.9737187448753],[118.877012088341,31.9651089253281],[118.89910818654,31.9651089253281],[118.892170443702,31.956499411124],[118.903217848709,31.956499411124],[118.896282466644,31.9478902019326],[118.918375987576,31.9478902019326],[118.904511658975,31.9306726965012],[118.915557131706,31.9306726965012],[118.901703526296,31.9134564086699],[118.912747711741,31.9134564086699],[118.90582476685,31.9048487210966],[118.91686831,31.9048487210966],[118.896115536308,31.8790274812823],[118.907157151673,31.8790274812823],[118.900244911107,31.8704210083782],[118.911285885076,31.8704210083782],[118.897469103405,31.8532089741724],[118.90850879368,31.8532089741724],[118.894702698368,31.8359981532109],[118.905741107646,31.8359981532109],[118.885052464682,31.8101841930379],[118.85194299954,31.8101841930379],[118.845054679314,31.8015801456581],[118.822982981155,31.8015801456581],[118.816098923435,31.7929764003429],[118.805063713956,31.7929764003429],[118.798183277345,31.78437295752],[118.787148707466,31.78437295752],[118.800911283894,31.8015801456581],[118.789875435713,31.8015801456581],[118.796760557937,31.8101841930379],[118.785724070155,31.8101841930379],[118.792611536982,31.8187885435816],[118.781574408702,31.8187885435816],[118.788464220131,31.8273931968609],[118.766388683471,31.8273931968609],[118.773280199903,31.8359981532109],[118.784318609181,31.8359981532109],[118.818824227852,31.8790274812823],[118.807782612487,31.8790274812823],[118.814692069174,31.8876342569728],[118.770523038531,31.8876342569728],[118.77743292012,31.8962413373084],[118.755347120208,31.8962413373084],[118.783011461628,31.9306726965012],[118.771965988897,31.9306726965012],[118.778888925702,31.9392812966605],[118.767842808879,31.9392812966605],[118.774768101966,31.9478902019326],[118.752674581034,31.9478902019326],[118.74575057703,31.9392812966605],[118.701566111533,31.9392812966605],[118.694647681576,31.9306726965012],[118.683602208844,31.9306726965012],[118.655961019704,31.8962413373084],[118.589703619967,31.8962413373084],[118.596605570331,31.9048487210966],[118.585562027181,31.9048487210966],[118.633955000071,31.9651089253281],[118.64500304917,31.9651089253281],[118.665789804333,31.9909392982723],[118.654739819364,31.9909392982723],[118.689441278852,32.0339960247426],[118.678388061745,32.0339960247426],[118.699243109531,32.0598337290517],[118.710298267898,32.0598337290517],[118.724217997398,32.0770603965723],[118.713161541865,32.0770603965723],[118.720125281947,32.0856741896432],[118.70906817783,32.0856741896432],[118.688187950266,32.0598337290517],[118.655022472472,32.0598337290517],[118.648070369166,32.0512208547088],[118.637015857586,32.0512208547088],[118.623121978904,32.0339960247426],[118.612068761797,32.0339960247426],[118.605126982828,32.0253840677016],[118.583021843086,32.0253840677016],[118.596905821435,32.042608286715],[118.585851957541,32.042608286715],[118.592797812166,32.0512208547088],[118.581743301485,32.0512208547088],[118.595642747027,32.0684469093099],[118.584586940077,32.0684469093099],[118.598497138452,32.0856741896432],[118.620611346687,32.0856741896432],[118.627572265161,32.0942882888498],[118.638630017862,32.0942882888498],[118.645594602361,32.1029026952794],[118.656653003646,32.1029026952794],[118.670592528422,32.1201324288298],[118.659532827275,32.1201324288298],[118.666506469487,32.1287477558412],[118.655446118858,32.1287477558412],[118.662422133521,32.137363390618],[118.673483135428,32.137363390618],[118.6874455376,32.1545955809641],[118.676383234932,32.1545955809641],[118.683368322579,32.163212137183],[118.639116507691,32.163212137183],[118.653090554723,32.1804461733341],[118.664154812126,32.1804461733341],[118.671147029701,32.1890636531535],[118.682211938381,32.1890636531535],[118.724232844753,32.2407750046822],[118.713164017622,32.2407750046822],[118.720177474963,32.2493946425156],[118.731246955171,32.2493946425156],[118.738264106385,32.2580145903589],[118.749334240566,32.2580145903589],[118.770405909896,32.2838762865231],[118.759333810201,32.2838762865231],[118.78746938626,32.3183628800679],[118.776394664383,32.3183628800679],[118.790479435063,32.3356080346625],[118.801555471175,32.3356080346625],[118.829764286878,32.3701020676944],[118.863000282422,32.3701020676944],[118.855941521244,32.3614780940144]]]}}]}