{"type":"FeatureCollection","name":"nanjing_facilities","crs":{"type":"name","properties":{"name":"urn:ogc:def:crs:OGC:1.3:CRS84"}},"features":[{"type":"Feature","properties":{"facility_id":"osm_node_13683750001","osm_id":"13683750001","name":"南京錦創書城","category":"culture","category_zh":"文化","amenity":"library","railway":null,"source":"OpenStreetMap"},"geometry":{"type":"Point","coordinates":[118.801329,32.0478809]}},{"type":"Feature","properties":{"facility_id":"osm_node_1984689547","osm_id":"1984689547","name":"德国研究图书馆","category":"culture","category_zh":"文化","amenity":"library","railway":null,"source":"OpenStreetMap"},"geometry":{"type":"Point","coordinates":[118.7745951,32.058776]}},{"type":"Feature","properties":{"facility_id":"osm_node_3387153747","osm_id":"3387153747","name":"未命名设施","category":"culture","category_zh":"文化","amenity":"library","railway":null,"source":"OpenStreetMap"},"geometry":{"type":"Point","coordinates":[118.7747791,32.0629337]}},{"type":"Feature","properties":{"facility_id":"osm_node_6901818354","osm_id":"6901818354","name":"南京外国语学校图书馆","category":"culture","category_zh":"文化","amenity":"library","railway":null,"source":"OpenStreetMap"},"geometry":{"type":"Point","coordinates":[118.7963618,32.058181]}},{"type":"Feature","properties":{"facility_id":"osm_node_1058300701","osm_id":"1058300701","name":"南京人口学校","category":"education","category_zh":"教育","amenity":"college","railway":null,"source":"OpenStreetMap"},"geometry":{"type":"Point","coordinates":[118.8194545,32.084667]}},{"type":"Feature","properties":{"facility_id":"osm_node_1058304427","osm_id":"1058304427","name":"南京师范大学紫金校区","category":"education","category_zh":"教育","amenity":"college","railway":null,"source":"OpenStreetMap"},"geometry":{"type":"Point","coordinates":[118.8160641,32.0739218]}},{"type":"Feature","properties":{"facility_id":"osm_node_1058313052","osm_id":"1058313052","name":"南京玄武高级中学","category":"education","category_zh":"教育","amenity":"school","railway":null,"source":"OpenStreetMap"},"geometry":{"type":"Point","coordinates":[118.8087267,32.058319]}},{"type":"Feature","properties":{"facility_id":"osm_node_1058331313","osm_id":"1058331313","name":"人民中学","category":"education","category_zh":"教育","amenity":"school","railway":null,"source":"OpenStreetMap"},"geometry":{"type":"Point","coordinates":[118.7798897,32.0507544]}},{"type":"Feature","properties":{"facility_id":"osm_node_1058335545","osm_id":"1058335545","name":"梅园中学","category":"education","category_zh":"教育","amenity":"school","railway":null,"source":"OpenStreetMap"},"geometry":{"type":"Point","coordinates":[118.7972919,32.0472079]}},{"type":"Feature","properties":{"facility_id":"osm_node_1097657641","osm_id":"1097657641","name":"成贤街小学","category":"education","category_zh":"教育","amenity":"school","railway":null,"source":"OpenStreetMap"},"geometry":{"type":"Point","coordinates":[118.7923763,32.0535805]}},{"type":"Feature","properties":{"facility_id":"osm_node_13099762908","osm_id":"13099762908","name":"经济管理学院","category":"education","category_zh":"教育","amenity":"college","railway":null,"source":"OpenStreetMap"},"geometry":{"type":"Point","coordinates":[118.8063694,32.0793252]}},{"type":"Feature","properties":{"facility_id":"osm_node_13099762909","osm_id":"13099762909","name":"家居与工业设计学院","category":"education","category_zh":"教育","amenity":"college","railway":null,"source":"OpenStreetMap"},"geometry":{"type":"Point","coordinates":[118.8065612,32.0797247]}},{"type":"Feature","properties":{"facility_id":"osm_node_13099762910","osm_id":"13099762910","name":"人文社会科学学院","category":"education","category_zh":"教育","amenity":"college","railway":null,"source":"OpenStreetMap"},"geometry":{"type":"Point","coordinates":[118.8060629,32.0798336]}},{"type":"Feature","properties":{"facility_id":"osm_node_13099762911","osm_id":"13099762911","name":"艺术设计学院","category":"education","category_zh":"教育","amenity":"college","railway":null,"source":"OpenStreetMap"},"geometry":{"type":"Point","coordinates":[118.8065825,32.0793916]}},{"type":"Feature","properties":{"facility_id":"osm_node_13099762912","osm_id":"13099762912","name":"外国语学院","category":"education","category_zh":"教育","amenity":"college","railway":null,"source":"OpenStreetMap"},"geometry":{"type":"Point","coordinates":[118.8061104,32.0792643]}},{"type":"Feature","properties":{"facility_id":"osm_node_13099762913","osm_id":"13099762913","name":"马克思主义学院","category":"education","category_zh":"教育","amenity":"college","railway":null,"source":"OpenStreetMap"},"geometry":{"type":"Point","coordinates":[118.8060353,32.079257]}},{"type":"Feature","properties":{"facility_id":"osm_node_13099762914","osm_id":"13099762914","name":"MBA教育中心","category":"education","category_zh":"教育","amenity":"college","railway":null,"source":"OpenStreetMap"},"geometry":{"type":"Point","coordinates":[118.8060644,32.0803924]}},{"type":"Feature","properties":{"facility_id":"osm_node_13099762915","osm_id":"13099762915","name":"继续教育学院","category":"education","category_zh":"教育","amenity":"college","railway":null,"source":"OpenStreetMap"},"geometry":{"type":"Point","coordinates":[118.8072924,32.0783809]}},{"type":"Feature","properties":{"facility_id":"osm_node_13099762925","osm_id":"13099762925","name":"林草学院、水土保持学院","category":"education","category_zh":"教育","amenity":"college","railway":null,"source":"OpenStreetMap"},"geometry":{"type":"Point","coordinates":[118.8087912,32.0787297]}},{"type":"Feature","properties":{"facility_id":"osm_node_13099762926","osm_id":"13099762926","name":"化学工程学院","category":"education","category_zh":"教育","amenity":"college","railway":null,"source":"OpenStreetMap"},"geometry":{"type":"Point","coordinates":[118.8084587,32.0798472]}},{"type":"Feature","properties":{"facility_id":"osm_node_13099762927","osm_id":"13099762927","name":"机械电子工程学院","category":"education","category_zh":"教育","amenity":"college","railway":null,"source":"OpenStreetMap"},"geometry":{"type":"Point","coordinates":[118.8101922,32.0790431]}},{"type":"Feature","properties":{"facility_id":"osm_node_13099762928","osm_id":"13099762928","name":"生命科学学院","category":"education","category_zh":"教育","amenity":"college","railway":null,"source":"OpenStreetMap"},"geometry":{"type":"Point","coordinates":[118.8095646,32.0785081]}},{"type":"Feature","properties":{"facility_id":"osm_node_13099762929","osm_id":"13099762929","name":"生态与环境学院","category":"education","category_zh":"教育","amenity":"college","railway":null,"source":"OpenStreetMap"},"geometry":{"type":"Point","coordinates":[118.8096543,32.0785683]}},{"type":"Feature","properties":{"facility_id":"osm_node_13099762937","osm_id":"13099762937","name":"风景园林学院","category":"education","category_zh":"教育","amenity":"college","railway":null,"source":"OpenStreetMap"},"geometry":{"type":"Point","coordinates":[118.8172344,32.0803658]}},{"type":"Feature","properties":{"facility_id":"osm_node_13099762938","osm_id":"13099762938","name":"轻工与食品学院","category":"education","category_zh":"教育","amenity":"college","railway":null,"source":"OpenStreetMap"},"geometry":{"type":"Point","coordinates":[118.8170542,32.0793877]}},{"type":"Feature","properties":{"facility_id":"osm_node_13099762964","osm_id":"13099762964","name":"体育教研部","category":"education","category_zh":"教育","amenity":"college","railway":null,"source":"OpenStreetMap"},"geometry":{"type":"Point","coordinates":[118.8116864,32.0834612]}},{"type":"Feature","properties":{"facility_id":"osm_node_13099763002","osm_id":"13099763002","name":"国际教育学院","category":"education","category_zh":"教育","amenity":"college","railway":null,"source":"OpenStreetMap"},"geometry":{"type":"Point","coordinates":[118.8060291,32.0780411]}},{"type":"Feature","properties":{"facility_id":"osm_node_13409930649","osm_id":"13409930649","name":"信息科学与技术学院、人工智能学院","category":"education","category_zh":"教育","amenity":"college","railway":null,"source":"OpenStreetMap"},"geometry":{"type":"Point","coordinates":[118.8057485,32.0781913]}},{"type":"Feature","properties":{"facility_id":"osm_node_1494967465","osm_id":"1494967465","name":"南京五中","category":"education","category_zh":"教育","amenity":"school","railway":null,"source":"OpenStreetMap"},"geometry":{"type":"Point","coordinates":[118.7724199,32.0410775]}},{"type":"Feature","properties":{"facility_id":"osm_node_1608079748","osm_id":"1608079748","name":"珠江路小学","category":"education","category_zh":"教育","amenity":"school","railway":null,"source":"OpenStreetMap"},"geometry":{"type":"Point","coordinates":[118.7854604,32.0520014]}},{"type":"Feature","properties":{"facility_id":"osm_node_2024977728","osm_id":"2024977728","name":"南京大学附属中学国际高中","category":"education","category_zh":"教育","amenity":"school","railway":null,"source":"OpenStreetMap"},"geometry":{"type":"Point","coordinates":[118.7725194,32.0543028]}},{"type":"Feature","properties":{"facility_id":"osm_node_2157459590","osm_id":"2157459590","name":"南京第二幼儿园","category":"education","category_zh":"教育","amenity":"kindergarten","railway":null,"source":"OpenStreetMap"},"geometry":{"type":"Point","coordinates":[118.7687944,32.0544626]}},{"type":"Feature","properties":{"facility_id":"osm_node_3727328553","osm_id":"3727328553","name":"水上运动学校","category":"education","category_zh":"教育","amenity":"school","railway":null,"source":"OpenStreetMap"},"geometry":{"type":"Point","coordinates":[118.8018007,32.0642731]}},{"type":"Feature","properties":{"facility_id":"osm_node_4745751722","osm_id":"4745751722","name":"长江路小学","category":"education","category_zh":"教育","amenity":"school","railway":null,"source":"OpenStreetMap"},"geometry":{"type":"Point","coordinates":[118.7870765,32.0470433]}},{"type":"Feature","properties":{"facility_id":"osm_node_5104682252","osm_id":"5104682252","name":"小营小学","category":"education","category_zh":"教育","amenity":"school","railway":null,"source":"OpenStreetMap"},"geometry":{"type":"Point","coordinates":[118.8023363,32.0570063]}},{"type":"Feature","properties":{"facility_id":"osm_node_5104682253","osm_id":"5104682253","name":"小百灵幼儿园","category":"education","category_zh":"教育","amenity":"kindergarten","railway":null,"source":"OpenStreetMap"},"geometry":{"type":"Point","coordinates":[118.801686,32.0561573]}},{"type":"Feature","properties":{"facility_id":"osm_node_7967791173","osm_id":"7967791173","name":"北京东路小学","category":"education","category_zh":"教育","amenity":"school","railway":null,"source":"OpenStreetMap"},"geometry":{"type":"Point","coordinates":[118.7940867,32.0598423]}},{"type":"Feature","properties":{"facility_id":"osm_node_7992465398","osm_id":"7992465398","name":"北京东路小学附属幼儿园","category":"education","category_zh":"教育","amenity":"kindergarten","railway":null,"source":"OpenStreetMap"},"geometry":{"type":"Point","coordinates":[118.7935181,32.0600132]}},{"type":"Feature","properties":{"facility_id":"osm_node_2153973734","osm_id":"2153973734","name":"八一医院","category":"healthcare","category_zh":"医疗","amenity":"hospital","railway":null,"source":"OpenStreetMap"},"geometry":{"type":"Point","coordinates":[118.7890299,32.0366292]}},{"type":"Feature","properties":{"facility_id":"osm_node_4403656724","osm_id":"4403656724","name":"未命名设施","category":"healthcare","category_zh":"医疗","amenity":"hospital","railway":null,"source":"OpenStreetMap"},"geometry":{"type":"Point","coordinates":[118.7710466,32.0427255]}},{"type":"Feature","properties":{"facility_id":"osm_node_4697397790","osm_id":"4697397790","name":"秦淮区妇幼保健所","category":"healthcare","category_zh":"医疗","amenity":"clinic","railway":null,"source":"OpenStreetMap"},"geometry":{"type":"Point","coordinates":[118.7892745,32.0382182]}},{"type":"Feature","properties":{"facility_id":"osm_node_5251808322","osm_id":"5251808322","name":"江苏省肿瘤医院","category":"healthcare","category_zh":"医疗","amenity":"hospital","railway":null,"source":"OpenStreetMap"},"geometry":{"type":"Point","coordinates":[118.7815085,32.0707995]}},{"type":"Feature","properties":{"facility_id":"osm_node_5314427222","osm_id":"5314427222","name":"中大医院","category":"healthcare","category_zh":"医疗","amenity":"hospital","railway":null,"source":"OpenStreetMap"},"geometry":{"type":"Point","coordinates":[118.7717142,32.0731683]}},{"type":"Feature","properties":{"facility_id":"osm_node_5522511479","osm_id":"5522511479","name":"学校门诊","category":"healthcare","category_zh":"医疗","amenity":"clinic","railway":null,"source":"OpenStreetMap"},"geometry":{"type":"Point","coordinates":[118.7670555,32.0836934]}},{"type":"Feature","properties":{"facility_id":"osm_node_5536911663","osm_id":"5536911663","name":"未命名设施","category":"healthcare","category_zh":"医疗","amenity":"hospital","railway":null,"source":"OpenStreetMap"},"geometry":{"type":"Point","coordinates":[118.8222197,32.0825425]}},{"type":"Feature","properties":{"facility_id":"osm_node_6348688896","osm_id":"6348688896","name":"综合门诊部","category":"healthcare","category_zh":"医疗","amenity":"hospital","railway":null,"source":"OpenStreetMap"},"geometry":{"type":"Point","coordinates":[118.8116747,32.0788678]}},{"type":"Feature","properties":{"facility_id":"osm_node_7403767595","osm_id":"7403767595","name":"熊猫医院","category":"healthcare","category_zh":"医疗","amenity":"hospital","railway":null,"source":"OpenStreetMap"},"geometry":{"type":"Point","coordinates":[118.8181199,32.046007]}},{"type":"Feature","properties":{"facility_id":"osm_node_772575588","osm_id":"772575588","name":"江苏省口腔医院","category":"healthcare","category_zh":"医疗","amenity":"hospital","railway":null,"source":"OpenStreetMap"},"geometry":{"type":"Point","coordinates":[118.7706098,32.0449011]}},{"type":"Feature","properties":{"facility_id":"osm_node_772584568","osm_id":"772584568","name":"南京儿童医院","category":"healthcare","category_zh":"医疗","amenity":"hospital","railway":null,"source":"OpenStreetMap"},"geometry":{"type":"Point","coordinates":[118.7739688,32.0525487]}},{"type":"Feature","properties":{"facility_id":"osm_node_13621823577","osm_id":"13621823577","name":"藏春亭","category":"park","category_zh":"公园","amenity":null,"railway":null,"source":"OpenStreetMap"},"geometry":{"type":"Point","coordinates":[118.7877975,32.0737996]}},{"type":"Feature","properties":{"facility_id":"osm_node_7396886711","osm_id":"7396886711","name":"东华门遗址公园","category":"park","category_zh":"公园","amenity":null,"railway":null,"source":"OpenStreetMap"},"geometry":{"type":"Point","coordinates":[118.8165726,32.040294]}},{"type":"Feature","properties":{"facility_id":"osm_node_9738902024","osm_id":"9738902024","name":"情侣园","category":"park","category_zh":"公园","amenity":null,"railway":null,"source":"OpenStreetMap"},"geometry":{"type":"Point","coordinates":[118.8051933,32.0721266]}},{"type":"Feature","properties":{"facility_id":"osm_node_1234712870","osm_id":"1234712870","name":"新街口#1","category":"transit","category_zh":"公共交通","amenity":null,"railway":"subway_entrance","source":"OpenStreetMap"},"geometry":{"type":"Point","coordinates":[118.7784549,32.041592]}},{"type":"Feature","properties":{"facility_id":"osm_node_1234712872","osm_id":"1234712872","name":"新街口#2","category":"transit","category_zh":"公共交通","amenity":null,"railway":"subway_entrance","source":"OpenStreetMap"},"geometry":{"type":"Point","coordinates":[118.7786035,32.0414655]}},{"type":"Feature","properties":{"facility_id":"osm_node_1234712875","osm_id":"1234712875","name":"新街口#3","category":"transit","category_zh":"公共交通","amenity":null,"railway":"subway_entrance","source":"OpenStreetMap"},"geometry":{"type":"Point","coordinates":[118.7782419,32.0424462]}},{"type":"Feature","properties":{"facility_id":"osm_node_1234712877","osm_id":"1234712877","name":"新街口#5","category":"transit","category_zh":"公共交通","amenity":null,"railway":"subway_entrance","source":"OpenStreetMap"},"geometry":{"type":"Point","coordinates":[118.7780754,32.0436449]}},{"type":"Feature","properties":{"facility_id":"osm_node_1234712883","osm_id":"1234712883","name":"新街口#20","category":"transit","category_zh":"公共交通","amenity":null,"railway":"subway_entrance","source":"OpenStreetMap"},"geometry":{"type":"Point","coordinates":[118.7765333,32.0442098]}},{"type":"Feature","properties":{"facility_id":"osm_node_1234712884","osm_id":"1234712884","name":"新街口#21","category":"transit","category_zh":"公共交通","amenity":null,"railway":"subway_entrance","source":"OpenStreetMap"},"geometry":{"type":"Point","coordinates":[118.7768925,32.0438108]}},{"type":"Feature","properties":{"facility_id":"osm_node_1234712886","osm_id":"1234712886","name":"新街口#6","category":"transit","category_zh":"公共交通","amenity":null,"railway":"subway_entrance","source":"OpenStreetMap"},"geometry":{"type":"Point","coordinates":[118.7782717,32.0441398]}},{"type":"Feature","properties":{"facility_id":"osm_node_1234712888","osm_id":"1234712888","name":"新街口#7","category":"transit","category_zh":"公共交通","amenity":null,"railway":"subway_entrance","source":"OpenStreetMap"},"geometry":{"type":"Point","coordinates":[118.7791699,32.0445185]}},{"type":"Feature","properties":{"facility_id":"osm_node_1234712890","osm_id":"1234712890","name":"新街口#9","category":"transit","category_zh":"公共交通","amenity":null,"railway":"subway_entrance","source":"OpenStreetMap"},"geometry":{"type":"Point","coordinates":[118.7791557,32.0430241]}},{"type":"Feature","properties":{"facility_id":"osm_node_1234712891","osm_id":"1234712891","name":"新街口#10","category":"transit","category_zh":"公共交通","amenity":null,"railway":"subway_entrance","source":"OpenStreetMap"},"geometry":{"type":"Point","coordinates":[118.7791821,32.0427862]}},{"type":"Feature","properties":{"facility_id":"osm_node_1234712893","osm_id":"1234712893","name":"新街口#11","category":"transit","category_zh":"公共交通","amenity":null,"railway":"subway_entrance","source":"OpenStreetMap"},"geometry":{"type":"Point","coordinates":[118.7791314,32.0426293]}},{"type":"Feature","properties":{"facility_id":"osm_node_1234712894","osm_id":"1234712894","name":"新街口#13","category":"transit","category_zh":"公共交通","amenity":null,"railway":"subway_entrance","source":"OpenStreetMap"},"geometry":{"type":"Point","coordinates":[118.7791336,32.0414826]}},{"type":"Feature","properties":{"facility_id":"osm_node_1234712895","osm_id":"1234712895","name":"新街口#14","category":"transit","category_zh":"公共交通","amenity":null,"railway":"subway_entrance","source":"OpenStreetMap"},"geometry":{"type":"Point","coordinates":[118.7791289,32.0405361]}},{"type":"Feature","properties":{"facility_id":"osm_node_1234712896","osm_id":"1234712896","name":"新街口#15","category":"transit","category_zh":"公共交通","amenity":null,"railway":"subway_entrance","source":"OpenStreetMap"},"geometry":{"type":"Point","coordinates":[118.7786154,32.0408417]}},{"type":"Feature","properties":{"facility_id":"osm_node_1234712897","osm_id":"1234712897","name":"新街口#22","category":"transit","category_zh":"公共交通","amenity":null,"railway":"subway_entrance","source":"OpenStreetMap"},"geometry":{"type":"Point","coordinates":[118.7795916,32.0436346]}},{"type":"Feature","properties":{"facility_id":"osm_node_1234712899","osm_id":"1234712899","name":"新街口#24","category":"transit","category_zh":"公共交通","amenity":null,"railway":"subway_entrance","source":"OpenStreetMap"},"geometry":{"type":"Point","coordinates":[118.7815878,32.0434433]}},{"type":"Feature","properties":{"facility_id":"osm_node_13057948208","osm_id":"13057948208","name":"青春广场","category":"transit","category_zh":"公共交通","amenity":null,"railway":"station","source":"OpenStreetMap"},"geometry":{"type":"Point","coordinates":[118.7676754,32.0706063]}},{"type":"Feature","properties":{"facility_id":"osm_node_13059514821","osm_id":"13059514821","name":"五台山","category":"transit","category_zh":"公共交通","amenity":null,"railway":"station","source":"OpenStreetMap"},"geometry":{"type":"Point","coordinates":[118.7713051,32.0522202]}},{"type":"Feature","properties":{"facility_id":"osm_node_13505925683","osm_id":"13505925683","name":"白马公园","category":"transit","category_zh":"公共交通","amenity":null,"railway":"station","source":"OpenStreetMap"},"geometry":{"type":"Point","coordinates":[118.8108538,32.0607777]}},{"type":"Feature","properties":{"facility_id":"osm_node_13654011194","osm_id":"13654011194","name":"未命名设施","category":"transit","category_zh":"公共交通","amenity":null,"railway":"subway_entrance","source":"OpenStreetMap"},"geometry":{"type":"Point","coordinates":[118.7791739,32.0817144]}},{"type":"Feature","properties":{"facility_id":"osm_node_13890955972","osm_id":"13890955972","name":"新街口#7","category":"transit","category_zh":"公共交通","amenity":null,"railway":"subway_entrance","source":"OpenStreetMap"},"geometry":{"type":"Point","coordinates":[118.7793871,32.0442205]}},{"type":"Feature","properties":{"facility_id":"osm_node_13893217286","osm_id":"13893217286","name":"新街口#12","category":"transit","category_zh":"公共交通","amenity":null,"railway":"subway_entrance","source":"OpenStreetMap"},"geometry":{"type":"Point","coordinates":[118.7791851,32.0424603]}},{"type":"Feature","properties":{"facility_id":"osm_node_1496380813","osm_id":"1496380813","name":"西安门#3","category":"transit","category_zh":"公共交通","amenity":null,"railway":"subway_entrance","source":"OpenStreetMap"},"geometry":{"type":"Point","coordinates":[118.7997107,32.0420601]}},{"type":"Feature","properties":{"facility_id":"osm_node_1541912261","osm_id":"1541912261","name":"未命名设施","category":"transit","category_zh":"公共交通","amenity":null,"railway":"subway_entrance","source":"OpenStreetMap"},"geometry":{"type":"Point","coordinates":[118.7792333,32.0724389]}},{"type":"Feature","properties":{"facility_id":"osm_node_1602339121","osm_id":"1602339121","name":"上海路#2","category":"transit","category_zh":"公共交通","amenity":null,"railway":"subway_entrance","source":"OpenStreetMap"},"geometry":{"type":"Point","coordinates":[118.7701776,32.0446524]}},{"type":"Feature","properties":{"facility_id":"osm_node_1603187383","osm_id":"1603187383","name":"上海路#1","category":"transit","category_zh":"公共交通","amenity":null,"railway":"subway_entrance","source":"OpenStreetMap"},"geometry":{"type":"Point","coordinates":[118.7715446,32.0440843]}},{"type":"Feature","properties":{"facility_id":"osm_node_1603187386","osm_id":"1603187386","name":"上海路#3","category":"transit","category_zh":"公共交通","amenity":null,"railway":"subway_entrance","source":"OpenStreetMap"},"geometry":{"type":"Point","coordinates":[118.7700817,32.044199]}},{"type":"Feature","properties":{"facility_id":"osm_node_1608084653","osm_id":"1608084653","name":"西安门#2","category":"transit","category_zh":"公共交通","amenity":null,"railway":"subway_entrance","source":"OpenStreetMap"},"geometry":{"type":"Point","coordinates":[118.7997991,32.0428479]}},{"type":"Feature","properties":{"facility_id":"osm_node_1742200048","osm_id":"1742200048","name":"新模范马路#1","category":"transit","category_zh":"公共交通","amenity":null,"railway":"subway_entrance","source":"OpenStreetMap"},"geometry":{"type":"Point","coordinates":[118.7784653,32.0810689]}},{"type":"Feature","properties":{"facility_id":"osm_node_1776918669","osm_id":"1776918669","name":"鼓楼#4A","category":"transit","category_zh":"公共交通","amenity":null,"railway":"subway_entrance","source":"OpenStreetMap"},"geometry":{"type":"Point","coordinates":[118.7786403,32.0618547]}},{"type":"Feature","properties":{"facility_id":"osm_node_1983123075","osm_id":"1983123075","name":"珠江路#1","category":"transit","category_zh":"公共交通","amenity":null,"railway":"subway_entrance","source":"OpenStreetMap"},"geometry":{"type":"Point","coordinates":[118.7786155,32.0526242]}},{"type":"Feature","properties":{"facility_id":"osm_node_1983123076","osm_id":"1983123076","name":"珠江路#4","category":"transit","category_zh":"公共交通","amenity":null,"railway":"subway_entrance","source":"OpenStreetMap"},"geometry":{"type":"Point","coordinates":[118.7793411,32.0528152]}},{"type":"Feature","properties":{"facility_id":"osm_node_1983123077","osm_id":"1983123077","name":"珠江路#3","category":"transit","category_zh":"公共交通","amenity":null,"railway":"subway_entrance","source":"OpenStreetMap"},"geometry":{"type":"Point","coordinates":[118.7792741,32.053664]}},{"type":"Feature","properties":{"facility_id":"osm_node_4405415727","osm_id":"4405415727","name":"常府街#4","category":"transit","category_zh":"公共交通","amenity":null,"railway":"subway_entrance","source":"OpenStreetMap"},"geometry":{"type":"Point","coordinates":[118.7870922,32.0363121]}},{"type":"Feature","properties":{"facility_id":"osm_node_6226314588","osm_id":"6226314588","name":"未命名设施","category":"transit","category_zh":"公共交通","amenity":null,"railway":"subway_entrance","source":"OpenStreetMap"},"geometry":{"type":"Point","coordinates":[118.7792465,32.0716902]}},{"type":"Feature","properties":{"facility_id":"osm_node_6226324777","osm_id":"6226324777","name":"新模范马路#2","category":"transit","category_zh":"公共交通","amenity":null,"railway":"subway_entrance","source":"OpenStreetMap"},"geometry":{"type":"Point","coordinates":[118.7786213,32.0826928]}},{"type":"Feature","properties":{"facility_id":"osm_node_6877652546","osm_id":"6877652546","name":"明故宫#3","category":"transit","category_zh":"公共交通","amenity":null,"railway":"subway_entrance","source":"OpenStreetMap"},"geometry":{"type":"Point","coordinates":[118.8134963,32.0409745]}},{"type":"Feature","properties":{"facility_id":"osm_node_778873065","osm_id":"778873065","name":"白马公园","category":"transit","category_zh":"公共交通","amenity":null,"railway":"station","source":"OpenStreetMap"},"geometry":{"type":"Point","coordinates":[118.8107137,32.0607028]}},{"type":"Feature","properties":{"facility_id":"osm_node_7985414437","osm_id":"7985414437","name":"浮桥#3A","category":"transit","category_zh":"公共交通","amenity":null,"railway":"subway_entrance","source":"OpenStreetMap"},"geometry":{"type":"Point","coordinates":[118.7914548,32.0506281]}},{"type":"Feature","properties":{"facility_id":"osm_node_7987821705","osm_id":"7987821705","name":"大行宫#5","category":"transit","category_zh":"公共交通","amenity":null,"railway":"subway_entrance","source":"OpenStreetMap"},"geometry":{"type":"Point","coordinates":[118.7898627,32.0446148]}},{"type":"Feature","properties":{"facility_id":"osm_node_7996694645","osm_id":"7996694645","name":"新模范马路#4","category":"transit","category_zh":"公共交通","amenity":null,"railway":"subway_entrance","source":"OpenStreetMap"},"geometry":{"type":"Point","coordinates":[118.7791543,32.0813716]}},{"type":"Feature","properties":{"facility_id":"osm_node_7996694746","osm_id":"7996694746","name":"未命名设施","category":"transit","category_zh":"公共交通","amenity":null,"railway":"subway_entrance","source":"OpenStreetMap"},"geometry":{"type":"Point","coordinates":[118.778613,32.0721927]}},{"type":"Feature","properties":{"facility_id":"osm_node_7996694747","osm_id":"7996694747","name":"未命名设施","category":"transit","category_zh":"公共交通","amenity":null,"railway":"subway_entrance","source":"OpenStreetMap"},"geometry":{"type":"Point","coordinates":[118.778557,32.0746827]}},{"type":"Feature","properties":{"facility_id":"osm_node_7996694748","osm_id":"7996694748","name":"未命名设施","category":"transit","category_zh":"公共交通","amenity":null,"railway":"subway_entrance","source":"OpenStreetMap"},"geometry":{"type":"Point","coordinates":[118.7785228,32.0739944]}},{"type":"Feature","properties":{"facility_id":"osm_node_7996694788","osm_id":"7996694788","name":"鼓楼#4B","category":"transit","category_zh":"公共交通","amenity":null,"railway":"subway_entrance","source":"OpenStreetMap"},"geometry":{"type":"Point","coordinates":[118.7791544,32.0617101]}},{"type":"Feature","properties":{"facility_id":"osm_node_7996694789","osm_id":"7996694789","name":"鼓楼#3","category":"transit","category_zh":"公共交通","amenity":null,"railway":"subway_entrance","source":"OpenStreetMap"},"geometry":{"type":"Point","coordinates":[118.7780196,32.0613417]}},{"type":"Feature","properties":{"facility_id":"osm_node_7996694790","osm_id":"7996694790","name":"鼓楼#2","category":"transit","category_zh":"公共交通","amenity":null,"railway":"subway_entrance","source":"OpenStreetMap"},"geometry":{"type":"Point","coordinates":[118.7779778,32.060355]}},{"type":"Feature","properties":{"facility_id":"osm_node_7996694791","osm_id":"7996694791","name":"鼓楼#1","category":"transit","category_zh":"公共交通","amenity":null,"railway":"subway_entrance","source":"OpenStreetMap"},"geometry":{"type":"Point","coordinates":[118.7785385,32.0598813]}},{"type":"Feature","properties":{"facility_id":"osm_node_7996694934","osm_id":"7996694934","name":"新街口#4","category":"transit","category_zh":"公共交通","amenity":null,"railway":"subway_entrance","source":"OpenStreetMap"},"geometry":{"type":"Point","coordinates":[118.778619,32.0431443]}},{"type":"Feature","properties":{"facility_id":"osm_node_7996694935","osm_id":"7996694935","name":"新街口#16","category":"transit","category_zh":"公共交通","amenity":null,"railway":"subway_entrance","source":"OpenStreetMap"},"geometry":{"type":"Point","coordinates":[118.7786313,32.0428857]}},{"type":"Feature","properties":{"facility_id":"osm_node_8001955539","osm_id":"8001955539","name":"南京林业大学·新庄","category":"transit","category_zh":"公共交通","amenity":null,"railway":"station","source":"OpenStreetMap"},"geometry":{"type":"Point","coordinates":[118.8052423,32.078684]}},{"type":"Feature","properties":{"facility_id":"osm_node_8001955540","osm_id":"8001955540","name":"南京林业大学·新庄#1","category":"transit","category_zh":"公共交通","amenity":null,"railway":"subway_entrance","source":"OpenStreetMap"},"geometry":{"type":"Point","coordinates":[118.8048259,32.0793321]}},{"type":"Feature","properties":{"facility_id":"osm_node_8001955541","osm_id":"8001955541","name":"南京林业大学·新庄#3","category":"transit","category_zh":"公共交通","amenity":null,"railway":"subway_entrance","source":"OpenStreetMap"},"geometry":{"type":"Point","coordinates":[118.8055123,32.0780695]}},{"type":"Feature","properties":{"facility_id":"osm_node_8001955542","osm_id":"8001955542","name":"南京林业大学·新庄#2","category":"transit","category_zh":"公共交通","amenity":null,"railway":"subway_entrance","source":"OpenStreetMap"},"geometry":{"type":"Point","coordinates":[118.8046806,32.0777971]}},{"type":"Feature","properties":{"facility_id":"osm_node_8001955583","osm_id":"8001955583","name":"未命名设施","category":"transit","category_zh":"公共交通","amenity":null,"railway":"subway_entrance","source":"OpenStreetMap"},"geometry":{"type":"Point","coordinates":[118.7933242,32.0600646]}},{"type":"Feature","properties":{"facility_id":"osm_node_8001955584","osm_id":"8001955584","name":"未命名设施","category":"transit","category_zh":"公共交通","amenity":null,"railway":"subway_entrance","source":"OpenStreetMap"},"geometry":{"type":"Point","coordinates":[118.792361,32.0583639]}},{"type":"Feature","properties":{"facility_id":"osm_node_8001965385","osm_id":"8001965385","name":"鸡鸣寺#6","category":"transit","category_zh":"公共交通","amenity":null,"railway":"subway_entrance","source":"OpenStreetMap"},"geometry":{"type":"Point","coordinates":[118.7913881,32.0593764]}},{"type":"Feature","properties":{"facility_id":"osm_node_8001965386","osm_id":"8001965386","name":"鸡鸣寺站 5","category":"transit","category_zh":"公共交通","amenity":null,"railway":"subway_entrance","source":"OpenStreetMap"},"geometry":{"type":"Point","coordinates":[118.7914078,32.0597786]}},{"type":"Feature","properties":{"facility_id":"osm_node_8001965389","osm_id":"8001965389","name":"浮桥#1","category":"transit","category_zh":"公共交通","amenity":null,"railway":"subway_entrance","source":"OpenStreetMap"},"geometry":{"type":"Point","coordinates":[118.7910488,32.0523759]}},{"type":"Feature","properties":{"facility_id":"osm_node_8001965390","osm_id":"8001965390","name":"浮桥#2","category":"transit","category_zh":"公共交通","amenity":null,"railway":"subway_entrance","source":"OpenStreetMap"},"geometry":{"type":"Point","coordinates":[118.7906143,32.0508903]}},{"type":"Feature","properties":{"facility_id":"osm_node_8001965391","osm_id":"8001965391","name":"浮桥#3B","category":"transit","category_zh":"公共交通","amenity":null,"railway":"subway_entrance","source":"OpenStreetMap"},"geometry":{"type":"Point","coordinates":[118.7912647,32.0512404]}},{"type":"Feature","properties":{"facility_id":"osm_node_8001965392","osm_id":"8001965392","name":"大行宫#2","category":"transit","category_zh":"公共交通","amenity":null,"railway":"subway_entrance","source":"OpenStreetMap"},"geometry":{"type":"Point","coordinates":[118.7890113,32.0435041]}},{"type":"Feature","properties":{"facility_id":"osm_node_8001965393","osm_id":"8001965393","name":"大行宫#3","category":"transit","category_zh":"公共交通","amenity":null,"railway":"subway_entrance","source":"OpenStreetMap"},"geometry":{"type":"Point","coordinates":[118.7898257,32.0428263]}},{"type":"Feature","properties":{"facility_id":"osm_node_8001965394","osm_id":"8001965394","name":"大行宫#1","category":"transit","category_zh":"公共交通","amenity":null,"railway":"subway_entrance","source":"OpenStreetMap"},"geometry":{"type":"Point","coordinates":[118.7898619,32.0433242]}},{"type":"Feature","properties":{"facility_id":"osm_node_8002507181","osm_id":"8002507181","name":"鼓楼#6","category":"transit","category_zh":"公共交通","amenity":null,"railway":"subway_entrance","source":"OpenStreetMap"},"geometry":{"type":"Point","coordinates":[118.777281,32.0613256]}},{"type":"Feature","properties":{"facility_id":"osm_node_8002507182","osm_id":"8002507182","name":"未命名设施","category":"transit","category_zh":"公共交通","amenity":null,"railway":"subway_entrance","source":"OpenStreetMap"},"geometry":{"type":"Point","coordinates":[118.7775559,32.0602416]}},{"type":"Feature","properties":{"facility_id":"osm_node_8002523205","osm_id":"8002523205","name":"岗子村#2","category":"transit","category_zh":"公共交通","amenity":null,"railway":"subway_entrance","source":"OpenStreetMap"},"geometry":{"type":"Point","coordinates":[118.8106413,32.0682605]}},{"type":"Feature","properties":{"facility_id":"osm_node_8002523206","osm_id":"8002523206","name":"岗子村#1","category":"transit","category_zh":"公共交通","amenity":null,"railway":"subway_entrance","source":"OpenStreetMap"},"geometry":{"type":"Point","coordinates":[118.8115113,32.0679196]}},{"type":"Feature","properties":{"facility_id":"osm_node_8002523207","osm_id":"8002523207","name":"未命名设施","category":"transit","category_zh":"公共交通","amenity":null,"railway":"subway_entrance","source":"OpenStreetMap"},"geometry":{"type":"Point","coordinates":[118.8096635,32.0675266]}},{"type":"Feature","properties":{"facility_id":"osm_node_8002618546","osm_id":"8002618546","name":"明故宫#2","category":"transit","category_zh":"公共交通","amenity":null,"railway":"subway_entrance","source":"OpenStreetMap"},"geometry":{"type":"Point","coordinates":[118.8139012,32.0416656]}},{"type":"Feature","properties":{"facility_id":"osm_node_8002618547","osm_id":"8002618547","name":"明故宫#1","category":"transit","category_zh":"公共交通","amenity":null,"railway":"subway_entrance","source":"OpenStreetMap"},"geometry":{"type":"Point","coordinates":[118.8152558,32.0415655]}},{"type":"Feature","properties":{"facility_id":"osm_node_8018570726","osm_id":"8018570726","name":"云南路#5A","category":"transit","category_zh":"公共交通","amenity":null,"railway":"subway_entrance","source":"OpenStreetMap"},"geometry":{"type":"Point","coordinates":[118.7685956,32.0614171]}},{"type":"Feature","properties":{"facility_id":"osm_node_8018570728","osm_id":"8018570728","name":"云南路#5B","category":"transit","category_zh":"公共交通","amenity":null,"railway":"subway_entrance","source":"OpenStreetMap"},"geometry":{"type":"Point","coordinates":[118.7691749,32.0614511]}},{"type":"Feature","properties":{"facility_id":"osm_node_8018570731","osm_id":"8018570731","name":"云南路#1","category":"transit","category_zh":"公共交通","amenity":null,"railway":"subway_entrance","source":"OpenStreetMap"},"geometry":{"type":"Point","coordinates":[118.7684647,32.0610999]}},{"type":"Feature","properties":{"facility_id":"osm_node_8018570735","osm_id":"8018570735","name":"云南路#4","category":"transit","category_zh":"公共交通","amenity":null,"railway":"subway_entrance","source":"OpenStreetMap"},"geometry":{"type":"Point","coordinates":[118.7695584,32.0615947]}},{"type":"Feature","properties":{"facility_id":"osm_node_8018570738","osm_id":"8018570738","name":"云南路#2","category":"transit","category_zh":"公共交通","amenity":null,"railway":"subway_entrance","source":"OpenStreetMap"},"geometry":{"type":"Point","coordinates":[118.7695261,32.0609824]}},{"type":"Feature","properties":{"facility_id":"osm_node_8018570741","osm_id":"8018570741","name":"云南路#3","category":"transit","category_zh":"公共交通","amenity":null,"railway":"subway_entrance","source":"OpenStreetMap"},"geometry":{"type":"Point","coordinates":[118.7699759,32.0609576]}},{"type":"Feature","properties":{"facility_id":"osm_node_8018570849","osm_id":"8018570849","name":"九华山#2","category":"transit","category_zh":"公共交通","amenity":null,"railway":"subway_entrance","source":"OpenStreetMap"},"geometry":{"type":"Point","coordinates":[118.8000577,32.059843]}},{"type":"Feature","properties":{"facility_id":"osm_node_8018570850","osm_id":"8018570850","name":"九华山#1","category":"transit","category_zh":"公共交通","amenity":null,"railway":"subway_entrance","source":"OpenStreetMap"},"geometry":{"type":"Point","coordinates":[118.8010009,32.0596721]}},{"type":"Feature","properties":{"facility_id":"osm_node_8018570937","osm_id":"8018570937","name":"蒋王庙#1","category":"transit","category_zh":"公共交通","amenity":null,"railway":"subway_entrance","source":"OpenStreetMap"},"geometry":{"type":"Point","coordinates":[118.8252162,32.0801741]}},{"type":"Feature","properties":{"facility_id":"osm_node_8018570938","osm_id":"8018570938","name":"蒋王庙#2","category":"transit","category_zh":"公共交通","amenity":null,"railway":"subway_entrance","source":"OpenStreetMap"},"geometry":{"type":"Point","coordinates":[118.8255058,32.0796416]}},{"type":"Feature","properties":{"facility_id":"osm_node_8021178043","osm_id":"8021178043","name":"大行宫#6","category":"transit","category_zh":"公共交通","amenity":null,"railway":"subway_entrance","source":"OpenStreetMap"},"geometry":{"type":"Point","coordinates":[118.7893586,32.0445837]}},{"type":"Feature","properties":{"facility_id":"osm_node_8022420969","osm_id":"8022420969","name":"新街口#8","category":"transit","category_zh":"公共交通","amenity":null,"railway":"subway_entrance","source":"OpenStreetMap"},"geometry":{"type":"Point","coordinates":[118.7793632,32.0434373]}},{"type":"Feature","properties":{"facility_id":"osm_node_8040236493","osm_id":"8040236493","name":"西安门#4","category":"transit","category_zh":"公共交通","amenity":null,"railway":"subway_entrance","source":"OpenStreetMap"},"geometry":{"type":"Point","coordinates":[118.8011204,32.0417482]}},{"type":"Feature","properties":{"facility_id":"osm_node_8040236495","osm_id":"8040236495","name":"西安门#1","category":"transit","category_zh":"公共交通","amenity":null,"railway":"subway_entrance","source":"OpenStreetMap"},"geometry":{"type":"Point","coordinates":[118.8011082,32.0425801]}},{"type":"Feature","properties":{"facility_id":"osm_node_9164163242","osm_id":"9164163242","name":"新模范马路","category":"transit","category_zh":"公共交通","amenity":null,"railway":"station","source":"OpenStreetMap"},"geometry":{"type":"Point","coordinates":[118.7785505,32.0819286]}},{"type":"Feature","properties":{"facility_id":"osm_node_9164163243","osm_id":"9164163243","name":"玄武门","category":"transit","category_zh":"公共交通","amenity":null,"railway":"station","source":"OpenStreetMap"},"geometry":{"type":"Point","coordinates":[118.7790054,32.0724367]}},{"type":"Feature","properties":{"facility_id":"osm_node_9164163244","osm_id":"9164163244","name":"鼓楼","category":"transit","category_zh":"公共交通","amenity":null,"railway":"station","source":"OpenStreetMap"},"geometry":{"type":"Point","coordinates":[118.778424,32.0607794]}},{"type":"Feature","properties":{"facility_id":"osm_node_9164163245","osm_id":"9164163245","name":"鼓楼","category":"transit","category_zh":"公共交通","amenity":null,"railway":"station","source":"OpenStreetMap"},"geometry":{"type":"Point","coordinates":[118.7779653,32.0608993]}},{"type":"Feature","properties":{"facility_id":"osm_node_9164163246","osm_id":"9164163246","name":"珠江路","category":"transit","category_zh":"公共交通","amenity":null,"railway":"station","source":"OpenStreetMap"},"geometry":{"type":"Point","coordinates":[118.7790309,32.0530398]}},{"type":"Feature","properties":{"facility_id":"osm_node_9164163247","osm_id":"9164163247","name":"新街口","category":"transit","category_zh":"公共交通","amenity":null,"railway":"station","source":"OpenStreetMap"},"geometry":{"type":"Point","coordinates":[118.7789021,32.0435852]}},{"type":"Feature","properties":{"facility_id":"osm_node_9164163248","osm_id":"9164163248","name":"新街口","category":"transit","category_zh":"公共交通","amenity":null,"railway":"station","source":"OpenStreetMap"},"geometry":{"type":"Point","coordinates":[118.7786931,32.0438326]}},{"type":"Feature","properties":{"facility_id":"osm_node_9164739502","osm_id":"9164739502","name":"明故宫","category":"transit","category_zh":"公共交通","amenity":null,"railway":"station","source":"OpenStreetMap"},"geometry":{"type":"Point","coordinates":[118.8144822,32.0413753]}},{"type":"Feature","properties":{"facility_id":"osm_node_9164739503","osm_id":"9164739503","name":"西安门","category":"transit","category_zh":"公共交通","amenity":null,"railway":"station","source":"OpenStreetMap"},"geometry":{"type":"Point","coordinates":[118.8003896,32.0421938]}},{"type":"Feature","properties":{"facility_id":"osm_node_9164739504","osm_id":"9164739504","name":"大行宫","category":"transit","category_zh":"公共交通","amenity":null,"railway":"station","source":"OpenStreetMap"},"geometry":{"type":"Point","coordinates":[118.7896339,32.0431408]}},{"type":"Feature","properties":{"facility_id":"osm_node_9164739505","osm_id":"9164739505","name":"大行宫","category":"transit","category_zh":"公共交通","amenity":null,"railway":"station","source":"OpenStreetMap"},"geometry":{"type":"Point","coordinates":[118.789426,32.0441325]}},{"type":"Feature","properties":{"facility_id":"osm_node_9164739506","osm_id":"9164739506","name":"上海路","category":"transit","category_zh":"公共交通","amenity":null,"railway":"station","source":"OpenStreetMap"},"geometry":{"type":"Point","coordinates":[118.7708082,32.0442907]}},{"type":"Feature","properties":{"facility_id":"osm_node_9164878207","osm_id":"9164878207","name":"鸡鸣寺","category":"transit","category_zh":"公共交通","amenity":null,"railway":"station","source":"OpenStreetMap"},"geometry":{"type":"Point","coordinates":[118.7927528,32.0591776]}},{"type":"Feature","properties":{"facility_id":"osm_node_9164878208","osm_id":"9164878208","name":"鸡鸣寺","category":"transit","category_zh":"公共交通","amenity":null,"railway":"station","source":"OpenStreetMap"},"geometry":{"type":"Point","coordinates":[118.7921868,32.0597171]}},{"type":"Feature","properties":{"facility_id":"osm_node_9164878209","osm_id":"9164878209","name":"浮桥","category":"transit","category_zh":"公共交通","amenity":null,"railway":"station","source":"OpenStreetMap"},"geometry":{"type":"Point","coordinates":[118.7910251,32.0514183]}},{"type":"Feature","properties":{"facility_id":"osm_node_9164878210","osm_id":"9164878210","name":"常府街","category":"transit","category_zh":"公共交通","amenity":null,"railway":"station","source":"OpenStreetMap"},"geometry":{"type":"Point","coordinates":[118.7870613,32.0356111]}},{"type":"Feature","properties":{"facility_id":"osm_node_9164951626","osm_id":"9164951626","name":"云南路","category":"transit","category_zh":"公共交通","amenity":null,"railway":"station","source":"OpenStreetMap"},"geometry":{"type":"Point","coordinates":[118.7693814,32.0612036]}},{"type":"Feature","properties":{"facility_id":"osm_node_9164951627","osm_id":"9164951627","name":"九华山","category":"transit","category_zh":"公共交通","amenity":null,"railway":"station","source":"OpenStreetMap"},"geometry":{"type":"Point","coordinates":[118.8007151,32.0594559]}},{"type":"Feature","properties":{"facility_id":"osm_node_9164951628","osm_id":"9164951628","name":"岗子村","category":"transit","category_zh":"公共交通","amenity":null,"railway":"station","source":"OpenStreetMap"},"geometry":{"type":"Point","coordinates":[118.8107755,32.0674276]}},{"type":"Feature","properties":{"facility_id":"osm_node_9164951629","osm_id":"9164951629","name":"蒋王庙","category":"transit","category_zh":"公共交通","amenity":null,"railway":"station","source":"OpenStreetMap"},"geometry":{"type":"Point","coordinates":[118.82605,32.0797006]}}]}