{"type":"FeatureCollection","name":"guangzhou_analysis_grid","crs":{"type":"name","properties":{"name":"urn:ogc:def:crs:OGC:1.3:CRS84"}},"features":[{"type":"Feature","properties":{"cell_id":"guangzhou_01_01","city_id":"guangzhou","city_name_zh":"广州","row":1,"column":1,"area_km2":0.5329,"center_lon":113.23815,"center_lat":23.150975,"distance_to_center_km":3.622,"facility_count":0,"transit_count":0,"healthcare_count":0,"education_count":0,"park_count":0,"service_diversity":0,"facility_density_km2":0.0,"road_segment_count":189,"road_length_m":4789.27,"road_density_km_km2":8.9871,"intersection_count":19,"elevation_m":20,"terrain_relief_m":23,"source_note":"OSM道路与设施聚合；SRTM高程采样；均为教学裁剪","accessibility_proxy":0.2455,"osm_intensity_class":"低","core_zone":"外圈"},"geometry":{"type":"Polygon","coordinates":[[[113.2344,23.14785],[113.2419,23.14785],[113.2419,23.1541],[113.2344,23.1541],[113.2344,23.14785]]]}},{"type":"Feature","properties":{"cell_id":"guangzhou_01_02","city_id":"guangzhou","city_name_zh":"广州","row":1,"column":2,"area_km2":0.5329,"center_lon":113.24565,"center_lat":23.150975,"distance_to_center_km":3.097,"facility_count":7,"transit_count":6,"healthcare_count":1,"education_count":0,"park_count":0,"service_diversity":2,"facility_density_km2":13.1355,"road_segment_count":250,"road_length_m":6772.67,"road_density_km_km2":12.7089,"intersection_count":20,"elevation_m":12,"terrain_relief_m":22,"source_note":"OSM道路与设施聚合；SRTM高程采样；均为教学裁剪","accessibility_proxy":0.5305,"osm_intensity_class":"高","core_zone":"外圈"},"geometry":{"type":"Polygon","coordinates":[[[113.2419,23.14785],[113.2494,23.14785],[113.2494,23.1541],[113.2419,23.1541],[113.2419,23.14785]]]}},{"type":"Feature","properties":{"cell_id":"guangzhou_01_03","city_id":"guangzhou","city_name_zh":"广州","row":1,"column":3,"area_km2":0.5329,"center_lon":113.25315,"center_lat":23.150975,"distance_to_center_km":2.691,"facility_count":8,"transit_count":8,"healthcare_count":0,"education_count":0,"park_count":0,"service_diversity":1,"facility_density_km2":15.012,"road_segment_count":180,"road_length_m":4165.94,"road_density_km_km2":7.8174,"intersection_count":11,"elevation_m":5,"terrain_relief_m":13,"source_note":"OSM道路与设施聚合；SRTM高程采样；均为教学裁剪","accessibility_proxy":0.4791,"osm_intensity_class":"较高","core_zone":"内圈"},"geometry":{"type":"Polygon","coordinates":[[[113.2494,23.14785],[113.2569,23.14785],[113.2569,23.1541],[113.2494,23.1541],[113.2494,23.14785]]]}},{"type":"Feature","properties":{"cell_id":"guangzhou_01_04","city_id":"guangzhou","city_name_zh":"广州","row":1,"column":4,"area_km2":0.5329,"center_lon":113.26065,"center_lat":23.150975,"distance_to_center_km":2.462,"facility_count":0,"transit_count":0,"healthcare_count":0,"education_count":0,"park_count":0,"service_diversity":0,"facility_density_km2":0.0,"road_segment_count":136,"road_length_m":4022.2,"road_density_km_km2":7.5477,"intersection_count":12,"elevation_m":10,"terrain_relief_m":42,"source_note":"OSM道路与设施聚合；SRTM高程采样；均为教学裁剪","accessibility_proxy":0.2534,"osm_intensity_class":"低","core_zone":"内圈"},"geometry":{"type":"Polygon","coordinates":[[[113.2569,23.14785],[113.2644,23.14785],[113.2644,23.1541],[113.2569,23.1541],[113.2569,23.14785]]]}},{"type":"Feature","properties":{"cell_id":"guangzhou_01_05","city_id":"guangzhou","city_name_zh":"广州","row":1,"column":5,"area_km2":0.5329,"center_lon":113.26815,"center_lat":23.150975,"distance_to_center_km":2.462,"facility_count":0,"transit_count":0,"healthcare_count":0,"education_count":0,"park_count":0,"service_diversity":0,"facility_density_km2":0.0,"road_segment_count":142,"road_length_m":2735.36,"road_density_km_km2":5.1329,"intersection_count":6,"elevation_m":24,"terrain_relief_m":20,"source_note":"OSM道路与设施聚合；SRTM高程采样；均为教学裁剪","accessibility_proxy":0.2075,"osm_intensity_class":"低","core_zone":"内圈"},"geometry":{"type":"Polygon","coordinates":[[[113.2644,23.14785],[113.2719,23.14785],[113.2719,23.1541],[113.2644,23.1541],[113.2644,23.14785]]]}},{"type":"Feature","properties":{"cell_id":"guangzhou_01_06","city_id":"guangzhou","city_name_zh":"广州","row":1,"column":6,"area_km2":0.5329,"center_lon":113.27565,"center_lat":23.150975,"distance_to_center_km":2.691,"facility_count":0,"transit_count":0,"healthcare_count":0,"education_count":0,"park_count":0,"service_diversity":0,"facility_density_km2":0.0,"road_segment_count":165,"road_length_m":3928.44,"road_density_km_km2":7.3717,"intersection_count":13,"elevation_m":14,"terrain_relief_m":28,"source_note":"OSM道路与设施聚合；SRTM高程采样；均为教学裁剪","accessibility_proxy":0.242,"osm_intensity_class":"低","core_zone":"内圈"},"geometry":{"type":"Polygon","coordinates":[[[113.2719,23.14785],[113.2794,23.14785],[113.2794,23.1541],[113.2719,23.1541],[113.2719,23.14785]]]}},{"type":"Feature","properties":{"cell_id":"guangzhou_01_07","city_id":"guangzhou","city_name_zh":"广州","row":1,"column":7,"area_km2":0.5329,"center_lon":113.28315,"center_lat":23.150975,"distance_to_center_km":3.097,"facility_count":1,"transit_count":0,"healthcare_count":0,"education_count":1,"park_count":0,"service_diversity":1,"facility_density_km2":1.8765,"road_segment_count":115,"road_length_m":2895.76,"road_density_km_km2":5.4339,"intersection_count":6,"elevation_m":28,"terrain_relief_m":34,"source_note":"OSM道路与设施聚合；SRTM高程采样；均为教学裁剪","accessibility_proxy":0.2208,"osm_intensity_class":"低","core_zone":"外圈"},"geometry":{"type":"Polygon","coordinates":[[[113.2794,23.14785],[113.2869,23.14785],[113.2869,23.1541],[113.2794,23.1541],[113.2794,23.14785]]]}},{"type":"Feature","properties":{"cell_id":"guangzhou_01_08","city_id":"guangzhou","city_name_zh":"广州","row":1,"column":8,"area_km2":0.5329,"center_lon":113.29065,"center_lat":23.150975,"distance_to_center_km":3.622,"facility_count":0,"transit_count":0,"healthcare_count":0,"education_count":0,"park_count":0,"service_diversity":0,"facility_density_km2":0.0,"road_segment_count":195,"road_length_m":4661.18,"road_density_km_km2":8.7467,"intersection_count":17,"elevation_m":46,"terrain_relief_m":19,"source_note":"OSM道路与设施聚合；SRTM高程采样；均为教学裁剪","accessibility_proxy":0.2409,"osm_intensity_class":"低","core_zone":"外圈"},"geometry":{"type":"Polygon","coordinates":[[[113.2869,23.14785],[113.2944,23.14785],[113.2944,23.1541],[113.2869,23.1541],[113.2869,23.14785]]]}},{"type":"Feature","properties":{"cell_id":"guangzhou_02_01","city_id":"guangzhou","city_name_zh":"广州","row":2,"column":1,"area_km2":0.5329,"center_lon":113.23815,"center_lat":23.144725,"distance_to_center_km":3.197,"facility_count":7,"transit_count":7,"healthcare_count":0,"education_count":0,"park_count":0,"service_diversity":1,"facility_density_km2":13.1349,"road_segment_count":221,"road_length_m":5645.84,"road_density_km_km2":10.5939,"intersection_count":20,"elevation_m":18,"terrain_relief_m":15,"source_note":"OSM道路与设施聚合；SRTM高程采样；均为教学裁剪","accessibility_proxy":0.4874,"osm_intensity_class":"较高","core_zone":"外圈"},"geometry":{"type":"Polygon","coordinates":[[[113.2344,23.1416],[113.2419,23.1416],[113.2419,23.14785],[113.2344,23.14785],[113.2344,23.1416]]]}},{"type":"Feature","properties":{"cell_id":"guangzhou_02_02","city_id":"guangzhou","city_name_zh":"广州","row":2,"column":2,"area_km2":0.5329,"center_lon":113.24565,"center_lat":23.144725,"distance_to_center_km":2.587,"facility_count":0,"transit_count":0,"healthcare_count":0,"education_count":0,"park_count":0,"service_diversity":0,"facility_density_km2":0.0,"road_segment_count":190,"road_length_m":6991.6,"road_density_km_km2":13.1191,"intersection_count":29,"elevation_m":22,"terrain_relief_m":16,"source_note":"OSM道路与设施聚合；SRTM高程采样；均为教学裁剪","accessibility_proxy":0.3548,"osm_intensity_class":"较低","core_zone":"内圈"},"geometry":{"type":"Polygon","coordinates":[[[113.2419,23.1416],[113.2494,23.1416],[113.2494,23.14785],[113.2419,23.14785],[113.2419,23.1416]]]}},{"type":"Feature","properties":{"cell_id":"guangzhou_02_03","city_id":"guangzhou","city_name_zh":"广州","row":2,"column":3,"area_km2":0.5329,"center_lon":113.25315,"center_lat":23.144725,"distance_to_center_km":2.084,"facility_count":10,"transit_count":10,"healthcare_count":0,"education_count":0,"park_count":0,"service_diversity":1,"facility_density_km2":18.7641,"road_segment_count":166,"road_length_m":4605.27,"road_density_km_km2":8.6414,"intersection_count":13,"elevation_m":6,"terrain_relief_m":13,"source_note":"OSM道路与设施聚合；SRTM高程采样；均为教学裁剪","accessibility_proxy":0.5747,"osm_intensity_class":"高","core_zone":"内圈"},"geometry":{"type":"Polygon","coordinates":[[[113.2494,23.1416],[113.2569,23.1416],[113.2569,23.14785],[113.2494,23.14785],[113.2494,23.1416]]]}},{"type":"Feature","properties":{"cell_id":"guangzhou_02_04","city_id":"guangzhou","city_name_zh":"广州","row":2,"column":4,"area_km2":0.5329,"center_lon":113.26065,"center_lat":23.144725,"distance_to_center_km":1.779,"facility_count":0,"transit_count":0,"healthcare_count":0,"education_count":0,"park_count":0,"service_diversity":0,"facility_density_km2":0.0,"road_segment_count":135,"road_length_m":2996.94,"road_density_km_km2":5.6235,"intersection_count":5,"elevation_m":39,"terrain_relief_m":42,"source_note":"OSM道路与设施聚合；SRTM高程采样；均为教学裁剪","accessibility_proxy":0.245,"osm_intensity_class":"低","core_zone":"内圈"},"geometry":{"type":"Polygon","coordinates":[[[113.2569,23.1416],[113.2644,23.1416],[113.2644,23.14785],[113.2569,23.14785],[113.2569,23.1416]]]}},{"type":"Feature","properties":{"cell_id":"guangzhou_02_05","city_id":"guangzhou","city_name_zh":"广州","row":2,"column":5,"area_km2":0.5329,"center_lon":113.26815,"center_lat":23.144725,"distance_to_center_km":1.779,"facility_count":4,"transit_count":3,"healthcare_count":1,"education_count":0,"park_count":0,"service_diversity":2,"facility_density_km2":7.5057,"road_segment_count":206,"road_length_m":3813.98,"road_density_km_km2":7.1566,"intersection_count":6,"elevation_m":20,"terrain_relief_m":24,"source_note":"OSM道路与设施聚合；SRTM高程采样；均为教学裁剪","accessibility_proxy":0.3884,"osm_intensity_class":"较低","core_zone":"内圈"},"geometry":{"type":"Polygon","coordinates":[[[113.2644,23.1416],[113.2719,23.1416],[113.2719,23.14785],[113.2644,23.14785],[113.2644,23.1416]]]}},{"type":"Feature","properties":{"cell_id":"guangzhou_02_06","city_id":"guangzhou","city_name_zh":"广州","row":2,"column":6,"area_km2":0.5329,"center_lon":113.27565,"center_lat":23.144725,"distance_to_center_km":2.084,"facility_count":2,"transit_count":2,"healthcare_count":0,"education_count":0,"park_count":0,"service_diversity":1,"facility_density_km2":3.7528,"road_segment_count":420,"road_length_m":7581.74,"road_density_km_km2":14.2265,"intersection_count":35,"elevation_m":17,"terrain_relief_m":21,"source_note":"OSM道路与设施聚合；SRTM高程采样；均为教学裁剪","accessibility_proxy":0.4522,"osm_intensity_class":"较高","core_zone":"内圈"},"geometry":{"type":"Polygon","coordinates":[[[113.2719,23.1416],[113.2794,23.1416],[113.2794,23.14785],[113.2719,23.14785],[113.2719,23.1416]]]}},{"type":"Feature","properties":{"cell_id":"guangzhou_02_07","city_id":"guangzhou","city_name_zh":"广州","row":2,"column":7,"area_km2":0.5329,"center_lon":113.28315,"center_lat":23.144725,"distance_to_center_km":2.587,"facility_count":1,"transit_count":0,"healthcare_count":1,"education_count":0,"park_count":0,"service_diversity":1,"facility_density_km2":1.8764,"road_segment_count":286,"road_length_m":8384.67,"road_density_km_km2":15.7331,"intersection_count":39,"elevation_m":28,"terrain_relief_m":10,"source_note":"OSM道路与设施聚合；SRTM高程采样；均为教学裁剪","accessibility_proxy":0.433,"osm_intensity_class":"较高","core_zone":"内圈"},"geometry":{"type":"Polygon","coordinates":[[[113.2794,23.1416],[113.2869,23.1416],[113.2869,23.14785],[113.2794,23.14785],[113.2794,23.1416]]]}},{"type":"Feature","properties":{"cell_id":"guangzhou_02_08","city_id":"guangzhou","city_name_zh":"广州","row":2,"column":8,"area_km2":0.5329,"center_lon":113.29065,"center_lat":23.144725,"distance_to_center_km":3.197,"facility_count":2,"transit_count":2,"healthcare_count":0,"education_count":0,"park_count":0,"service_diversity":1,"facility_density_km2":3.7528,"road_segment_count":243,"road_length_m":5802.02,"road_density_km_km2":10.887,"intersection_count":9,"elevation_m":35,"terrain_relief_m":18,"source_note":"OSM道路与设施聚合；SRTM高程采样；均为教学裁剪","accessibility_proxy":0.3501,"osm_intensity_class":"较低","core_zone":"外圈"},"geometry":{"type":"Polygon","coordinates":[[[113.2869,23.1416],[113.2944,23.1416],[113.2944,23.14785],[113.2869,23.14785],[113.2869,23.1416]]]}},{"type":"Feature","properties":{"cell_id":"guangzhou_03_01","city_id":"guangzhou","city_name_zh":"广州","row":3,"column":1,"area_km2":0.533,"center_lon":113.23815,"center_lat":23.138475,"distance_to_center_km":2.879,"facility_count":7,"transit_count":7,"healthcare_count":0,"education_count":0,"park_count":0,"service_diversity":1,"facility_density_km2":13.1343,"road_segment_count":217,"road_length_m":6527.78,"road_density_km_km2":12.2482,"intersection_count":18,"elevation_m":16,"terrain_relief_m":9,"source_note":"OSM道路与设施聚合；SRTM高程采样；均为教学裁剪","accessibility_proxy":0.5284,"osm_intensity_class":"高","core_zone":"内圈"},"geometry":{"type":"Polygon","coordinates":[[[113.2344,23.13535],[113.2419,23.13535],[113.2419,23.1416],[113.2344,23.1416],[113.2344,23.13535]]]}},{"type":"Feature","properties":{"cell_id":"guangzhou_03_02","city_id":"guangzhou","city_name_zh":"广州","row":3,"column":2,"area_km2":0.533,"center_lon":113.24565,"center_lat":23.138475,"distance_to_center_km":2.182,"facility_count":0,"transit_count":0,"healthcare_count":0,"education_count":0,"park_count":0,"service_diversity":0,"facility_density_km2":0.0,"road_segment_count":157,"road_length_m":3676.5,"road_density_km_km2":6.8983,"intersection_count":6,"elevation_m":4,"terrain_relief_m":21,"source_note":"OSM道路与设施聚合；SRTM高程采样；均为教学裁剪","accessibility_proxy":0.2518,"osm_intensity_class":"低","core_zone":"内圈"},"geometry":{"type":"Polygon","coordinates":[[[113.2419,23.13535],[113.2494,23.13535],[113.2494,23.1416],[113.2419,23.1416],[113.2419,23.13535]]]}},{"type":"Feature","properties":{"cell_id":"guangzhou_03_03","city_id":"guangzhou","city_name_zh":"广州","row":3,"column":3,"area_km2":0.533,"center_lon":113.25315,"center_lat":23.138475,"distance_to_center_km":1.552,"facility_count":5,"transit_count":1,"healthcare_count":3,"education_count":1,"park_count":0,"service_diversity":3,"facility_density_km2":9.3816,"road_segment_count":277,"road_length_m":5922.14,"road_density_km_km2":11.1119,"intersection_count":16,"elevation_m":4,"terrain_relief_m":21,"source_note":"OSM道路与设施聚合；SRTM高程采样；均为教学裁剪","accessibility_proxy":0.503,"osm_intensity_class":"较高","core_zone":"内圈"},"geometry":{"type":"Polygon","coordinates":[[[113.2494,23.13535],[113.2569,23.13535],[113.2569,23.1416],[113.2494,23.1416],[113.2494,23.13535]]]}},{"type":"Feature","properties":{"cell_id":"guangzhou_03_04","city_id":"guangzhou","city_name_zh":"广州","row":3,"column":4,"area_km2":0.533,"center_lon":113.26065,"center_lat":23.138475,"distance_to_center_km":1.111,"facility_count":1,"transit_count":1,"healthcare_count":0,"education_count":0,"park_count":0,"service_diversity":1,"facility_density_km2":1.8763,"road_segment_count":199,"road_length_m":4629.53,"road_density_km_km2":8.6865,"intersection_count":11,"elevation_m":37,"terrain_relief_m":29,"source_note":"OSM道路与设施聚合；SRTM高程采样；均为教学裁剪","accessibility_proxy":0.3662,"osm_intensity_class":"较低","core_zone":"核心"},"geometry":{"type":"Polygon","coordinates":[[[113.2569,23.13535],[113.2644,23.13535],[113.2644,23.1416],[113.2569,23.1416],[113.2569,23.13535]]]}},{"type":"Feature","properties":{"cell_id":"guangzhou_03_05","city_id":"guangzhou","city_name_zh":"广州","row":3,"column":5,"area_km2":0.533,"center_lon":113.26815,"center_lat":23.138475,"distance_to_center_km":1.111,"facility_count":1,"transit_count":0,"healthcare_count":0,"education_count":1,"park_count":0,"service_diversity":1,"facility_density_km2":1.8763,"road_segment_count":162,"road_length_m":3927.99,"road_density_km_km2":7.3702,"intersection_count":12,"elevation_m":18,"terrain_relief_m":20,"source_note":"OSM道路与设施聚合；SRTM高程采样；均为教学裁剪","accessibility_proxy":0.3412,"osm_intensity_class":"较低","core_zone":"核心"},"geometry":{"type":"Polygon","coordinates":[[[113.2644,23.13535],[113.2719,23.13535],[113.2719,23.1416],[113.2644,23.1416],[113.2644,23.13535]]]}},{"type":"Feature","properties":{"cell_id":"guangzhou_03_06","city_id":"guangzhou","city_name_zh":"广州","row":3,"column":6,"area_km2":0.533,"center_lon":113.27565,"center_lat":23.138475,"distance_to_center_km":1.552,"facility_count":0,"transit_count":0,"healthcare_count":0,"education_count":0,"park_count":0,"service_diversity":0,"facility_density_km2":0.0,"road_segment_count":108,"road_length_m":5142.12,"road_density_km_km2":9.6483,"intersection_count":25,"elevation_m":20,"terrain_relief_m":18,"source_note":"OSM道路与设施聚合；SRTM高程采样；均为教学裁剪","accessibility_proxy":0.3323,"osm_intensity_class":"较低","core_zone":"内圈"},"geometry":{"type":"Polygon","coordinates":[[[113.2719,23.13535],[113.2794,23.13535],[113.2794,23.1416],[113.2719,23.1416],[113.2719,23.13535]]]}},{"type":"Feature","properties":{"cell_id":"guangzhou_03_07","city_id":"guangzhou","city_name_zh":"广州","row":3,"column":7,"area_km2":0.533,"center_lon":113.28315,"center_lat":23.138475,"distance_to_center_km":2.182,"facility_count":7,"transit_count":3,"healthcare_count":3,"education_count":1,"park_count":0,"service_diversity":3,"facility_density_km2":13.1343,"road_segment_count":454,"road_length_m":8955.91,"road_density_km_km2":16.8042,"intersection_count":55,"elevation_m":22,"terrain_relief_m":11,"source_note":"OSM道路与设施聚合；SRTM高程采样；均为教学裁剪","accessibility_proxy":0.64,"osm_intensity_class":"高","core_zone":"内圈"},"geometry":{"type":"Polygon","coordinates":[[[113.2794,23.13535],[113.2869,23.13535],[113.2869,23.1416],[113.2794,23.1416],[113.2794,23.13535]]]}},{"type":"Feature","properties":{"cell_id":"guangzhou_03_08","city_id":"guangzhou","city_name_zh":"广州","row":3,"column":8,"area_km2":0.533,"center_lon":113.29065,"center_lat":23.138475,"distance_to_center_km":2.879,"facility_count":7,"transit_count":5,"healthcare_count":2,"education_count":0,"park_count":0,"service_diversity":2,"facility_density_km2":13.1343,"road_segment_count":429,"road_length_m":9819.55,"road_density_km_km2":18.4247,"intersection_count":67,"elevation_m":29,"terrain_relief_m":35,"source_note":"OSM道路与设施聚合；SRTM高程采样；均为教学裁剪","accessibility_proxy":0.6458,"osm_intensity_class":"高","core_zone":"内圈"},"geometry":{"type":"Polygon","coordinates":[[[113.2869,23.13535],[113.2944,23.13535],[113.2944,23.1416],[113.2869,23.1416],[113.2869,23.13535]]]}},{"type":"Feature","properties":{"cell_id":"guangzhou_04_01","city_id":"guangzhou","city_name_zh":"广州","row":4,"column":1,"area_km2":0.533,"center_lon":113.23815,"center_lat":23.132225,"distance_to_center_km":2.707,"facility_count":3,"transit_count":2,"healthcare_count":1,"education_count":0,"park_count":0,"service_diversity":2,"facility_density_km2":5.6287,"road_segment_count":104,"road_length_m":3856.69,"road_density_km_km2":7.2361,"intersection_count":10,"elevation_m":26,"terrain_relief_m":21,"source_note":"OSM道路与设施聚合；SRTM高程采样；均为教学裁剪","accessibility_proxy":0.3246,"osm_intensity_class":"较低","core_zone":"内圈"},"geometry":{"type":"Polygon","coordinates":[[[113.2344,23.1291],[113.2419,23.1291],[113.2419,23.13535],[113.2344,23.13535],[113.2344,23.1291]]]}},{"type":"Feature","properties":{"cell_id":"guangzhou_04_02","city_id":"guangzhou","city_name_zh":"广州","row":4,"column":2,"area_km2":0.533,"center_lon":113.24565,"center_lat":23.132225,"distance_to_center_km":1.949,"facility_count":1,"transit_count":0,"healthcare_count":1,"education_count":0,"park_count":0,"service_diversity":1,"facility_density_km2":1.8762,"road_segment_count":240,"road_length_m":6340.95,"road_density_km_km2":11.8971,"intersection_count":20,"elevation_m":30,"terrain_relief_m":25,"source_note":"OSM道路与设施聚合；SRTM高程采样；均为教学裁剪","accessibility_proxy":0.3851,"osm_intensity_class":"较低","core_zone":"内圈"},"geometry":{"type":"Polygon","coordinates":[[[113.2419,23.1291],[113.2494,23.1291],[113.2494,23.13535],[113.2419,23.13535],[113.2419,23.1291]]]}},{"type":"Feature","properties":{"cell_id":"guangzhou_04_03","city_id":"guangzhou","city_name_zh":"广州","row":4,"column":3,"area_km2":0.533,"center_lon":113.25315,"center_lat":23.132225,"distance_to_center_km":1.202,"facility_count":4,"transit_count":0,"healthcare_count":3,"education_count":1,"park_count":0,"service_diversity":2,"facility_density_km2":7.505,"road_segment_count":339,"road_length_m":7077.84,"road_density_km_km2":13.2797,"intersection_count":18,"elevation_m":17,"terrain_relief_m":15,"source_note":"OSM道路与设施聚合；SRTM高程采样；均为教学裁剪","accessibility_proxy":0.534,"osm_intensity_class":"高","core_zone":"核心"},"geometry":{"type":"Polygon","coordinates":[[[113.2494,23.1291],[113.2569,23.1291],[113.2569,23.13535],[113.2494,23.13535],[113.2494,23.1291]]]}},{"type":"Feature","properties":{"cell_id":"guangzhou_04_04","city_id":"guangzhou","city_name_zh":"广州","row":4,"column":4,"area_km2":0.533,"center_lon":113.26065,"center_lat":23.132225,"distance_to_center_km":0.517,"facility_count":4,"transit_count":3,"healthcare_count":0,"education_count":1,"park_count":0,"service_diversity":2,"facility_density_km2":7.505,"road_segment_count":270,"road_length_m":5825.2,"road_density_km_km2":10.9295,"intersection_count":23,"elevation_m":17,"terrain_relief_m":26,"source_note":"OSM道路与设施聚合；SRTM高程采样；均为教学裁剪","accessibility_proxy":0.5323,"osm_intensity_class":"高","core_zone":"核心"},"geometry":{"type":"Polygon","coordinates":[[[113.2569,23.1291],[113.2644,23.1291],[113.2644,23.13535],[113.2569,23.13535],[113.2569,23.1291]]]}},{"type":"Feature","properties":{"cell_id":"guangzhou_04_05","city_id":"guangzhou","city_name_zh":"广州","row":4,"column":5,"area_km2":0.533,"center_lon":113.26815,"center_lat":23.132225,"distance_to_center_km":0.517,"facility_count":5,"transit_count":3,"healthcare_count":0,"education_count":2,"park_count":0,"service_diversity":2,"facility_density_km2":9.3812,"road_segment_count":303,"road_length_m":6192.62,"road_density_km_km2":11.6188,"intersection_count":17,"elevation_m":19,"terrain_relief_m":22,"source_note":"OSM道路与设施聚合；SRTM高程采样；均为教学裁剪","accessibility_proxy":0.574,"osm_intensity_class":"高","core_zone":"核心"},"geometry":{"type":"Polygon","coordinates":[[[113.2644,23.1291],[113.2719,23.1291],[113.2719,23.13535],[113.2644,23.13535],[113.2644,23.1291]]]}},{"type":"Feature","properties":{"cell_id":"guangzhou_04_06","city_id":"guangzhou","city_name_zh":"广州","row":4,"column":6,"area_km2":0.533,"center_lon":113.27565,"center_lat":23.132225,"distance_to_center_km":1.202,"facility_count":2,"transit_count":0,"healthcare_count":1,"education_count":1,"park_count":0,"service_diversity":2,"facility_density_km2":3.7525,"road_segment_count":250,"road_length_m":5942.92,"road_density_km_km2":11.1503,"intersection_count":18,"elevation_m":13,"terrain_relief_m":14,"source_note":"OSM道路与设施聚合；SRTM高程采样；均为教学裁剪","accessibility_proxy":0.4364,"osm_intensity_class":"较高","core_zone":"核心"},"geometry":{"type":"Polygon","coordinates":[[[113.2719,23.1291],[113.2794,23.1291],[113.2794,23.13535],[113.2719,23.13535],[113.2719,23.1291]]]}},{"type":"Feature","properties":{"cell_id":"guangzhou_04_07","city_id":"guangzhou","city_name_zh":"广州","row":4,"column":7,"area_km2":0.533,"center_lon":113.28315,"center_lat":23.132225,"distance_to_center_km":1.949,"facility_count":3,"transit_count":3,"healthcare_count":0,"education_count":0,"park_count":0,"service_diversity":1,"facility_density_km2":5.6287,"road_segment_count":202,"road_length_m":4445.8,"road_density_km_km2":8.3414,"intersection_count":14,"elevation_m":18,"terrain_relief_m":25,"source_note":"OSM道路与设施聚合；SRTM高程采样；均为教学裁剪","accessibility_proxy":0.3747,"osm_intensity_class":"较低","core_zone":"内圈"},"geometry":{"type":"Polygon","coordinates":[[[113.2794,23.1291],[113.2869,23.1291],[113.2869,23.13535],[113.2794,23.13535],[113.2794,23.1291]]]}},{"type":"Feature","properties":{"cell_id":"guangzhou_04_08","city_id":"guangzhou","city_name_zh":"广州","row":4,"column":8,"area_km2":0.533,"center_lon":113.29065,"center_lat":23.132225,"distance_to_center_km":2.707,"facility_count":6,"transit_count":2,"healthcare_count":3,"education_count":1,"park_count":0,"service_diversity":3,"facility_density_km2":11.2574,"road_segment_count":225,"road_length_m":6402.83,"road_density_km_km2":12.0132,"intersection_count":28,"elevation_m":28,"terrain_relief_m":37,"source_note":"OSM道路与设施聚合；SRTM高程采样；均为教学裁剪","accessibility_proxy":0.501,"osm_intensity_class":"较高","core_zone":"内圈"},"geometry":{"type":"Polygon","coordinates":[[[113.2869,23.1291],[113.2944,23.1291],[113.2944,23.13535],[113.2869,23.13535],[113.2869,23.1291]]]}},{"type":"Feature","properties":{"cell_id":"guangzhou_05_01","city_id":"guangzhou","city_name_zh":"广州","row":5,"column":1,"area_km2":0.533,"center_lon":113.23815,"center_lat":23.125975,"distance_to_center_km":2.707,"facility_count":8,"transit_count":6,"healthcare_count":1,"education_count":1,"park_count":0,"service_diversity":3,"facility_density_km2":15.0092,"road_segment_count":224,"road_length_m":5297.35,"road_density_km_km2":9.9386,"intersection_count":16,"elevation_m":9,"terrain_relief_m":10,"source_note":"OSM道路与设施聚合；SRTM高程采样；均为教学裁剪","accessibility_proxy":0.5188,"osm_intensity_class":"较高","core_zone":"内圈"},"geometry":{"type":"Polygon","coordinates":[[[113.2344,23.12285],[113.2419,23.12285],[113.2419,23.1291],[113.2344,23.1291],[113.2344,23.12285]]]}},{"type":"Feature","properties":{"cell_id":"guangzhou_05_02","city_id":"guangzhou","city_name_zh":"广州","row":5,"column":2,"area_km2":0.533,"center_lon":113.24565,"center_lat":23.125975,"distance_to_center_km":1.949,"facility_count":1,"transit_count":0,"healthcare_count":0,"education_count":1,"park_count":0,"service_diversity":1,"facility_density_km2":1.8762,"road_segment_count":219,"road_length_m":6445.86,"road_density_km_km2":12.0934,"intersection_count":19,"elevation_m":13,"terrain_relief_m":31,"source_note":"OSM道路与设施聚合；SRTM高程采样；均为教学裁剪","accessibility_proxy":0.3889,"osm_intensity_class":"较低","core_zone":"内圈"},"geometry":{"type":"Polygon","coordinates":[[[113.2419,23.12285],[113.2494,23.12285],[113.2494,23.1291],[113.2419,23.1291],[113.2419,23.12285]]]}},{"type":"Feature","properties":{"cell_id":"guangzhou_05_03","city_id":"guangzhou","city_name_zh":"广州","row":5,"column":3,"area_km2":0.533,"center_lon":113.25315,"center_lat":23.125975,"distance_to_center_km":1.202,"facility_count":5,"transit_count":5,"healthcare_count":0,"education_count":0,"park_count":0,"service_diversity":1,"facility_density_km2":9.3808,"road_segment_count":130,"road_length_m":5194.57,"road_density_km_km2":9.7458,"intersection_count":16,"elevation_m":22,"terrain_relief_m":26,"source_note":"OSM道路与设施聚合；SRTM高程采样；均为教学裁剪","accessibility_proxy":0.4955,"osm_intensity_class":"较高","core_zone":"核心"},"geometry":{"type":"Polygon","coordinates":[[[113.2494,23.12285],[113.2569,23.12285],[113.2569,23.1291],[113.2494,23.1291],[113.2494,23.12285]]]}},{"type":"Feature","properties":{"cell_id":"guangzhou_05_04","city_id":"guangzhou","city_name_zh":"广州","row":5,"column":4,"area_km2":0.533,"center_lon":113.26065,"center_lat":23.125975,"distance_to_center_km":0.517,"facility_count":14,"transit_count":14,"healthcare_count":0,"education_count":0,"park_count":0,"service_diversity":1,"facility_density_km2":26.2661,"road_segment_count":301,"road_length_m":7477.71,"road_density_km_km2":14.0293,"intersection_count":31,"elevation_m":17,"terrain_relief_m":10,"source_note":"OSM道路与设施聚合；SRTM高程采样；均为教学裁剪","accessibility_proxy":0.8769,"osm_intensity_class":"高","core_zone":"核心"},"geometry":{"type":"Polygon","coordinates":[[[113.2569,23.12285],[113.2644,23.12285],[113.2644,23.1291],[113.2569,23.1291],[113.2569,23.12285]]]}},{"type":"Feature","properties":{"cell_id":"guangzhou_05_05","city_id":"guangzhou","city_name_zh":"广州","row":5,"column":5,"area_km2":0.533,"center_lon":113.26815,"center_lat":23.125975,"distance_to_center_km":0.517,"facility_count":8,"transit_count":1,"healthcare_count":2,"education_count":2,"park_count":0,"service_diversity":5,"facility_density_km2":15.0092,"road_segment_count":296,"road_length_m":5878.22,"road_density_km_km2":11.0284,"intersection_count":20,"elevation_m":19,"terrain_relief_m":10,"source_note":"OSM道路与设施聚合；SRTM高程采样；均为教学裁剪","accessibility_proxy":0.6485,"osm_intensity_class":"高","core_zone":"核心"},"geometry":{"type":"Polygon","coordinates":[[[113.2644,23.12285],[113.2719,23.12285],[113.2719,23.1291],[113.2644,23.1291],[113.2644,23.12285]]]}},{"type":"Feature","properties":{"cell_id":"guangzhou_05_06","city_id":"guangzhou","city_name_zh":"广州","row":5,"column":6,"area_km2":0.533,"center_lon":113.27565,"center_lat":23.125975,"distance_to_center_km":1.202,"facility_count":2,"transit_count":1,"healthcare_count":0,"education_count":1,"park_count":0,"service_diversity":2,"facility_density_km2":3.7523,"road_segment_count":215,"road_length_m":4531.3,"road_density_km_km2":8.5014,"intersection_count":10,"elevation_m":17,"terrain_relief_m":10,"source_note":"OSM道路与设施聚合；SRTM高程采样；均为教学裁剪","accessibility_proxy":0.3861,"osm_intensity_class":"较低","core_zone":"核心"},"geometry":{"type":"Polygon","coordinates":[[[113.2719,23.12285],[113.2794,23.12285],[113.2794,23.1291],[113.2719,23.1291],[113.2719,23.12285]]]}},{"type":"Feature","properties":{"cell_id":"guangzhou_05_07","city_id":"guangzhou","city_name_zh":"广州","row":5,"column":7,"area_km2":0.533,"center_lon":113.28315,"center_lat":23.125975,"distance_to_center_km":1.949,"facility_count":7,"transit_count":3,"healthcare_count":2,"education_count":2,"park_count":0,"service_diversity":3,"facility_density_km2":13.1331,"road_segment_count":314,"road_length_m":8177.42,"road_density_km_km2":15.3421,"intersection_count":31,"elevation_m":25,"terrain_relief_m":25,"source_note":"OSM道路与设施聚合；SRTM高程采样；均为教学裁剪","accessibility_proxy":0.622,"osm_intensity_class":"高","core_zone":"内圈"},"geometry":{"type":"Polygon","coordinates":[[[113.2794,23.12285],[113.2869,23.12285],[113.2869,23.1291],[113.2794,23.1291],[113.2794,23.12285]]]}},{"type":"Feature","properties":{"cell_id":"guangzhou_05_08","city_id":"guangzhou","city_name_zh":"广州","row":5,"column":8,"area_km2":0.533,"center_lon":113.29065,"center_lat":23.125975,"distance_to_center_km":2.707,"facility_count":12,"transit_count":8,"healthcare_count":1,"education_count":2,"park_count":0,"service_diversity":4,"facility_density_km2":22.5138,"road_segment_count":334,"road_length_m":8418.4,"road_density_km_km2":15.7942,"intersection_count":42,"elevation_m":22,"terrain_relief_m":25,"source_note":"OSM道路与设施聚合；SRTM高程采样；均为教学裁剪","accessibility_proxy":0.7443,"osm_intensity_class":"高","core_zone":"内圈"},"geometry":{"type":"Polygon","coordinates":[[[113.2869,23.12285],[113.2944,23.12285],[113.2944,23.1291],[113.2869,23.1291],[113.2869,23.12285]]]}},{"type":"Feature","properties":{"cell_id":"guangzhou_06_01","city_id":"guangzhou","city_name_zh":"广州","row":6,"column":1,"area_km2":0.533,"center_lon":113.23815,"center_lat":23.119725,"distance_to_center_km":2.88,"facility_count":10,"transit_count":9,"healthcare_count":1,"education_count":0,"park_count":0,"service_diversity":2,"facility_density_km2":18.7606,"road_segment_count":158,"road_length_m":3543.26,"road_density_km_km2":6.6474,"intersection_count":9,"elevation_m":33,"terrain_relief_m":25,"source_note":"OSM道路与设施聚合；SRTM高程采样；均为教学裁剪","accessibility_proxy":0.5077,"osm_intensity_class":"较高","core_zone":"内圈"},"geometry":{"type":"Polygon","coordinates":[[[113.2344,23.1166],[113.2419,23.1166],[113.2419,23.12285],[113.2344,23.12285],[113.2344,23.1166]]]}},{"type":"Feature","properties":{"cell_id":"guangzhou_06_02","city_id":"guangzhou","city_name_zh":"广州","row":6,"column":2,"area_km2":0.533,"center_lon":113.24565,"center_lat":23.119725,"distance_to_center_km":2.182,"facility_count":2,"transit_count":1,"healthcare_count":1,"education_count":0,"park_count":0,"service_diversity":2,"facility_density_km2":3.7521,"road_segment_count":322,"road_length_m":7544.28,"road_density_km_km2":14.1536,"intersection_count":20,"elevation_m":15,"terrain_relief_m":28,"source_note":"OSM道路与设施聚合；SRTM高程采样；均为教学裁剪","accessibility_proxy":0.4468,"osm_intensity_class":"较高","core_zone":"内圈"},"geometry":{"type":"Polygon","coordinates":[[[113.2419,23.1166],[113.2494,23.1166],[113.2494,23.12285],[113.2419,23.12285],[113.2419,23.1166]]]}},{"type":"Feature","properties":{"cell_id":"guangzhou_06_03","city_id":"guangzhou","city_name_zh":"广州","row":6,"column":3,"area_km2":0.533,"center_lon":113.25315,"center_lat":23.119725,"distance_to_center_km":1.552,"facility_count":1,"transit_count":0,"healthcare_count":1,"education_count":0,"park_count":0,"service_diversity":1,"facility_density_km2":1.8761,"road_segment_count":109,"road_length_m":3764.48,"road_density_km_km2":7.0624,"intersection_count":8,"elevation_m":15,"terrain_relief_m":30,"source_note":"OSM道路与设施聚合；SRTM高程采样；均为教学裁剪","accessibility_proxy":0.3118,"osm_intensity_class":"较低","core_zone":"内圈"},"geometry":{"type":"Polygon","coordinates":[[[113.2494,23.1166],[113.2569,23.1166],[113.2569,23.12285],[113.2494,23.12285],[113.2494,23.1166]]]}},{"type":"Feature","properties":{"cell_id":"guangzhou_06_04","city_id":"guangzhou","city_name_zh":"广州","row":6,"column":4,"area_km2":0.533,"center_lon":113.26065,"center_lat":23.119725,"distance_to_center_km":1.111,"facility_count":8,"transit_count":7,"healthcare_count":1,"education_count":0,"park_count":0,"service_diversity":2,"facility_density_km2":15.0085,"road_segment_count":382,"road_length_m":6786.28,"road_density_km_km2":12.7315,"intersection_count":23,"elevation_m":17,"terrain_relief_m":11,"source_note":"OSM道路与设施聚合；SRTM高程采样；均为教学裁剪","accessibility_proxy":0.643,"osm_intensity_class":"高","core_zone":"核心"},"geometry":{"type":"Polygon","coordinates":[[[113.2569,23.1166],[113.2644,23.1166],[113.2644,23.12285],[113.2569,23.12285],[113.2569,23.1166]]]}},{"type":"Feature","properties":{"cell_id":"guangzhou_06_05","city_id":"guangzhou","city_name_zh":"广州","row":6,"column":5,"area_km2":0.533,"center_lon":113.26815,"center_lat":23.119725,"distance_to_center_km":1.111,"facility_count":4,"transit_count":3,"healthcare_count":0,"education_count":1,"park_count":0,"service_diversity":2,"facility_density_km2":7.5043,"road_segment_count":194,"road_length_m":5565.52,"road_density_km_km2":10.4413,"intersection_count":20,"elevation_m":18,"terrain_relief_m":9,"source_note":"OSM道路与设施聚合；SRTM高程采样；均为教学裁剪","accessibility_proxy":0.4853,"osm_intensity_class":"较高","core_zone":"核心"},"geometry":{"type":"Polygon","coordinates":[[[113.2644,23.1166],[113.2719,23.1166],[113.2719,23.12285],[113.2644,23.12285],[113.2644,23.1166]]]}},{"type":"Feature","properties":{"cell_id":"guangzhou_06_06","city_id":"guangzhou","city_name_zh":"广州","row":6,"column":6,"area_km2":0.533,"center_lon":113.27565,"center_lat":23.119725,"distance_to_center_km":1.552,"facility_count":4,"transit_count":3,"healthcare_count":1,"education_count":0,"park_count":0,"service_diversity":2,"facility_density_km2":7.5043,"road_segment_count":328,"road_length_m":7668.36,"road_density_km_km2":14.3863,"intersection_count":33,"elevation_m":19,"terrain_relief_m":10,"source_note":"OSM道路与设施聚合；SRTM高程采样；均为教学裁剪","accessibility_proxy":0.5366,"osm_intensity_class":"高","core_zone":"内圈"},"geometry":{"type":"Polygon","coordinates":[[[113.2719,23.1166],[113.2794,23.1166],[113.2794,23.12285],[113.2719,23.12285],[113.2719,23.1166]]]}},{"type":"Feature","properties":{"cell_id":"guangzhou_06_07","city_id":"guangzhou","city_name_zh":"广州","row":6,"column":7,"area_km2":0.533,"center_lon":113.28315,"center_lat":23.119725,"distance_to_center_km":2.182,"facility_count":8,"transit_count":6,"healthcare_count":0,"education_count":2,"park_count":0,"service_diversity":2,"facility_density_km2":15.0085,"road_segment_count":245,"road_length_m":5996.21,"road_density_km_km2":11.2493,"intersection_count":28,"elevation_m":16,"terrain_relief_m":19,"source_note":"OSM道路与设施聚合；SRTM高程采样；均为教学裁剪","accessibility_proxy":0.5631,"osm_intensity_class":"高","core_zone":"内圈"},"geometry":{"type":"Polygon","coordinates":[[[113.2794,23.1166],[113.2869,23.1166],[113.2869,23.12285],[113.2794,23.12285],[113.2794,23.1166]]]}},{"type":"Feature","properties":{"cell_id":"guangzhou_06_08","city_id":"guangzhou","city_name_zh":"广州","row":6,"column":8,"area_km2":0.533,"center_lon":113.29065,"center_lat":23.119725,"distance_to_center_km":2.88,"facility_count":0,"transit_count":0,"healthcare_count":0,"education_count":0,"park_count":0,"service_diversity":0,"facility_density_km2":0.0,"road_segment_count":202,"road_length_m":5603.91,"road_density_km_km2":10.5133,"intersection_count":36,"elevation_m":15,"terrain_relief_m":25,"source_note":"OSM道路与设施聚合；SRTM高程采样；均为教学裁剪","accessibility_proxy":0.2954,"osm_intensity_class":"低","core_zone":"内圈"},"geometry":{"type":"Polygon","coordinates":[[[113.2869,23.1166],[113.2944,23.1166],[113.2944,23.12285],[113.2869,23.12285],[113.2869,23.1166]]]}},{"type":"Feature","properties":{"cell_id":"guangzhou_07_01","city_id":"guangzhou","city_name_zh":"广州","row":7,"column":1,"area_km2":0.5331,"center_lon":113.23815,"center_lat":23.113475,"distance_to_center_km":3.198,"facility_count":5,"transit_count":5,"healthcare_count":0,"education_count":0,"park_count":0,"service_diversity":1,"facility_density_km2":9.3799,"road_segment_count":251,"road_length_m":7685.14,"road_density_km_km2":14.4171,"intersection_count":32,"elevation_m":11,"terrain_relief_m":20,"source_note":"OSM道路与设施聚合；SRTM高程采样；均为教学裁剪","accessibility_proxy":0.5028,"osm_intensity_class":"较高","core_zone":"外圈"},"geometry":{"type":"Polygon","coordinates":[[[113.2344,23.11035],[113.2419,23.11035],[113.2419,23.1166],[113.2344,23.1166],[113.2344,23.11035]]]}},{"type":"Feature","properties":{"cell_id":"guangzhou_07_02","city_id":"guangzhou","city_name_zh":"广州","row":7,"column":2,"area_km2":0.5331,"center_lon":113.24565,"center_lat":23.113475,"distance_to_center_km":2.588,"facility_count":6,"transit_count":5,"healthcare_count":1,"education_count":0,"park_count":0,"service_diversity":2,"facility_density_km2":11.2559,"road_segment_count":444,"road_length_m":9765.8,"road_density_km_km2":18.3204,"intersection_count":35,"elevation_m":16,"terrain_relief_m":8,"source_note":"OSM道路与设施聚合；SRTM高程采样；均为教学裁剪","accessibility_proxy":0.6249,"osm_intensity_class":"高","core_zone":"内圈"},"geometry":{"type":"Polygon","coordinates":[[[113.2419,23.11035],[113.2494,23.11035],[113.2494,23.1166],[113.2419,23.1166],[113.2419,23.11035]]]}},{"type":"Feature","properties":{"cell_id":"guangzhou_07_03","city_id":"guangzhou","city_name_zh":"广州","row":7,"column":3,"area_km2":0.5331,"center_lon":113.25315,"center_lat":23.113475,"distance_to_center_km":2.084,"facility_count":5,"transit_count":3,"healthcare_count":1,"education_count":0,"park_count":0,"service_diversity":3,"facility_density_km2":9.3799,"road_segment_count":174,"road_length_m":5329.3,"road_density_km_km2":9.9976,"intersection_count":21,"elevation_m":14,"terrain_relief_m":8,"source_note":"OSM道路与设施聚合；SRTM高程采样；均为教学裁剪","accessibility_proxy":0.4576,"osm_intensity_class":"较高","core_zone":"内圈"},"geometry":{"type":"Polygon","coordinates":[[[113.2494,23.11035],[113.2569,23.11035],[113.2569,23.1166],[113.2494,23.1166],[113.2494,23.11035]]]}},{"type":"Feature","properties":{"cell_id":"guangzhou_07_04","city_id":"guangzhou","city_name_zh":"广州","row":7,"column":4,"area_km2":0.5331,"center_lon":113.26065,"center_lat":23.113475,"distance_to_center_km":1.779,"facility_count":2,"transit_count":2,"healthcare_count":0,"education_count":0,"park_count":0,"service_diversity":1,"facility_density_km2":3.752,"road_segment_count":268,"road_length_m":6622.59,"road_density_km_km2":12.4238,"intersection_count":20,"elevation_m":12,"terrain_relief_m":8,"source_note":"OSM道路与设施聚合；SRTM高程采样；均为教学裁剪","accessibility_proxy":0.4313,"osm_intensity_class":"较低","core_zone":"内圈"},"geometry":{"type":"Polygon","coordinates":[[[113.2569,23.11035],[113.2644,23.11035],[113.2644,23.1166],[113.2569,23.1166],[113.2569,23.11035]]]}},{"type":"Feature","properties":{"cell_id":"guangzhou_07_05","city_id":"guangzhou","city_name_zh":"广州","row":7,"column":5,"area_km2":0.5331,"center_lon":113.26815,"center_lat":23.113475,"distance_to_center_km":1.779,"facility_count":0,"transit_count":0,"healthcare_count":0,"education_count":0,"park_count":0,"service_diversity":0,"facility_density_km2":0.0,"road_segment_count":148,"road_length_m":4295.37,"road_density_km_km2":8.058,"intersection_count":9,"elevation_m":3,"terrain_relief_m":16,"source_note":"OSM道路与设施聚合；SRTM高程采样；均为教学裁剪","accessibility_proxy":0.2912,"osm_intensity_class":"低","core_zone":"内圈"},"geometry":{"type":"Polygon","coordinates":[[[113.2644,23.11035],[113.2719,23.11035],[113.2719,23.1166],[113.2644,23.1166],[113.2644,23.11035]]]}},{"type":"Feature","properties":{"cell_id":"guangzhou_07_06","city_id":"guangzhou","city_name_zh":"广州","row":7,"column":6,"area_km2":0.5331,"center_lon":113.27565,"center_lat":23.113475,"distance_to_center_km":2.084,"facility_count":0,"transit_count":0,"healthcare_count":0,"education_count":0,"park_count":0,"service_diversity":0,"facility_density_km2":0.0,"road_segment_count":172,"road_length_m":4440.7,"road_density_km_km2":8.3307,"intersection_count":18,"elevation_m":3,"terrain_relief_m":16,"source_note":"OSM道路与设施聚合；SRTM高程采样；均为教学裁剪","accessibility_proxy":0.2831,"osm_intensity_class":"低","core_zone":"内圈"},"geometry":{"type":"Polygon","coordinates":[[[113.2719,23.11035],[113.2794,23.11035],[113.2794,23.1166],[113.2719,23.1166],[113.2719,23.11035]]]}},{"type":"Feature","properties":{"cell_id":"guangzhou_07_07","city_id":"guangzhou","city_name_zh":"广州","row":7,"column":7,"area_km2":0.5331,"center_lon":113.28315,"center_lat":23.113475,"distance_to_center_km":2.588,"facility_count":0,"transit_count":0,"healthcare_count":0,"education_count":0,"park_count":0,"service_diversity":0,"facility_density_km2":0.0,"road_segment_count":108,"road_length_m":2468.76,"road_density_km_km2":4.6313,"intersection_count":2,"elevation_m":1,"terrain_relief_m":17,"source_note":"OSM道路与设施聚合；SRTM高程采样；均为教学裁剪","accessibility_proxy":0.1935,"osm_intensity_class":"低","core_zone":"内圈"},"geometry":{"type":"Polygon","coordinates":[[[113.2794,23.11035],[113.2869,23.11035],[113.2869,23.1166],[113.2794,23.1166],[113.2794,23.11035]]]}},{"type":"Feature","properties":{"cell_id":"guangzhou_07_08","city_id":"guangzhou","city_name_zh":"广州","row":7,"column":8,"area_km2":0.5331,"center_lon":113.29065,"center_lat":23.113475,"distance_to_center_km":3.198,"facility_count":0,"transit_count":0,"healthcare_count":0,"education_count":0,"park_count":0,"service_diversity":0,"facility_density_km2":0.0,"road_segment_count":56,"road_length_m":2186.09,"road_density_km_km2":4.1011,"intersection_count":5,"elevation_m":4,"terrain_relief_m":7,"source_note":"OSM道路与设施聚合；SRTM高程采样；均为教学裁剪","accessibility_proxy":0.164,"osm_intensity_class":"低","core_zone":"外圈"},"geometry":{"type":"Polygon","coordinates":[[[113.2869,23.11035],[113.2944,23.11035],[113.2944,23.1166],[113.2869,23.1166],[113.2869,23.11035]]]}},{"type":"Feature","properties":{"cell_id":"guangzhou_08_01","city_id":"guangzhou","city_name_zh":"广州","row":8,"column":1,"area_km2":0.5331,"center_lon":113.23815,"center_lat":23.107225,"distance_to_center_km":3.623,"facility_count":1,"transit_count":0,"healthcare_count":0,"education_count":1,"park_count":0,"service_diversity":1,"facility_density_km2":1.8759,"road_segment_count":100,"road_length_m":3992.59,"road_density_km_km2":7.4897,"intersection_count":17,"elevation_m":1,"terrain_relief_m":10,"source_note":"OSM道路与设施聚合；SRTM高程采样；均为教学裁剪","accessibility_proxy":0.2456,"osm_intensity_class":"低","core_zone":"外圈"},"geometry":{"type":"Polygon","coordinates":[[[113.2344,23.1041],[113.2419,23.1041],[113.2419,23.11035],[113.2344,23.11035],[113.2344,23.1041]]]}},{"type":"Feature","properties":{"cell_id":"guangzhou_08_02","city_id":"guangzhou","city_name_zh":"广州","row":8,"column":2,"area_km2":0.5331,"center_lon":113.24565,"center_lat":23.107225,"distance_to_center_km":3.097,"facility_count":4,"transit_count":3,"healthcare_count":0,"education_count":1,"park_count":0,"service_diversity":2,"facility_density_km2":7.5036,"road_segment_count":303,"road_length_m":6775.51,"road_density_km_km2":12.7101,"intersection_count":25,"elevation_m":19,"terrain_relief_m":18,"source_note":"OSM道路与设施聚合；SRTM高程采样；均为教学裁剪","accessibility_proxy":0.4448,"osm_intensity_class":"较高","core_zone":"外圈"},"geometry":{"type":"Polygon","coordinates":[[[113.2419,23.1041],[113.2494,23.1041],[113.2494,23.11035],[113.2419,23.11035],[113.2419,23.1041]]]}},{"type":"Feature","properties":{"cell_id":"guangzhou_08_03","city_id":"guangzhou","city_name_zh":"广州","row":8,"column":3,"area_km2":0.5331,"center_lon":113.25315,"center_lat":23.107225,"distance_to_center_km":2.691,"facility_count":3,"transit_count":0,"healthcare_count":1,"education_count":2,"park_count":0,"service_diversity":2,"facility_density_km2":5.6277,"road_segment_count":212,"road_length_m":5509.64,"road_density_km_km2":10.3355,"intersection_count":21,"elevation_m":4,"terrain_relief_m":13,"source_note":"OSM道路与设施聚合；SRTM高程采样；均为教学裁剪","accessibility_proxy":0.384,"osm_intensity_class":"较低","core_zone":"内圈"},"geometry":{"type":"Polygon","coordinates":[[[113.2494,23.1041],[113.2569,23.1041],[113.2569,23.11035],[113.2494,23.11035],[113.2494,23.1041]]]}},{"type":"Feature","properties":{"cell_id":"guangzhou_08_04","city_id":"guangzhou","city_name_zh":"广州","row":8,"column":4,"area_km2":0.5331,"center_lon":113.26065,"center_lat":23.107225,"distance_to_center_km":2.462,"facility_count":2,"transit_count":1,"healthcare_count":0,"education_count":1,"park_count":0,"service_diversity":2,"facility_density_km2":3.7518,"road_segment_count":110,"road_length_m":3501.28,"road_density_km_km2":6.568,"intersection_count":16,"elevation_m":9,"terrain_relief_m":8,"source_note":"OSM道路与设施聚合；SRTM高程采样；均为教学裁剪","accessibility_proxy":0.2919,"osm_intensity_class":"低","core_zone":"内圈"},"geometry":{"type":"Polygon","coordinates":[[[113.2569,23.1041],[113.2644,23.1041],[113.2644,23.11035],[113.2569,23.11035],[113.2569,23.1041]]]}},{"type":"Feature","properties":{"cell_id":"guangzhou_08_05","city_id":"guangzhou","city_name_zh":"广州","row":8,"column":5,"area_km2":0.5331,"center_lon":113.26815,"center_lat":23.107225,"distance_to_center_km":2.462,"facility_count":4,"transit_count":4,"healthcare_count":0,"education_count":0,"park_count":0,"service_diversity":1,"facility_density_km2":7.5036,"road_segment_count":293,"road_length_m":8080.56,"road_density_km_km2":15.1582,"intersection_count":49,"elevation_m":16,"terrain_relief_m":13,"source_note":"OSM道路与设施聚合；SRTM高程采样；均为教学裁剪","accessibility_proxy":0.5123,"osm_intensity_class":"较高","core_zone":"内圈"},"geometry":{"type":"Polygon","coordinates":[[[113.2644,23.1041],[113.2719,23.1041],[113.2719,23.11035],[113.2644,23.11035],[113.2644,23.1041]]]}},{"type":"Feature","properties":{"cell_id":"guangzhou_08_06","city_id":"guangzhou","city_name_zh":"广州","row":8,"column":6,"area_km2":0.5331,"center_lon":113.27565,"center_lat":23.107225,"distance_to_center_km":2.691,"facility_count":0,"transit_count":0,"healthcare_count":0,"education_count":0,"park_count":0,"service_diversity":0,"facility_density_km2":0.0,"road_segment_count":158,"road_length_m":5734.11,"road_density_km_km2":10.7566,"intersection_count":17,"elevation_m":10,"terrain_relief_m":23,"source_note":"OSM道路与设施聚合；SRTM高程采样；均为教学裁剪","accessibility_proxy":0.3063,"osm_intensity_class":"较低","core_zone":"内圈"},"geometry":{"type":"Polygon","coordinates":[[[113.2719,23.1041],[113.2794,23.1041],[113.2794,23.11035],[113.2719,23.11035],[113.2719,23.1041]]]}},{"type":"Feature","properties":{"cell_id":"guangzhou_08_07","city_id":"guangzhou","city_name_zh":"广州","row":8,"column":7,"area_km2":0.5331,"center_lon":113.28315,"center_lat":23.107225,"distance_to_center_km":3.097,"facility_count":3,"transit_count":3,"healthcare_count":0,"education_count":0,"park_count":0,"service_diversity":1,"facility_density_km2":5.6277,"road_segment_count":189,"road_length_m":5255.2,"road_density_km_km2":9.8582,"intersection_count":22,"elevation_m":15,"terrain_relief_m":35,"source_note":"OSM道路与设施聚合；SRTM高程采样；均为教学裁剪","accessibility_proxy":0.362,"osm_intensity_class":"较低","core_zone":"外圈"},"geometry":{"type":"Polygon","coordinates":[[[113.2794,23.1041],[113.2869,23.1041],[113.2869,23.11035],[113.2794,23.11035],[113.2794,23.1041]]]}},{"type":"Feature","properties":{"cell_id":"guangzhou_08_08","city_id":"guangzhou","city_name_zh":"广州","row":8,"column":8,"area_km2":0.5331,"center_lon":113.29065,"center_lat":23.107225,"distance_to_center_km":3.623,"facility_count":0,"transit_count":0,"healthcare_count":0,"education_count":0,"park_count":0,"service_diversity":0,"facility_density_km2":0.0,"road_segment_count":94,"road_length_m":2999.96,"road_density_km_km2":5.6276,"intersection_count":9,"elevation_m":2,"terrain_relief_m":8,"source_note":"OSM道路与设施聚合；SRTM高程采样；均为教学裁剪","accessibility_proxy":0.1816,"osm_intensity_class":"低","core_zone":"外圈"},"geometry":{"type":"Polygon","coordinates":[[[113.2869,23.1041],[113.2944,23.1041],[113.2944,23.11035],[113.2869,23.11035],[113.2869,23.1041]]]}}]}