{"type":"FeatureCollection","name":"guangzhou_ghsl_boundary","crs":{"type":"name","properties":{"name":"urn:ogc:def:crs:OGC:1.3:CRS84"}},"features":[{"type":"Feature","properties":{"uc_id":10933,"city_name_en":"Guangzhou","city_name_zh":"广州（珠三角连续城市形态区）","country":"China","urban_area_km2_2025":6454,"population_2025":42987704,"population_density_km2_2025":6660.63,"gdp_average_ppp_1990":3062700,"gdp_average_ppp_2000":26651380,"gdp_average_ppp_2010":79640070,"gdp_average_ppp_2020":131994300,"gdp_total_ppp_1990":24317833216,"gdp_total_ppp_2000":215000000000,"gdp_total_ppp_2010":644000000000,"gdp_total_ppp_2020":1070000000000,"hdi_1990":0.539,"hdi_2000":0.626,"hdi_2010":0.727,"hdi_2020":0.794},"geometry":{"type":"Polygon","coordinates":[[[113.365781313496,23.3722783394738],[113.386821733133,23.3722783394738],[113.382393411583,23.3639221067752],[113.392913210871,23.3639221067752],[113.388486545814,23.3555660741427],[113.399005934572,23.3555660741427],[113.394580926908,23.3472102418582],[113.405099905136,23.3472102418582],[113.400676553964,23.3388546093788],[113.390157986266,23.3388546093788],[113.354848788641,23.2720167400055],[113.365364080183,23.2720167400055],[113.360959303476,23.2636629035842],[113.371474187183,23.2636629035842],[113.35387404559,23.2302495480953],[113.364387297058,23.2302495480953],[113.359992001172,23.2218967061109],[113.381017688437,23.2218967061109],[113.376623635819,23.2135440631947],[113.397648507414,23.2135440631947],[113.393255698064,23.2051916188011],[113.435303813508,23.2051916188011],[113.430911432654,23.1968393732103],[113.451934676503,23.1968393732103],[113.447543538917,23.1884873250507],[113.458054753904,23.1884873250507],[113.453665267423,23.1801354762534],[113.464176075473,23.1801354762534],[113.459788239196,23.1717838254469],[113.470298641208,23.1717838254469],[113.465912454239,23.1634323720848],[113.507952437234,23.1634323720848],[113.503566681456,23.1550811172724],[113.545605040297,23.1550811172724],[113.541219716608,23.1467300604632],[113.551728900504,23.1467300604632],[113.547345227919,23.1383792011104],[113.578871561493,23.1383792011104],[113.583256451295,23.1467300604632],[113.593765635192,23.1467300604632],[113.598152987276,23.1550811172724],[113.608662577211,23.1550811172724],[113.613052393375,23.1634323720848],[113.62356238845,23.1634323720848],[113.627954669591,23.1717838254469],[113.638465071603,23.1717838254469],[113.64285981772,23.1801354762534],[113.66388143472,23.1801354762534],[113.659485874728,23.1717838254469],[113.680506678752,23.1717838254469],[113.67611236652,23.1634323720848],[113.665602371445,23.1634323720848],[113.656820736773,23.1467300604632],[113.66732992067,23.1467300604632],[113.662941785254,23.1383792011104],[113.673450563112,23.1383792011104],[113.669064079698,23.1300285403195],[113.690080824235,23.1300285403195],[113.694468118828,23.1383792011104],[113.704976896686,23.1383792011104],[113.709366654459,23.1467300604632],[113.74089420525,23.1467300604632],[113.73650323026,23.1383792011104],[113.757520785975,23.1383792011104],[113.753131058745,23.1300285403195],[113.805672920537,23.1300285403195],[113.810064675265,23.1383792011104],[113.820573453123,23.1383792011104],[113.824967674624,23.1467300604632],[113.835476858521,23.1467300604632],[113.83108223098,23.1383792011104],[113.852099787595,23.1383792011104],[113.856495225415,23.1467300604632],[113.867004409312,23.1467300604632],[113.875802282829,23.1634323720848],[113.886312278802,23.1634323720848],[113.895119218117,23.1801354762534],[113.884608410067,23.1801354762534],[113.88901456928,23.1884873250507],[113.910036999255,23.1884873250507],[113.905630026168,23.1801354762534],[113.916140835116,23.1801354762534],[113.911735520319,23.1717838254469],[113.932756323445,23.1717838254469],[113.928352260899,23.1634323720848],[113.938862256873,23.1634323720848],[113.9256612326,23.1383792011104],[113.936170010458,23.1383792011104],[113.931773389556,23.1300285403195],[113.952790134093,23.1300285403195],[113.957187566173,23.1383792011104],[113.967696344031,23.1383792011104],[113.972096244682,23.1467300604632],[113.982605428579,23.1467300604632],[113.978205121889,23.1383792011104],[113.999222677605,23.1383792011104],[113.990426632159,23.1216780767172],[114.000934599737,23.1216780767172],[113.992145994139,23.1049777421944],[114.002653150537,23.1049777421944],[113.998261535947,23.0966278718316],[114.008768288104,23.0966278718316],[114.004378329108,23.0882781981202],[114.035897371955,23.0882781981202],[114.031508260969,23.0799287213388],[114.042014203744,23.0799287213388],[114.033241353697,23.063230360506],[114.043746488886,23.063230360506],[114.039362748927,23.0548814753585],[114.049867479875,23.0548814753585],[114.045485395511,23.0465327866011],[114.066494051617,23.0465327866011],[114.070876942668,23.0548814753585],[114.081381674514,23.0548814753585],[114.076998379221,23.0465327866011],[114.087502706825,23.0465327866011],[114.083121067127,23.0381842953385],[114.104128915648,23.0381842953385],[114.108511362033,23.0465327866011],[114.119015689637,23.0465327866011],[114.123400599203,23.0548814753585],[114.144410061996,23.0548814753585],[114.122502072814,23.0131400018599],[114.111999357686,23.0131400018599],[114.107624337674,23.0047922967423],[114.097122024991,23.0047922967423],[114.088378960384,22.9880974751684],[114.098880468177,22.9880974751684],[114.094511616895,22.979750359267],[114.147017144529,22.979750359267],[114.142648338163,22.9714034397743],[114.174150449563,22.9714034397743],[114.169782493902,22.9630567153135],[114.19078309751,22.9630567153135],[114.195151856265,22.9714034397743],[114.205652560065,22.9714034397743],[114.214397052095,22.9880974751684],[114.266904590158,22.9880974751684],[114.258156078168,22.9714034397743],[114.268656781968,22.9714034397743],[114.264285210588,22.9630567153135],[114.24328460698,22.9630567153135],[114.247655374368,22.9714034397743],[114.226653967666,22.9714034397743],[114.222284003372,22.9630567153135],[114.201283398865,22.9630567153135],[114.196916293909,22.9547101878157],[114.133916891468,22.9547101878157],[114.129554249342,22.9463638550766],[114.119054751081,22.9463638550766],[114.110336427873,22.9296717782899],[114.120835124837,22.9296717782899],[114.116478640662,22.9213260331414],[114.105980345245,22.9213260331414],[114.092924400688,22.8962899706841],[114.050936020515,22.8962899706841],[114.055284351581,22.904635129062],[114.023791865629,22.904635129062],[114.019444735611,22.8962899706841],[114.008947641242,22.8962899706841],[113.995919736697,22.8712556652366],[113.985423841579,22.8712556652366],[113.989764030314,22.8796002384952],[113.979267734547,22.8796002384952],[113.987953451605,22.8962899706841],[113.977456356337,22.8962899706841],[113.981801885557,22.904635129062],[113.929314409569,22.904635129062],[113.933659984603,22.9129804838583],[113.902166298502,22.9129804838583],[113.906512718851,22.9213260331414],[113.88551612622,22.9213260331414],[113.881170507169,22.9129804838583],[113.870672611502,22.9129804838583],[113.857649230874,22.887945006518],[113.847152536255,22.887945006518],[113.842815899458,22.8796002384952],[113.832319604589,22.8796002384952],[113.827985411209,22.8712556652366],[113.796497724956,22.8712556652366],[113.809502838343,22.8962899706841],[113.799005743076,22.8962899706841],[113.803344468456,22.904635129062],[113.792846973438,22.904635129062],[113.797187342735,22.9129804838583],[113.786689447967,22.9129804838583],[113.795375521655,22.9296717782899],[113.784876824691,22.9296717782899],[113.789222529981,22.9380177190272],[113.757725236246,22.9380177190272],[113.7533807338,22.9296717782899],[113.742882036836,22.9296717782899],[113.734199969634,22.9129804838583],[113.713204179199,22.9129804838583],[113.717543388771,22.9213260331414],[113.696546797039,22.9213260331414],[113.692208387866,22.9129804838583],[113.6817104922,22.9129804838583],[113.66870872324,22.887945006518],[113.679205418757,22.887945006518],[113.670546979942,22.8712556652366],[113.681042875958,22.8712556652366],[113.676716317361,22.8629112861903],[113.729193796896,22.8629112861903],[113.724867282316,22.8545671032877],[113.745857476246,22.8545671032877],[113.741532203138,22.8462231143213],[113.752026900802,22.8462231143213],[113.747703268915,22.8378793203945],[113.758197567727,22.8378793203945],[113.753875576164,22.829535720955],[113.785357276045,22.829535720955],[113.789680463265,22.8378793203945],[113.800174762077,22.8378793203945],[113.795851176005,22.829535720955],[113.869308475726,22.829535720955],[113.86498413956,22.8211923162783],[113.896464643783,22.8211923162783],[113.892141152932,22.8128491058118],[113.913127359241,22.8128491058118],[113.908805112556,22.8045060898307],[113.929790522958,22.8045060898307],[113.93411356555,22.8128491058118],[113.944606668704,22.8128491058118],[113.961920852288,22.8462231143213],[113.993404944382,22.8462231143213],[113.989072138001,22.8378793203945],[113.978577839189,22.8378793203945],[113.969919154235,22.8211923162783],[113.980412655343,22.8211923162783],[113.976085978168,22.8128491058118],[113.965592875013,22.8128491058118],[113.943992091692,22.7711359671537],[113.954483205977,22.7711359671537],[113.950168770144,22.7627939219286],[113.960659487373,22.7627939219286],[113.939115883617,22.7210866002495],[113.918138416119,22.7210866002495],[113.913836595327,22.712745716901],[113.903348257735,22.712745716901],[113.899048866887,22.7044050263633],[113.888560925452,22.7044050263633],[113.892859920143,22.712745716901],[113.871883244061,22.712745716901],[113.867585041684,22.7044050263633],[113.85709709935,22.7044050263633],[113.844215871726,22.6793841143532],[113.854702627384,22.6793841143532],[113.850412552065,22.6710441961393],[113.871385272865,22.6710441961393],[113.862809632668,22.6543649392087],[113.873295203448,22.6543649392087],[113.869010033829,22.646025599381],[113.879495209351,22.646025599381],[113.870930167477,22.629347498367],[113.881414555177,22.629347498367],[113.877134682923,22.6210087360688],[113.887618676262,22.6210087360688],[113.879064225526,22.6043317892551],[113.889547431042,22.6043317892551],[113.88527285256,22.5959936044562],[113.895755665513,22.5959936044562],[113.89148271927,22.5876556113203],[113.912447557353,22.5876556113203],[113.916721289622,22.5959936044562],[113.948169726684,22.5959936044562],[113.952446665939,22.6043317892551],[113.994379488904,22.6043317892551],[113.990100975801,22.5959936044562],[114.000583787856,22.5959936044562],[113.992032059014,22.5793178109496],[114.002514085043,22.5793178109496],[113.998240868407,22.5709802019576],[114.029685767903,22.5709802019576],[114.033960163129,22.5793178109496],[114.075888266346,22.5793178109496],[114.08016626202,22.5876556113203],[114.09064868151,22.5876556113203],[114.099211546766,22.6043317892551],[114.088728341249,22.6043317892551],[114.093012425704,22.6126701671031],[114.072045226848,22.6126701671031],[114.067761929318,22.6043317892551],[114.057278723801,22.6043317892551],[114.052997849925,22.5959936044562],[114.021549412863,22.5959936044562],[114.025829106353,22.6043317892551],[114.015345900836,22.6043317892551],[114.019627229259,22.6126701671031],[114.00914363028,22.6126701671031],[114.013426594536,22.6210087360688],[114.002942602095,22.6210087360688],[114.007227202182,22.629347498367],[113.996742815381,22.629347498367],[114.001029052199,22.6376864528953],[113.990544271037,22.6376864528953],[113.994832144586,22.646025599381],[113.984346968166,22.646025599381],[113.988636478444,22.6543649392087],[113.978150907664,22.6543649392087],[113.982442055571,22.6627044712763],[113.97195609043,22.6627044712763],[113.97624887417,22.6710441961393],[113.96576251377,22.6710441961393],[113.970056936037,22.6793841143532],[113.949083425618,22.6793841143532],[113.944789793868,22.6710441961393],[113.934303433468,22.6710441961393],[113.925723055556,22.6543649392087],[113.936208626337,22.6543649392087],[113.931921088758,22.646025599381],[113.952891440701,22.646025599381],[113.94003864206,22.6210087360688],[113.92955464872,22.6210087360688],[113.933836491878,22.629347498367],[113.923352104179,22.629347498367],[113.927635581372,22.6376864528953],[113.906666019049,22.6376864528953],[113.915237485673,22.6543649392087],[113.904751914893,22.6543649392087],[113.909040298684,22.6627044712763],[113.898554333543,22.6627044712763],[113.920024750655,22.7044050263633],[113.951488576756,22.7044050263633],[113.955789946593,22.712745716901],[113.966278284185,22.712745716901],[113.983505704885,22.7461104127041],[113.993995628003,22.7461104127041],[113.998307972559,22.7544520703539],[114.008798292732,22.7544520703539],[114.017429891684,22.7711359671537],[114.006938777399,22.7711359671537],[114.02855149394,22.8128491058118],[114.049537699351,22.8128491058118],[114.053867165795,22.8211923162783],[114.064360666904,22.8211923162783],[114.081700568355,22.8545671032877],[114.092195664871,22.8545671032877],[114.096536154543,22.8629112861903],[114.180500121979,22.8629112861903],[114.176156438797,22.8545671032877],[114.186651535313,22.8545671032877],[114.182309500539,22.8462231143213],[114.203298895868,22.8462231143213],[114.198958111549,22.8378793203945],[114.219946709173,22.8378793203945],[114.215607174411,22.829535720955],[114.226101074371,22.829535720955],[114.221763188916,22.8211923162783],[114.200776185801,22.8211923162783],[114.196441143514,22.8128491058118],[114.185948040359,22.8128491058118],[114.18161544149,22.8045060898307],[114.171122737187,22.8045060898307],[114.166792581735,22.7961632677822],[114.156300274488,22.7961632677822],[114.147646890492,22.7794782065829],[114.158138401832,22.7794782065829],[114.153814377382,22.7711359671537],[114.164305491666,22.7711359671537],[114.159983111133,22.7627939219286],[114.180964545591,22.7627939219286],[114.176643413716,22.7544520703539],[114.208114373339,22.7544520703539],[114.21243669638,22.7627939219286],[114.254399565296,22.7627939219286],[114.258725519328,22.7711359671537],[114.269216633612,22.7711359671537],[114.273545030163,22.7794782065829],[114.284036542401,22.7794782065829],[114.288367380573,22.7878206399413],[114.30935119916,22.7878206399413],[114.313684879602,22.7961632677822],[114.324177186849,22.7961632677822],[114.328513311606,22.8045060898307],[114.34949872111,22.8045060898307],[114.319183248267,22.7461104127041],[114.329673171385,22.7461104127041],[114.316710302172,22.7210866002495],[114.327199035921,22.7210866002495],[114.322881768598,22.712745716901],[114.343858443782,22.712745716901],[114.339542426016,22.7044050263633],[114.381494193552,22.7044050263633],[114.377178633927,22.6960645297388],[114.398153726279,22.6960645297388],[114.393839417108,22.6877242256442],[114.383352267089,22.6877242256442],[114.37904039415,22.6793841143532],[114.368553638491,22.6793841143532],[114.364244200884,22.6710441961393],[114.332785120582,22.6710441961393],[114.328478907927,22.6627044712763],[114.265563116182,22.6627044712763],[114.261261310661,22.6543649392087],[114.250775739881,22.6543649392087],[114.246476365202,22.646025599381],[114.235991189679,22.646025599381],[114.223106459523,22.6210087360688],[114.233590452862,22.6210087360688],[114.229299217818,22.6126701671031],[114.197848419983,22.6126701671031],[114.193560398213,22.6043317892551],[114.183077192696,22.6043317892551],[114.178791597275,22.5959936044562],[114.168308785221,22.5959936044562],[114.164025614353,22.5876556113203],[114.15354319576,22.5876556113203],[114.149262448547,22.5793178109496],[114.170226499706,22.5793178109496],[114.16594699666,22.5709802019576],[114.186910262691,22.5709802019576],[114.178355774225,22.5543055591994],[114.167874925888,22.5543055591994],[114.163601117262,22.5459685251481],[114.153120662387,22.5459685251481],[114.148849272924,22.5376316835647],[114.127889146504,22.5376316835647],[114.123620568768,22.5292950330619],[114.092181555033,22.5292950330619],[114.087916178893,22.5209585730818],[114.077436899014,22.5209585730818],[114.073173939341,22.5126223055558],[114.062695051128,22.5126223055558],[114.058434507025,22.504286229096],[114.026999017381,22.504286229096],[114.031258387386,22.5126223055558],[114.020779500071,22.5126223055558],[114.025040501416,22.5209585730818],[113.951685544958,22.5209585730818],[113.947427284373,22.5126223055558],[113.957906171688,22.5126223055558],[113.94939493351,22.4959503431442],[113.959873038393,22.4959503431442],[113.955620059902,22.4876146488017],[113.966097774017,22.4876146488017],[113.957597095535,22.470943833541],[113.947120162954,22.470943833541],[113.951369101721,22.4792791455102],[113.919937130778,22.4792791455102],[113.911443616361,22.4626087115051],[113.900967074547,22.4626087115051],[113.892482413027,22.4459390399781],[113.871530888874,22.4459390399781],[113.875771431089,22.4542737805039],[113.865295279144,22.4542737805039],[113.869537448207,22.4626087115051],[113.859060905495,22.4626087115051],[113.867550514037,22.4792791455102],[113.857073190689,22.4792791455102],[113.861320631965,22.4876146488017],[113.850842916951,22.4876146488017],[113.855091985974,22.4959503431442],[113.844613880194,22.4959503431442],[113.840365202836,22.4876146488017],[113.829887488721,22.4876146488017],[113.834135775311,22.4959503431442],[113.82365766953,22.4959503431442],[113.836413469884,22.5209585730818],[113.846892749763,22.5209585730818],[113.851149114902,22.5292950330619],[113.840669443358,22.5292950330619],[113.853449492834,22.5543055591994],[113.842968644497,22.5543055591994],[113.83870699906,22.5459685251481],[113.828226543286,22.5459685251481],[113.841016372721,22.5709802019576],[113.830534740154,22.5709802019576],[113.83480167038,22.5793178109496],[113.813837618323,22.5793178109496],[113.822375979334,22.5959936044562],[113.811893167279,22.5959936044562],[113.828992618476,22.629347498367],[113.818508231674,22.629347498367],[113.82278776706,22.6376864528953],[113.812302985899,22.6376864528953],[113.816584154422,22.646025599381],[113.806098978001,22.646025599381],[113.81038178056,22.6543649392087],[113.799896209779,22.6543649392087],[113.804180646373,22.6627044712763],[113.751750819769,22.6627044712763],[113.764610377334,22.6877242256442],[113.754123227315,22.6877242256442],[113.758413409534,22.6960645297388],[113.747925863358,22.6960645297388],[113.756511528754,22.712745716901],[113.766999866345,22.712745716901],[113.779894789685,22.7377689484253],[113.769405263622,22.7377689484253],[113.773707240721,22.7461104127041],[113.742237470467,22.7461104127041],[113.746540291084,22.7544520703539],[113.73604997091,22.7544520703539],[113.744660920288,22.7711359671537],[113.734169806003,22.7711359671537],[113.738477935663,22.7794782065829],[113.727986423425,22.7794782065829],[113.732296190714,22.7878206399413],[113.69032855354,22.7878206399413],[113.686020377167,22.7794782065829],[113.675528865828,22.7794782065829],[113.671223120297,22.7711359671537],[113.639749777443,22.7711359671537],[113.64405433091,22.7794782065829],[113.633562818672,22.7794782065829],[113.63786900797,22.7878206399413],[113.627377098677,22.7878206399413],[113.635994783623,22.8045060898307],[113.625502078422,22.8045060898307],[113.629813574968,22.8128491058118],[113.598334266402,22.8128491058118],[113.602646603771,22.8211923162783],[113.592153101765,22.8211923162783],[113.596467076762,22.829535720955],[113.585973176802,22.829535720955],[113.59028878853,22.8378793203945],[113.579794489717,22.8378793203945],[113.58843102581,22.8545671032877],[113.598926122326,22.8545671032877],[113.611897408753,22.8796002384952],[113.601401113884,22.8796002384952],[113.605728554628,22.887945006518],[113.574238469872,22.887945006518],[113.587229432997,22.9129804838583],[113.597727328664,22.9129804838583],[113.610737866079,22.9380177190272],[113.621236963691,22.9380177190272],[113.634267096956,22.9630567153135],[113.623766794703,22.9630567153135],[113.62811386094,22.9714034397743],[113.586111046638,22.9714034397743],[113.599159697774,22.9964447880283],[113.588657788435,22.9964447880283],[113.593011029692,23.0047922967423],[113.603513342375,23.0047922967423],[113.612226773357,23.0214879031035],[113.622729891828,23.0214879031035],[113.631452324828,23.0381842953385],[113.620948400568,23.0381842953385],[113.629678229397,23.0548814753585],[113.619173497551,23.0548814753585],[113.623541084903,23.063230360506],[113.602530815422,23.063230360506],[113.598164035656,23.0548814753585],[113.58765930381,23.0548814753585],[113.578932703526,23.0381842953385],[113.568428779266,23.0381842953385],[113.555355457697,23.0131400018599],[113.544852743467,23.0131400018599],[113.540499467176,23.0047922967423],[113.519494842709,23.0047922967423],[113.510796039893,22.9880974751684],[113.521297547685,22.9880974751684],[113.516950812028,22.979750359267],[113.527451918273,22.979750359267],[113.523106824736,22.9714034397743],[113.512606120936,22.9714034397743],[113.50826347441,22.9630567153135],[113.497763172156,22.9630567153135],[113.489084809606,22.9463638550766],[113.499584308766,22.9463638550766],[113.490913311502,22.9296717782899],[113.480414614539,22.9296717782899],[113.467424625187,22.904635129062],[113.477922120205,22.904635129062],[113.469271520987,22.887945006518],[113.479768215606,22.887945006518],[113.475445573663,22.8796002384952],[113.485941868532,22.8796002384952],[113.481620863319,22.8712556652366],[113.492116758437,22.8712556652366],[113.487797390853,22.8629112861903],[113.466806399219,22.8629112861903],[113.471124968201,22.8712556652366],[113.450133177065,22.8712556652366],[113.445815407584,22.8629112861903],[113.414328919683,22.8629112861903],[113.410014383239,22.8545671032877],[113.399519286723,22.8545671032877],[113.390897113794,22.8378793203945],[113.401391412606,22.8378793203945],[113.397082977519,22.829535720955],[113.407576877479,22.829535720955],[113.403270076428,22.8211923162783],[113.43475058065,22.8211923162783],[113.421838783356,22.7961632677822],[113.411346476109,22.7961632677822],[113.407047004412,22.7878206399413],[113.396555095119,22.7878206399413],[113.387963035515,22.7711359671537],[113.37747192123,22.7711359671537],[113.364600234612,22.7461104127041],[113.354110311493,22.7461104127041],[113.345540114188,22.7294276777919],[113.356029244094,22.7294276777919],[113.351746787387,22.7210866002495],[113.362235521136,22.7210866002495],[113.357954693074,22.712745716901],[113.378931368258,22.712745716901],[113.374651772685,22.7044050263633],[113.385139715018,22.7044050263633],[113.380861747192,22.6960645297388],[113.391349293368,22.6960645297388],[113.387072954188,22.6877242256442],[113.376585803271,22.6877242256442],[113.372311882355,22.6793841143532],[113.361825126697,22.6793841143532],[113.353284141706,22.6627044712763],[113.321826245384,22.6627044712763],[113.326094542846,22.6710441961393],[113.305121822046,22.6710441961393],[113.300854315102,22.6627044712763],[113.290368349961,22.6627044712763],[113.281840184828,22.646025599381],[113.29232536035,22.646025599381],[113.288063911644,22.6376864528953],[113.330003037189,22.6376864528953],[113.325742029555,22.629347498367],[113.336226417255,22.629347498367],[113.331967033776,22.6210087360688],[113.321483040437,22.6210087360688],[113.312971114149,22.6043317892551],[113.323454320564,22.6043317892551],[113.319200989035,22.5959936044562],[113.32968380109,22.5959936044562],[113.325432091918,22.5876556113203],[113.356879349492,22.5876556113203],[113.361132238152,22.5959936044562],[113.371615050206,22.5959936044562],[113.375870349046,22.6043317892551],[113.396836760079,22.6043317892551],[113.388326606168,22.5876556113203],[113.398809025659,22.5876556113203],[113.394556580767,22.5793178109496],[113.405038606795,22.5793178109496],[113.400787785159,22.5709802019576],[113.421751051191,22.5709802019576],[113.426002658853,22.5793178109496],[113.520340892213,22.5793178109496],[113.516085748782,22.5709802019576],[113.537049014814,22.5709802019576],[113.528543211443,22.5543055591994],[113.507581515667,22.5543055591994],[113.503332425084,22.5459685251481],[113.49285196931,22.5459685251481],[113.484360618934,22.5292950330619],[113.494840290479,22.5292950330619],[113.490597245558,22.5209585730818],[113.480117966577,22.5209585730818],[113.471638702135,22.504286229096],[113.461160205587,22.504286229096],[113.452689776076,22.4876146488017],[113.410778919614,22.4876146488017],[113.406548285818,22.4792791455102],[113.396070962469,22.4792791455102],[113.400301205499,22.4876146488017],[113.368868062255,22.4876146488017],[113.364638991526,22.4792791455102],[113.354161668178,22.4792791455102],[113.34571033685,22.4626087115051],[113.356186878664,22.4626087115051],[113.347742798536,22.4459390399781],[113.33726703646,22.4459390399781],[113.341487682788,22.4542737805039],[113.331011530842,22.4542737805039],[113.335233794138,22.4626087115051],[113.324757252324,22.4626087115051],[113.328981132586,22.470943833541],[113.308027267424,22.470943833541],[113.303804167797,22.4626087115051],[113.293327625085,22.4626087115051],[113.289106923062,22.4542737805039],[113.247202315282,22.4542737805039],[113.251421456931,22.4626087115051],[113.261897998745,22.4626087115051],[113.270343081392,22.4792791455102],[113.259865758044,22.4792791455102],[113.264090920203,22.4876146488017],[113.253613206087,22.4876146488017],[113.262068772074,22.504286229096],[113.272547268622,22.504286229096],[113.276778456679,22.5126223055558],[113.287257344893,22.5126223055558],[113.295726535627,22.5292950330619],[113.285246864083,22.5292950330619],[113.289484084327,22.5376316835647],[113.299964147537,22.5376316835647],[113.304203771673,22.5459685251481],[113.314684226549,22.5459685251481],[113.323170297526,22.5626427846168],[113.312689057523,22.5626427846168],[113.316934721033,22.5709802019576],[113.306453088466,22.5709802019576],[113.310700373435,22.5793178109496],[113.279254295349,22.5793178109496],[113.27500818897,22.5709802019576],[113.264526556403,22.5709802019576],[113.256041169044,22.5543055591994],[113.266522016483,22.5543055591994],[113.262281949477,22.5459685251481],[113.272762405251,22.5459685251481],[113.264287520994,22.5292950330619],[113.274767192539,22.5292950330619],[113.270532375287,22.5209585730818],[113.228615257568,22.5209585730818],[113.23708376738,22.5376316835647],[113.22660370417,22.5376316835647],[113.230840583055,22.5459685251481],[113.22036012818,22.5459685251481],[113.224598625828,22.5543055591994],[113.214117777491,22.5543055591994],[113.218357894802,22.5626427846168],[113.207876654799,22.5626427846168],[113.212118390875,22.5709802019576],[113.20163675741,22.5709802019576],[113.205880114046,22.5793178109496],[113.195398088017,22.5793178109496],[113.199643064316,22.5876556113203],[113.189160644825,22.5876556113203],[113.193407240787,22.5959936044562],[113.161958803724,22.5959936044562],[113.15771338815,22.5876556113203],[113.147230968659,22.5876556113203],[113.134507972085,22.5626427846168],[113.124026732082,22.5626427846168],[113.119790147844,22.5543055591994],[113.109309299507,22.5543055591994],[113.092384623634,22.5209585730818],[113.081905344654,22.5209585730818],[113.077679586912,22.5126223055558],[113.067200698699,22.5126223055558],[113.0545366352,22.4876146488017],[113.044058921085,22.4876146488017],[113.039841966833,22.4792791455102],[113.008409996789,22.4792791455102],[113.012625777841,22.4876146488017],[113.002148063725,22.4876146488017],[113.006365458151,22.4959503431442],[112.985409247488,22.4959503431442],[112.998071108317,22.5209585730818],[113.008550387298,22.5209585730818],[113.021231474769,22.5459685251481],[113.031711929644,22.5459685251481],[113.040176809364,22.5626427846168],[113.029695569361,22.5626427846168],[113.042406778242,22.5876556113203],[113.03192435965,22.5876556113203],[113.036165056374,22.5959936044562],[112.983750995203,22.5959936044562],[112.987991735945,22.6043317892551],[112.967025324013,22.6043317892551],[112.962785370195,22.5959936044562],[112.952302558141,22.5959936044562],[112.969272862142,22.629347498367],[113.021694798843,22.629347498367],[113.025944374516,22.6376864528953],[113.036429155678,22.6376864528953],[113.040681138836,22.646025599381],[113.051166315256,22.646025599381],[113.055420707696,22.6543649392087],[113.065906277578,22.6543649392087],[113.070163080198,22.6627044712763],[113.080649045339,22.6627044712763],[113.084908258138,22.6710441961393],[113.095394618538,22.6710441961393],[113.09113501048,22.6627044712763],[113.112106940763,22.6627044712763],[113.116367339338,22.6710441961393],[113.12685369884,22.6710441961393],[113.131116509392,22.6793841143532],[113.14160326505,22.6793841143532],[113.150135731317,22.6960645297388],[113.139648185141,22.6960645297388],[113.143917051236,22.7044050263633],[113.133429109801,22.7044050263633],[113.137699600051,22.712745716901],[113.127211262459,22.712745716901],[113.131483376862,22.7210866002495],[113.110505908466,22.7210866002495],[113.106234586377,22.712745716901],[113.095746248785,22.712745716901],[113.104290121859,22.7294276777919],[113.114779251765,22.7294276777919],[113.119054615375,22.7377689484253],[113.129544142336,22.7377689484253],[113.125268381671,22.7294276777919],[113.156735772287,22.7294276777919],[113.15246084436,22.7210866002495],[113.162949578109,22.7210866002495],[113.158676275235,22.712745716901],[113.169164612826,22.712745716901],[113.164892935004,22.7044050263633],[113.175380877337,22.7044050263633],[113.171110823669,22.6960645297388],[113.202573462198,22.6960645297388],[113.20684470254,22.7044050263633],[113.217332644874,22.7044050263633],[113.238721156293,22.7461104127041],[113.228231233174,22.7461104127041],[113.232514608858,22.7544520703539],[113.222024288684,22.7544520703539],[113.230596321248,22.7711359671537],[113.220105206963,22.7711359671537],[113.228684547321,22.7878206399413],[113.218192638028,22.7878206399413],[113.222484950152,22.7961632677822],[113.191008029309,22.7961632677822],[113.19530117507,22.8045060898307],[113.174315764668,22.8045060898307],[113.18290654597,22.8211923162783],[113.172413043963,22.8211923162783],[113.176711078356,22.829535720955],[113.155723278435,22.829535720955],[113.16002254352,22.8378793203945],[113.097056751545,22.8378793203945],[113.092759878674,22.829535720955],[113.082265978714,22.829535720955],[113.077971531295,22.8211923162783],[113.067478030186,22.8211923162783],[113.06318600732,22.8128491058118],[113.000227388393,22.8128491058118],[113.004517021741,22.8211923162783],[112.994023519734,22.8211923162783],[112.998314779033,22.829535720955],[112.966833079153,22.829535720955],[112.971125167596,22.8378793203945],[112.960630868784,22.8378793203945],[112.964924583179,22.8462231143213],[112.975419280843,22.8462231143213],[112.984013587133,22.8629112861903],[112.973518090867,22.8629112861903],[112.982119706749,22.8796002384952],[112.992616001618,22.8796002384952],[112.988313780178,22.8712556652366],[113.009305571313,22.8712556652366],[113.013608592254,22.8796002384952],[113.024104887122,22.8796002384952],[113.032717816387,22.8962899706841],[113.02222072112,22.8962899706841],[113.026529830841,22.904635129062],[112.995037344889,22.904635129062],[113.003659253714,22.9213260331414],[112.993160958297,22.9213260331414],[112.997474558697,22.9296717782899],[112.986975861733,22.9296717782899],[112.991291092575,22.9380177190272],[112.949294701227,22.9380177190272],[112.953610360566,22.9463638550766],[112.932611362247,22.9463638550766],[112.928296506002,22.9380177190272],[112.917797407492,22.9380177190272],[112.913484982987,22.9296717782899],[112.892487589059,22.9296717782899],[112.896799212267,22.9380177190272],[112.886300114655,22.9380177190272],[112.890613366508,22.9463638550766],[112.880113867349,22.9463638550766],[112.884428748746,22.9547101878157],[112.873928848938,22.9547101878157],[112.878245360778,22.9630567153135],[112.888745662133,22.9630567153135],[112.893064607509,22.9714034397743],[112.914066015109,22.9714034397743],[112.918387797364,22.979750359267],[112.939390008058,22.979750359267],[112.943714628092,22.9880974751684],[112.954216135884,22.9880974751684],[112.958543192149,22.9964447880283],[112.969045102386,22.9964447880283],[112.973374597577,23.0047922967423],[112.983876909361,23.0047922967423],[112.988208843478,23.0131400018599],[112.998711558606,23.0131400018599],[113.007382344765,23.0298360010223],[112.996878823848,23.0298360010223],[113.001216871,23.0381842953385],[112.980209022479,23.0381842953385],[112.98454830212,23.0465327866011],[112.995052629724,23.0465327866011],[113.012431763299,23.0799287213388],[113.033443649747,23.0799287213388],[113.037794345178,23.0882781981202],[113.048300693093,23.0882781981202],[113.057009023441,23.1049777421944],[113.046501866144,23.1049777421944],[113.050858692577,23.1133278105825],[113.040351131038,23.1133278105825],[113.049070109117,23.1300285403195],[113.059578481835,23.1300285403195],[113.068306454745,23.1467300604632],[113.057797270848,23.1467300604632],[113.062163922156,23.1550811172724],[113.051654333119,23.1550811172724],[113.056022626547,23.1634323720848],[113.045512630573,23.1634323720848],[113.054254550726,23.1801354762534],[113.064765358777,23.1801354762534],[113.073516289931,23.1968393732103],[113.105051154805,23.1968393732103],[113.109430917922,23.2051916188011],[113.130454975644,23.2051916188011],[113.126074398653,23.1968393732103],[113.147097642501,23.1968393732103],[113.151479033365,23.2051916188011],[113.161991062226,23.2051916188011],[113.166374912678,23.2135440631947],[113.176887349374,23.2135440631947],[113.185662027492,23.2302495480953],[113.175148776024,23.2302495480953],[113.179538789817,23.2386025888675],[113.19005244912,23.2386025888675],[113.203236050568,23.2636629035842],[113.192721166861,23.2636629035842],[113.197119407426,23.2720167400055],[113.186604114985,23.2720167400055],[113.204216026305,23.3054340781939],[113.214732954577,23.3054340781939],[113.219141491631,23.3137889119372],[113.250693505344,23.3137889119372],[113.255105332927,23.3221439441368],[113.265623080463,23.3221439441368],[113.283292663624,23.3555660741427],[113.293812051484,23.3555660741427],[113.298235019973,23.3639221067752],[113.329794416939,23.3639221067752],[113.334220683143,23.3722783394738],[113.34474089386,23.3722783394738],[113.349169638516,23.3806347719567],[113.370210881009,23.3806347719567],[113.365781313496,23.3722783394738]],[[113.83812793335,22.9714034397743],[113.796125119047,22.9714034397743],[113.783070782474,22.9463638550766],[113.793570281633,22.9463638550766],[113.789222529981,22.9380177190272],[113.820719822818,22.9380177190272],[113.825068778213,22.9463638550766],[113.835568277372,22.9463638550766],[113.844273134833,22.9630567153135],[113.83377283258,22.9630567153135],[113.83812793335,22.9714034397743]],[[113.337133568368,22.8962899706841],[113.305642283464,22.8962899706841],[113.30132440349,22.887945006518],[113.290827707973,22.887945006518],[113.286512263331,22.8796002384952],[113.276015967564,22.8796002384952],[113.267391976445,22.8629112861903],[113.277887472712,22.8629112861903],[113.269270812743,22.8462231143213],[113.279765510408,22.8462231143213],[113.275459828657,22.8378793203945],[113.285954127469,22.8378793203945],[113.281650077957,22.829535720955],[113.302637877878,22.829535720955],[113.306942724195,22.8378793203945],[113.317437023007,22.8378793203945],[113.343311182864,22.887945006518],[113.332814488245,22.887945006518],[113.337133568368,22.8962899706841]],[[113.886847690881,22.5376316835647],[113.876367627671,22.5376316835647],[113.872108457093,22.5292950330619],[113.882588128637,22.5292950330619],[113.886847690881,22.5376316835647]]]}}]}