{"type":"FeatureCollection","name":"guangzhou_facilities","crs":{"type":"name","properties":{"name":"urn:ogc:def:crs:OGC:1.3:CRS84"}},"features":[{"type":"Feature","properties":{"facility_id":"osm_node_3250392862","osm_id":"3250392862","name":"越秀区大塘街政务服务中心","category":"community","category_zh":"社区服务","amenity":"community_centre","railway":null,"source":"OpenStreetMap"},"geometry":{"type":"Point","coordinates":[113.2689228,23.1280958]}},{"type":"Feature","properties":{"facility_id":"osm_node_10859760128","osm_id":"10859760128","name":"中山图书馆少儿部","category":"culture","category_zh":"文化","amenity":"library","railway":null,"source":"OpenStreetMap"},"geometry":{"type":"Point","coordinates":[113.2653808,23.1269393]}},{"type":"Feature","properties":{"facility_id":"osm_node_4962135304","osm_id":"4962135304","name":"越秀区少年儿童图书馆","category":"culture","category_zh":"文化","amenity":"library","railway":null,"source":"OpenStreetMap"},"geometry":{"type":"Point","coordinates":[113.2566829,23.1143516]}},{"type":"Feature","properties":{"facility_id":"osm_node_5810678712","osm_id":"5810678712","name":"越秀区图书馆","category":"culture","category_zh":"文化","amenity":"library","railway":null,"source":"OpenStreetMap"},"geometry":{"type":"Point","coordinates":[113.268665,23.1283068]}},{"type":"Feature","properties":{"facility_id":"osm_node_9124578433","osm_id":"9124578433","name":"越秀区图书馆","category":"culture","category_zh":"文化","amenity":"library","railway":null,"source":"OpenStreetMap"},"geometry":{"type":"Point","coordinates":[113.2900044,23.1255173]}},{"type":"Feature","properties":{"facility_id":"osm_node_10896009419","osm_id":"10896009419","name":"大塘拔萃幼儿园","category":"education","category_zh":"教育","amenity":"kindergarten","railway":null,"source":"OpenStreetMap"},"geometry":{"type":"Point","coordinates":[113.268543,23.1273687]}},{"type":"Feature","properties":{"facility_id":"osm_node_11063332344","osm_id":"11063332344","name":"龙津幼儿园","category":"education","category_zh":"教育","amenity":"kindergarten","railway":null,"source":"OpenStreetMap"},"geometry":{"type":"Point","coordinates":[113.2469427,23.1253468]}},{"type":"Feature","properties":{"facility_id":"osm_node_11097230398","osm_id":"11097230398","name":"淘金幼儿园","category":"education","category_zh":"教育","amenity":"kindergarten","railway":null,"source":"OpenStreetMap"},"geometry":{"type":"Point","coordinates":[113.2824429,23.1185306]}},{"type":"Feature","properties":{"facility_id":"osm_node_11227574879","osm_id":"11227574879","name":"丽水坊幼儿园","category":"education","category_zh":"教育","amenity":"kindergarten","railway":null,"source":"OpenStreetMap"},"geometry":{"type":"Point","coordinates":[113.2707605,23.1240148]}},{"type":"Feature","properties":{"facility_id":"osm_node_11362247387","osm_id":"11362247387","name":"黄金幼儿园","category":"education","category_zh":"教育","amenity":"kindergarten","railway":null,"source":"OpenStreetMap"},"geometry":{"type":"Point","coordinates":[113.2698034,23.1196141]}},{"type":"Feature","properties":{"facility_id":"osm_node_11795667030","osm_id":"11795667030","name":"东风西路小学双井校区","category":"education","category_zh":"教育","amenity":"school","railway":null,"source":"OpenStreetMap"},"geometry":{"type":"Point","coordinates":[113.254814,23.1394566]}},{"type":"Feature","properties":{"facility_id":"osm_node_12142304096","osm_id":"12142304096","name":"沙面实验学校","category":"education","category_zh":"教育","amenity":"school","railway":null,"source":"OpenStreetMap"},"geometry":{"type":"Point","coordinates":[113.2405574,23.1090849]}},{"type":"Feature","properties":{"facility_id":"osm_node_3009756334","osm_id":"3009756334","name":"中山二路小学","category":"education","category_zh":"教育","amenity":"school","railway":null,"source":"OpenStreetMap"},"geometry":{"type":"Point","coordinates":[113.2851043,23.125367]}},{"type":"Feature","properties":{"facility_id":"osm_node_3023762735","osm_id":"3023762735","name":"省体育局幼儿园","category":"education","category_zh":"教育","amenity":"kindergarten","railway":null,"source":"OpenStreetMap"},"geometry":{"type":"Point","coordinates":[113.2792624,23.1259261]}},{"type":"Feature","properties":{"facility_id":"osm_node_3050202464","osm_id":"3050202464","name":"广东社会科学大学","category":"education","category_zh":"教育","amenity":"college","railway":null,"source":"OpenStreetMap"},"geometry":{"type":"Point","coordinates":[113.273614,23.1349717]}},{"type":"Feature","properties":{"facility_id":"osm_node_3055052633","osm_id":"3055052633","name":"广州市广播电视大学","category":"education","category_zh":"教育","amenity":"college","railway":null,"source":"OpenStreetMap"},"geometry":{"type":"Point","coordinates":[113.2679447,23.1294108]}},{"type":"Feature","properties":{"facility_id":"osm_node_3088658265","osm_id":"3088658265","name":"广中路小学","category":"education","category_zh":"教育","amenity":"school","railway":null,"source":"OpenStreetMap"},"geometry":{"type":"Point","coordinates":[113.2640021,23.1325869]}},{"type":"Feature","properties":{"facility_id":"osm_node_3248806961","osm_id":"3248806961","name":"广州工程职业学校","category":"education","category_zh":"教育","amenity":"school","railway":null,"source":"OpenStreetMap"},"geometry":{"type":"Point","coordinates":[113.2814074,23.1263866]}},{"type":"Feature","properties":{"facility_id":"osm_node_3349359510","osm_id":"3349359510","name":"中山大学幼儿园","category":"education","category_zh":"教育","amenity":"kindergarten","railway":null,"source":"OpenStreetMap"},"geometry":{"type":"Point","coordinates":[113.2876654,23.1303958]}},{"type":"Feature","properties":{"facility_id":"osm_node_4863350774","osm_id":"4863350774","name":"东方红幼儿园","category":"education","category_zh":"教育","amenity":"kindergarten","railway":null,"source":"OpenStreetMap"},"geometry":{"type":"Point","coordinates":[113.2933483,23.1251747]}},{"type":"Feature","properties":{"facility_id":"osm_node_5102251414","osm_id":"5102251414","name":"荔湾区宝源小学","category":"education","category_zh":"教育","amenity":"school","railway":null,"source":"OpenStreetMap"},"geometry":{"type":"Point","coordinates":[113.2349296,23.1242037]}},{"type":"Feature","properties":{"facility_id":"osm_node_5395657756","osm_id":"5395657756","name":"龙福幼儿园","category":"education","category_zh":"教育","amenity":"kindergarten","railway":null,"source":"OpenStreetMap"},"geometry":{"type":"Point","coordinates":[113.2538689,23.1058156]}},{"type":"Feature","properties":{"facility_id":"osm_node_5998126361","osm_id":"5998126361","name":"鹤鸣五巷小学","category":"education","category_zh":"教育","amenity":"school","railway":null,"source":"OpenStreetMap"},"geometry":{"type":"Point","coordinates":[113.2525981,23.1063921]}},{"type":"Feature","properties":{"facility_id":"osm_node_6343005694","osm_id":"6343005694","name":"未命名设施","category":"education","category_zh":"教育","amenity":"kindergarten","railway":null,"source":"OpenStreetMap"},"geometry":{"type":"Point","coordinates":[113.2537427,23.1312763]}},{"type":"Feature","properties":{"facility_id":"osm_node_6343064615","osm_id":"6343064615","name":"爱尔堡幼儿园","category":"education","category_zh":"教育","amenity":"kindergarten","railway":null,"source":"OpenStreetMap"},"geometry":{"type":"Point","coordinates":[113.28288,23.1519177]}},{"type":"Feature","properties":{"facility_id":"osm_node_6574225849","osm_id":"6574225849","name":"广州市珠江实业幼儿园","category":"education","category_zh":"教育","amenity":"kindergarten","railway":null,"source":"OpenStreetMap"},"geometry":{"type":"Point","coordinates":[113.2826172,23.1371647]}},{"type":"Feature","properties":{"facility_id":"osm_node_7041645980","osm_id":"7041645980","name":"康体幼儿园","category":"education","category_zh":"教育","amenity":"kindergarten","railway":null,"source":"OpenStreetMap"},"geometry":{"type":"Point","coordinates":[113.2597206,23.1041899]}},{"type":"Feature","properties":{"facility_id":"osm_node_7250183428","osm_id":"7250183428","name":"中铁隧道集团有限公司业余学校","category":"education","category_zh":"教育","amenity":"college","railway":null,"source":"OpenStreetMap"},"geometry":{"type":"Point","coordinates":[113.2464924,23.10428]}},{"type":"Feature","properties":{"facility_id":"osm_node_8511260164","osm_id":"8511260164","name":"雅荷塘小学","category":"education","category_zh":"教育","amenity":"school","railway":null,"source":"OpenStreetMap"},"geometry":{"type":"Point","coordinates":[113.2687714,23.1314575]}},{"type":"Feature","properties":{"facility_id":"osm_node_9273794699","osm_id":"9273794699","name":"广州市公用事业技师学院","category":"education","category_zh":"教育","amenity":"college","railway":null,"source":"OpenStreetMap"},"geometry":{"type":"Point","coordinates":[113.2818602,23.1222164]}},{"type":"Feature","properties":{"facility_id":"osm_node_9779212730","osm_id":"9779212730","name":"广州市儿童福利会幼儿园","category":"education","category_zh":"教育","amenity":"kindergarten","railway":null,"source":"OpenStreetMap"},"geometry":{"type":"Point","coordinates":[113.2936953,23.1242618]}},{"type":"Feature","properties":{"facility_id":"osm_node_9917053775","osm_id":"9917053775","name":"小北路小学","category":"education","category_zh":"教育","amenity":"school","railway":null,"source":"OpenStreetMap"},"geometry":{"type":"Point","coordinates":[113.2655178,23.1361101]}},{"type":"Feature","properties":{"facility_id":"osm_node_12001959227","osm_id":"12001959227","name":"发热门诊","category":"healthcare","category_zh":"医疗","amenity":"clinic","railway":null,"source":"OpenStreetMap"},"geometry":{"type":"Point","coordinates":[113.2795121,23.1462724]}},{"type":"Feature","properties":{"facility_id":"osm_node_12104641531","osm_id":"12104641531","name":"金花街社区卫生服务中心","category":"healthcare","category_zh":"医疗","amenity":"hospital","railway":null,"source":"OpenStreetMap"},"geometry":{"type":"Point","coordinates":[113.243838,23.1336176]}},{"type":"Feature","properties":{"facility_id":"osm_node_12159085936","osm_id":"12159085936","name":"校医院","category":"healthcare","category_zh":"医疗","amenity":"clinic","railway":null,"source":"OpenStreetMap"},"geometry":{"type":"Point","coordinates":[113.292656,23.1392333]}},{"type":"Feature","properties":{"facility_id":"osm_node_12237099501","osm_id":"12237099501","name":"西关国医馆","category":"healthcare","category_zh":"医疗","amenity":"clinic","railway":null,"source":"OpenStreetMap"},"geometry":{"type":"Point","coordinates":[113.2396413,23.1205556]}},{"type":"Feature","properties":{"facility_id":"osm_node_12994982984","osm_id":"12994982984","name":"南方医科大学口腔医院(盘福院区)","category":"healthcare","category_zh":"医疗","amenity":"hospital","railway":null,"source":"OpenStreetMap"},"geometry":{"type":"Point","coordinates":[113.2542708,23.1376039]}},{"type":"Feature","properties":{"facility_id":"osm_node_13521996311","osm_id":"13521996311","name":"广东药科大学附属第一医院门诊部(健康管理中心)","category":"healthcare","category_zh":"医疗","amenity":"hospital","railway":null,"source":"OpenStreetMap"},"geometry":{"type":"Point","coordinates":[113.2926728,23.1321902]}},{"type":"Feature","properties":{"facility_id":"osm_node_2470238664","osm_id":"2470238664","name":"广东省妇幼保健院","category":"healthcare","category_zh":"医疗","amenity":"hospital","railway":null,"source":"OpenStreetMap"},"geometry":{"type":"Point","coordinates":[113.24331,23.1507468]}},{"type":"Feature","properties":{"facility_id":"osm_node_3008322734","osm_id":"3008322734","name":"越秀区妇幼保健院","category":"healthcare","category_zh":"医疗","amenity":"hospital","railway":null,"source":"OpenStreetMap"},"geometry":{"type":"Point","coordinates":[113.2758279,23.1303377]}},{"type":"Feature","properties":{"facility_id":"osm_node_3023868733","osm_id":"3023868733","name":"广东省心血管病医院","category":"healthcare","category_zh":"医疗","amenity":"hospital","railway":null,"source":"OpenStreetMap"},"geometry":{"type":"Point","coordinates":[113.2814934,23.1271804]}},{"type":"Feature","properties":{"facility_id":"osm_node_3037143237","osm_id":"3037143237","name":"广州临床重症救治中心","category":"healthcare","category_zh":"医疗","amenity":"hospital","railway":null,"source":"OpenStreetMap"},"geometry":{"type":"Point","coordinates":[113.2527731,23.1344902]}},{"type":"Feature","properties":{"facility_id":"osm_node_3040301764","osm_id":"3040301764","name":"爱尔眼科","category":"healthcare","category_zh":"医疗","amenity":"clinic","railway":null,"source":"OpenStreetMap"},"geometry":{"type":"Point","coordinates":[113.2852164,23.1280951]}},{"type":"Feature","properties":{"facility_id":"osm_node_3053338342","osm_id":"3053338342","name":"中山大学附属第一医院生殖医学中心","category":"healthcare","category_zh":"医疗","amenity":"hospital","railway":null,"source":"OpenStreetMap"},"geometry":{"type":"Point","coordinates":[113.2881558,23.1266518]}},{"type":"Feature","properties":{"facility_id":"osm_node_3053344435","osm_id":"3053344435","name":"家庭医生整形美容医院","category":"healthcare","category_zh":"医疗","amenity":"hospital","railway":null,"source":"OpenStreetMap"},"geometry":{"type":"Point","coordinates":[113.2876343,23.1332838]}},{"type":"Feature","properties":{"facility_id":"osm_node_3053344436","osm_id":"3053344436","name":"家庭医生口腔专科","category":"healthcare","category_zh":"医疗","amenity":"hospital","railway":null,"source":"OpenStreetMap"},"geometry":{"type":"Point","coordinates":[113.2870806,23.1332693]}},{"type":"Feature","properties":{"facility_id":"osm_node_3353423606","osm_id":"3353423606","name":"广州东大肛肠医院","category":"healthcare","category_zh":"医疗","amenity":"hospital","railway":null,"source":"OpenStreetMap"},"geometry":{"type":"Point","coordinates":[113.2702116,23.1281462]}},{"type":"Feature","properties":{"facility_id":"osm_node_4275251390","osm_id":"4275251390","name":"广东省中医院下塘门诊部","category":"healthcare","category_zh":"医疗","amenity":"clinic","railway":null,"source":"OpenStreetMap"},"geometry":{"type":"Point","coordinates":[113.2717216,23.147744]}},{"type":"Feature","properties":{"facility_id":"osm_node_4568300723","osm_id":"4568300723","name":"大塘街社区卫生服务中心","category":"healthcare","category_zh":"医疗","amenity":"hospital","railway":null,"source":"OpenStreetMap"},"geometry":{"type":"Point","coordinates":[113.2707011,23.1279972]}},{"type":"Feature","properties":{"facility_id":"osm_node_4853163771","osm_id":"4853163771","name":"越秀区第二中医医院","category":"healthcare","category_zh":"医疗","amenity":"hospital","railway":null,"source":"OpenStreetMap"},"geometry":{"type":"Point","coordinates":[113.2728152,23.122699]}},{"type":"Feature","properties":{"facility_id":"osm_node_5820197769","osm_id":"5820197769","name":"英东门诊医疗中心","category":"healthcare","category_zh":"医疗","amenity":"hospital","railway":null,"source":"OpenStreetMap"},"geometry":{"type":"Point","coordinates":[113.2525257,23.1338983]}},{"type":"Feature","properties":{"facility_id":"osm_node_5820197808","osm_id":"5820197808","name":"广州消化疾病中心","category":"healthcare","category_zh":"医疗","amenity":"hospital","railway":null,"source":"OpenStreetMap"},"geometry":{"type":"Point","coordinates":[113.2517787,23.1338381]}},{"type":"Feature","properties":{"facility_id":"osm_node_5966892239","osm_id":"5966892239","name":"海珠区妇幼保健院儿童保健中心","category":"healthcare","category_zh":"医疗","amenity":"hospital","railway":null,"source":"OpenStreetMap"},"geometry":{"type":"Point","coordinates":[113.2552602,23.1055255]}},{"type":"Feature","properties":{"facility_id":"osm_node_6342990596","osm_id":"6342990596","name":"未命名设施","category":"healthcare","category_zh":"医疗","amenity":"hospital","railway":null,"source":"OpenStreetMap"},"geometry":{"type":"Point","coordinates":[113.247384,23.1218386]}},{"type":"Feature","properties":{"facility_id":"osm_node_6342991334","osm_id":"6342991334","name":"未命名设施","category":"healthcare","category_zh":"医疗","amenity":"clinic","railway":null,"source":"OpenStreetMap"},"geometry":{"type":"Point","coordinates":[113.2503967,23.1378275]}},{"type":"Feature","properties":{"facility_id":"osm_node_6342991335","osm_id":"6342991335","name":"未命名设施","category":"healthcare","category_zh":"医疗","amenity":"clinic","railway":null,"source":"OpenStreetMap"},"geometry":{"type":"Point","coordinates":[113.2512078,23.1386464]}},{"type":"Feature","properties":{"facility_id":"osm_node_6351673914","osm_id":"6351673914","name":"越秀区光塔街社区卫生服务中心","category":"healthcare","category_zh":"医疗","amenity":"clinic","railway":null,"source":"OpenStreetMap"},"geometry":{"type":"Point","coordinates":[113.2506427,23.1222235]}},{"type":"Feature","properties":{"facility_id":"osm_node_6351696301","osm_id":"6351696301","name":"未命名设施","category":"healthcare","category_zh":"医疗","amenity":"clinic","railway":null,"source":"OpenStreetMap"},"geometry":{"type":"Point","coordinates":[113.2431325,23.1116304]}},{"type":"Feature","properties":{"facility_id":"osm_node_6574303051","osm_id":"6574303051","name":"南方医科大学第三附属医院第二门诊部","category":"healthcare","category_zh":"医疗","amenity":"clinic","railway":null,"source":"OpenStreetMap"},"geometry":{"type":"Point","coordinates":[113.2833211,23.1374357]}},{"type":"Feature","properties":{"facility_id":"osm_node_6574303266","osm_id":"6574303266","name":"广州市越秀区黄花岗街道社区卫生服务中心","category":"healthcare","category_zh":"医疗","amenity":"hospital","railway":null,"source":"OpenStreetMap"},"geometry":{"type":"Point","coordinates":[113.2883685,23.1392055]}},{"type":"Feature","properties":{"facility_id":"osm_node_6585597007","osm_id":"6585597007","name":"广州钜贤口腔","category":"healthcare","category_zh":"医疗","amenity":"clinic","railway":null,"source":"OpenStreetMap"},"geometry":{"type":"Point","coordinates":[113.2819672,23.1365774]}},{"type":"Feature","properties":{"facility_id":"osm_node_6592691850","osm_id":"6592691850","name":"中山大学肿瘤医院预防医学部","category":"healthcare","category_zh":"医疗","amenity":"hospital","railway":null,"source":"OpenStreetMap"},"geometry":{"type":"Point","coordinates":[113.2808229,23.1355106]}},{"type":"Feature","properties":{"facility_id":"osm_node_6661695274","osm_id":"6661695274","name":"广州医科大学附属脑科医院（荔湾院区）","category":"healthcare","category_zh":"医疗","amenity":"hospital","railway":null,"source":"OpenStreetMap"},"geometry":{"type":"Point","coordinates":[113.2369302,23.1295264]}},{"type":"Feature","properties":{"facility_id":"osm_node_8930037536","osm_id":"8930037536","name":"广州市荔湾区口腔医院","category":"healthcare","category_zh":"医疗","amenity":"clinic","railway":null,"source":"OpenStreetMap"},"geometry":{"type":"Point","coordinates":[113.2386778,23.1279603]}},{"type":"Feature","properties":{"facility_id":"osm_node_9570530262","osm_id":"9570530262","name":"越秀区儿童医院","category":"healthcare","category_zh":"医疗","amenity":"hospital","railway":null,"source":"OpenStreetMap"},"geometry":{"type":"Point","coordinates":[113.2629121,23.1228071]}},{"type":"Feature","properties":{"facility_id":"osm_node_9890091750","osm_id":"9890091750","name":"广州医科大学附属第一医院","category":"healthcare","category_zh":"医疗","amenity":"hospital","railway":null,"source":"OpenStreetMap"},"geometry":{"type":"Point","coordinates":[113.2561057,23.1141761]}},{"type":"Feature","properties":{"facility_id":"osm_node_10055056912","osm_id":"10055056912","name":"彩虹桥站 D出入口","category":"transit","category_zh":"公共交通","amenity":null,"railway":"subway_entrance","source":"OpenStreetMap"},"geometry":{"type":"Point","coordinates":[113.2391189,23.1355588]}},{"type":"Feature","properties":{"facility_id":"osm_node_10055056913","osm_id":"10055056913","name":"彩虹桥站 A出入口","category":"transit","category_zh":"公共交通","amenity":null,"railway":"subway_entrance","source":"OpenStreetMap"},"geometry":{"type":"Point","coordinates":[113.2401696,23.1360269]}},{"type":"Feature","properties":{"facility_id":"osm_node_10055056916","osm_id":"10055056916","name":"彩虹桥站 C出入口","category":"transit","category_zh":"公共交通","amenity":null,"railway":"subway_entrance","source":"OpenStreetMap"},"geometry":{"type":"Point","coordinates":[113.2394055,23.1374615]}},{"type":"Feature","properties":{"facility_id":"osm_node_10758253464","osm_id":"10758253464","name":"彩虹桥","category":"transit","category_zh":"公共交通","amenity":null,"railway":"station","source":"OpenStreetMap"},"geometry":{"type":"Point","coordinates":[113.2403916,23.1375286]}},{"type":"Feature","properties":{"facility_id":"osm_node_12137904751","osm_id":"12137904751","name":"C2","category":"transit","category_zh":"公共交通","amenity":null,"railway":"subway_entrance","source":"OpenStreetMap"},"geometry":{"type":"Point","coordinates":[113.2409535,23.1212537]}},{"type":"Feature","properties":{"facility_id":"osm_node_12432890167","osm_id":"12432890167","name":"彩虹桥站G出入口","category":"transit","category_zh":"公共交通","amenity":null,"railway":"subway_entrance","source":"OpenStreetMap"},"geometry":{"type":"Point","coordinates":[113.2406417,23.1374823]}},{"type":"Feature","properties":{"facility_id":"osm_node_12432890168","osm_id":"12432890168","name":"彩虹桥站H出入口","category":"transit","category_zh":"公共交通","amenity":null,"railway":"subway_entrance","source":"OpenStreetMap"},"geometry":{"type":"Point","coordinates":[113.2396167,23.1379653]}},{"type":"Feature","properties":{"facility_id":"osm_node_12432890169","osm_id":"12432890169","name":"流花站D出口","category":"transit","category_zh":"公共交通","amenity":null,"railway":"subway_entrance","source":"OpenStreetMap"},"geometry":{"type":"Point","coordinates":[113.2523661,23.1431522]}},{"type":"Feature","properties":{"facility_id":"osm_node_12432890173","osm_id":"12432890173","name":"彩虹桥站F出入口","category":"transit","category_zh":"公共交通","amenity":null,"railway":"subway_entrance","source":"OpenStreetMap"},"geometry":{"type":"Point","coordinates":[113.2413498,23.1372173]}},{"type":"Feature","properties":{"facility_id":"osm_node_12432890175","osm_id":"12432890175","name":"流花站B出口","category":"transit","category_zh":"公共交通","amenity":null,"railway":"subway_entrance","source":"OpenStreetMap"},"geometry":{"type":"Point","coordinates":[113.2512199,23.1425949]}},{"type":"Feature","properties":{"facility_id":"osm_node_12451641906","osm_id":"12451641906","name":"流花","category":"transit","category_zh":"公共交通","amenity":null,"railway":"station","source":"OpenStreetMap"},"geometry":{"type":"Point","coordinates":[113.2518513,23.1423894]}},{"type":"Feature","properties":{"facility_id":"osm_node_12503353900","osm_id":"12503353900","name":"未命名设施","category":"transit","category_zh":"公共交通","amenity":null,"railway":"subway_entrance","source":"OpenStreetMap"},"geometry":{"type":"Point","coordinates":[113.2642145,23.1208963]}},{"type":"Feature","properties":{"facility_id":"osm_node_12716620075","osm_id":"12716620075","name":"未命名设施","category":"transit","category_zh":"公共交通","amenity":null,"railway":"subway_entrance","source":"OpenStreetMap"},"geometry":{"type":"Point","coordinates":[113.2912284,23.136845]}},{"type":"Feature","properties":{"facility_id":"osm_node_12924972740","osm_id":"12924972740","name":"滨江东路站 A出入口","category":"transit","category_zh":"公共交通","amenity":null,"railway":"subway_entrance","source":"OpenStreetMap"},"geometry":{"type":"Point","coordinates":[113.2860915,23.1060509]}},{"type":"Feature","properties":{"facility_id":"osm_node_12924972743","osm_id":"12924972743","name":"滨江东路站 B出入口","category":"transit","category_zh":"公共交通","amenity":null,"railway":"subway_entrance","source":"OpenStreetMap"},"geometry":{"type":"Point","coordinates":[113.2866017,23.1061509]}},{"type":"Feature","properties":{"facility_id":"osm_node_12936176803","osm_id":"12936176803","name":"未命名设施","category":"transit","category_zh":"公共交通","amenity":null,"railway":"subway_entrance","source":"OpenStreetMap"},"geometry":{"type":"Point","coordinates":[113.2836239,23.1179905]}},{"type":"Feature","properties":{"facility_id":"osm_node_12936176804","osm_id":"12936176804","name":"未命名设施","category":"transit","category_zh":"公共交通","amenity":null,"railway":"subway_entrance","source":"OpenStreetMap"},"geometry":{"type":"Point","coordinates":[113.2838611,23.1194189]}},{"type":"Feature","properties":{"facility_id":"osm_node_12961546566","osm_id":"12961546566","name":"滨江东路","category":"transit","category_zh":"公共交通","amenity":null,"railway":"station","source":"OpenStreetMap"},"geometry":{"type":"Point","coordinates":[113.2867121,23.1063938]}},{"type":"Feature","properties":{"facility_id":"osm_node_12975161443","osm_id":"12975161443","name":"未命名设施","category":"transit","category_zh":"公共交通","amenity":null,"railway":"subway_entrance","source":"OpenStreetMap"},"geometry":{"type":"Point","coordinates":[113.251947,23.1151339]}},{"type":"Feature","properties":{"facility_id":"osm_node_1302112948","osm_id":"1302112948","name":"越秀公园D1","category":"transit","category_zh":"公共交通","amenity":null,"railway":"subway_entrance","source":"OpenStreetMap"},"geometry":{"type":"Point","coordinates":[113.2549992,23.1428091]}},{"type":"Feature","properties":{"facility_id":"osm_node_13946035415","osm_id":"13946035415","name":"未命名设施","category":"transit","category_zh":"公共交通","amenity":null,"railway":"subway_entrance","source":"OpenStreetMap"},"geometry":{"type":"Point","coordinates":[113.2369549,23.1430402]}},{"type":"Feature","properties":{"facility_id":"osm_node_13946035416","osm_id":"13946035416","name":"未命名设施","category":"transit","category_zh":"公共交通","amenity":null,"railway":"subway_entrance","source":"OpenStreetMap"},"geometry":{"type":"Point","coordinates":[113.2362373,23.143457]}},{"type":"Feature","properties":{"facility_id":"osm_node_2391625066","osm_id":"2391625066","name":"越秀公园站 A出入口","category":"transit","category_zh":"公共交通","amenity":null,"railway":"subway_entrance","source":"OpenStreetMap"},"geometry":{"type":"Point","coordinates":[113.2568112,23.1413675]}},{"type":"Feature","properties":{"facility_id":"osm_node_2391625067","osm_id":"2391625067","name":"越秀公园站 B2出入口","category":"transit","category_zh":"公共交通","amenity":null,"railway":"subway_entrance","source":"OpenStreetMap"},"geometry":{"type":"Point","coordinates":[113.2557323,23.1437819]}},{"type":"Feature","properties":{"facility_id":"osm_node_2391625068","osm_id":"2391625068","name":"越秀公园站 C出入口","category":"transit","category_zh":"公共交通","amenity":null,"railway":"subway_entrance","source":"OpenStreetMap"},"geometry":{"type":"Point","coordinates":[113.2550366,23.1433087]}},{"type":"Feature","properties":{"facility_id":"osm_node_2391625069","osm_id":"2391625069","name":"越秀公园站 D2出入口","category":"transit","category_zh":"公共交通","amenity":null,"railway":"subway_entrance","source":"OpenStreetMap"},"geometry":{"type":"Point","coordinates":[113.2554521,23.1427631]}},{"type":"Feature","properties":{"facility_id":"osm_node_2391625070","osm_id":"2391625070","name":"E","category":"transit","category_zh":"公共交通","amenity":null,"railway":"subway_entrance","source":"OpenStreetMap"},"geometry":{"type":"Point","coordinates":[113.2560409,23.1416078]}},{"type":"Feature","properties":{"facility_id":"osm_node_2718580150","osm_id":"2718580150","name":"未命名设施","category":"transit","category_zh":"公共交通","amenity":null,"railway":"subway_entrance","source":"OpenStreetMap"},"geometry":{"type":"Point","coordinates":[113.2918822,23.1374919]}},{"type":"Feature","properties":{"facility_id":"osm_node_2718645605","osm_id":"2718645605","name":"未命名设施","category":"transit","category_zh":"公共交通","amenity":null,"railway":"subway_entrance","source":"OpenStreetMap"},"geometry":{"type":"Point","coordinates":[113.2924827,23.136957]}},{"type":"Feature","properties":{"facility_id":"osm_node_2916118447","osm_id":"2916118447","name":"小北站 A出入口","category":"transit","category_zh":"公共交通","amenity":null,"railway":"subway_entrance","source":"OpenStreetMap"},"geometry":{"type":"Point","coordinates":[113.2703431,23.141977]}},{"type":"Feature","properties":{"facility_id":"osm_node_3022101455","osm_id":"3022101455","name":"小北站 B出入口","category":"transit","category_zh":"公共交通","amenity":null,"railway":"subway_entrance","source":"OpenStreetMap"},"geometry":{"type":"Point","coordinates":[113.272111,23.1417983]}},{"type":"Feature","properties":{"facility_id":"osm_node_3022101456","osm_id":"3022101456","name":"小北站 C出入口","category":"transit","category_zh":"公共交通","amenity":null,"railway":"subway_entrance","source":"OpenStreetMap"},"geometry":{"type":"Point","coordinates":[113.2724519,23.1423829]}},{"type":"Feature","properties":{"facility_id":"osm_node_3022101457","osm_id":"3022101457","name":"小北站 D出入口","category":"transit","category_zh":"公共交通","amenity":null,"railway":"subway_entrance","source":"OpenStreetMap"},"geometry":{"type":"Point","coordinates":[113.270812,23.1424251]}},{"type":"Feature","properties":{"facility_id":"osm_node_3022185263","osm_id":"3022185263","name":"烈士陵园站 A出入口","category":"transit","category_zh":"公共交通","amenity":null,"railway":"subway_entrance","source":"OpenStreetMap"},"geometry":{"type":"Point","coordinates":[113.2793731,23.1289533]}},{"type":"Feature","properties":{"facility_id":"osm_node_3022185266","osm_id":"3022185266","name":"烈士陵园站 B3出入口(停用)","category":"transit","category_zh":"公共交通","amenity":null,"railway":"subway_entrance","source":"OpenStreetMap"},"geometry":{"type":"Point","coordinates":[113.2816405,23.1286906]}},{"type":"Feature","properties":{"facility_id":"osm_node_3022185268","osm_id":"3022185268","name":"烈士陵园站 D出入口","category":"transit","category_zh":"公共交通","amenity":null,"railway":"subway_entrance","source":"OpenStreetMap"},"geometry":{"type":"Point","coordinates":[113.27949,23.1297592]}},{"type":"Feature","properties":{"facility_id":"osm_node_3022635724","osm_id":"3022635724","name":"东山口C","category":"transit","category_zh":"公共交通","amenity":null,"railway":"subway_entrance","source":"OpenStreetMap"},"geometry":{"type":"Point","coordinates":[113.2902148,23.1275502]}},{"type":"Feature","properties":{"facility_id":"osm_node_3022635725","osm_id":"3022635725","name":"东山口D","category":"transit","category_zh":"公共交通","amenity":null,"railway":"subway_entrance","source":"OpenStreetMap"},"geometry":{"type":"Point","coordinates":[113.2915734,23.1275522]}},{"type":"Feature","properties":{"facility_id":"osm_node_3022635726","osm_id":"3022635726","name":"东山口E","category":"transit","category_zh":"公共交通","amenity":null,"railway":"subway_entrance","source":"OpenStreetMap"},"geometry":{"type":"Point","coordinates":[113.2903362,23.1261119]}},{"type":"Feature","properties":{"facility_id":"osm_node_3022635727","osm_id":"3022635727","name":"东山口F","category":"transit","category_zh":"公共交通","amenity":null,"railway":"subway_entrance","source":"OpenStreetMap"},"geometry":{"type":"Point","coordinates":[113.2897747,23.1262419]}},{"type":"Feature","properties":{"facility_id":"osm_node_3027804012","osm_id":"3027804012","name":"农讲所站 A出入口","category":"transit","category_zh":"公共交通","amenity":null,"railway":"subway_entrance","source":"OpenStreetMap"},"geometry":{"type":"Point","coordinates":[113.2698899,23.1288171]}},{"type":"Feature","properties":{"facility_id":"osm_node_3027804014","osm_id":"3027804014","name":"农讲所站 C出入口","category":"transit","category_zh":"公共交通","amenity":null,"railway":"subway_entrance","source":"OpenStreetMap"},"geometry":{"type":"Point","coordinates":[113.2703073,23.1295007]}},{"type":"Feature","properties":{"facility_id":"osm_node_3027804015","osm_id":"3027804015","name":"农讲所站 D出入口","category":"transit","category_zh":"公共交通","amenity":null,"railway":"subway_entrance","source":"OpenStreetMap"},"geometry":{"type":"Point","coordinates":[113.2695239,23.1294258]}},{"type":"Feature","properties":{"facility_id":"osm_node_3036992197","osm_id":"3036992197","name":"纪念堂站 D2出入口","category":"transit","category_zh":"公共交通","amenity":null,"railway":"subway_entrance","source":"OpenStreetMap"},"geometry":{"type":"Point","coordinates":[113.2575773,23.1345169]}},{"type":"Feature","properties":{"facility_id":"osm_node_3037003774","osm_id":"3037003774","name":"纪念堂站 C出入口","category":"transit","category_zh":"公共交通","amenity":null,"railway":"subway_entrance","source":"OpenStreetMap"},"geometry":{"type":"Point","coordinates":[113.2580097,23.1360633]}},{"type":"Feature","properties":{"facility_id":"osm_node_3037003775","osm_id":"3037003775","name":"纪念堂站 D1出入口","category":"transit","category_zh":"公共交通","amenity":null,"railway":"subway_entrance","source":"OpenStreetMap"},"geometry":{"type":"Point","coordinates":[113.2578617,23.133689]}},{"type":"Feature","properties":{"facility_id":"osm_node_3040302061","osm_id":"3040302061","name":"未命名设施","category":"transit","category_zh":"公共交通","amenity":null,"railway":"subway_entrance","source":"OpenStreetMap"},"geometry":{"type":"Point","coordinates":[113.288736,23.1266546]}},{"type":"Feature","properties":{"facility_id":"osm_node_3215790919","osm_id":"3215790919","name":"公园前站 F出入口","category":"transit","category_zh":"公共交通","amenity":null,"railway":"subway_entrance","source":"OpenStreetMap"},"geometry":{"type":"Point","coordinates":[113.259512,23.1285002]}},{"type":"Feature","properties":{"facility_id":"osm_node_3215790920","osm_id":"3215790920","name":"公园前站 I1出入口","category":"transit","category_zh":"公共交通","amenity":null,"railway":"subway_entrance","source":"OpenStreetMap"},"geometry":{"type":"Point","coordinates":[113.258386,23.1284885]}},{"type":"Feature","properties":{"facility_id":"osm_node_3493239151","osm_id":"3493239151","name":"未命名设施","category":"transit","category_zh":"公共交通","amenity":null,"railway":"subway_entrance","source":"OpenStreetMap"},"geometry":{"type":"Point","coordinates":[113.2922285,23.1353438]}},{"type":"Feature","properties":{"facility_id":"osm_node_3493239152","osm_id":"3493239152","name":"未命名设施","category":"transit","category_zh":"公共交通","amenity":null,"railway":"subway_entrance","source":"OpenStreetMap"},"geometry":{"type":"Point","coordinates":[113.2922375,23.1351676]}},{"type":"Feature","properties":{"facility_id":"osm_node_3493239155","osm_id":"3493239155","name":"未命名设施","category":"transit","category_zh":"公共交通","amenity":null,"railway":"subway_entrance","source":"OpenStreetMap"},"geometry":{"type":"Point","coordinates":[113.2909818,23.1374097]}},{"type":"Feature","properties":{"facility_id":"osm_node_3610461887","osm_id":"3610461887","name":"未命名设施","category":"transit","category_zh":"公共交通","amenity":null,"railway":"subway_entrance","source":"OpenStreetMap"},"geometry":{"type":"Point","coordinates":[113.2429855,23.1114637]}},{"type":"Feature","properties":{"facility_id":"osm_node_3662515326","osm_id":"3662515326","name":"西门口站 A出入口","category":"transit","category_zh":"公共交通","amenity":null,"railway":"subway_entrance","source":"OpenStreetMap"},"geometry":{"type":"Point","coordinates":[113.2500593,23.1276398]}},{"type":"Feature","properties":{"facility_id":"osm_node_3662515425","osm_id":"3662515425","name":"西门口站 C出入口","category":"transit","category_zh":"公共交通","amenity":null,"railway":"subway_entrance","source":"OpenStreetMap"},"geometry":{"type":"Point","coordinates":[113.2507906,23.1283744]}},{"type":"Feature","properties":{"facility_id":"osm_node_3662515426","osm_id":"3662515426","name":"西门口站 D出入口","category":"transit","category_zh":"公共交通","amenity":null,"railway":"subway_entrance","source":"OpenStreetMap"},"geometry":{"type":"Point","coordinates":[113.2501159,23.1281086]}},{"type":"Feature","properties":{"facility_id":"osm_node_3665457896","osm_id":"3665457896","name":"西村站 D出入口","category":"transit","category_zh":"公共交通","amenity":null,"railway":"subway_entrance","source":"OpenStreetMap"},"geometry":{"type":"Point","coordinates":[113.2365027,23.1453273]}},{"type":"Feature","properties":{"facility_id":"osm_node_3665457897","osm_id":"3665457897","name":"西村站 B出入口","category":"transit","category_zh":"公共交通","amenity":null,"railway":"subway_entrance","source":"OpenStreetMap"},"geometry":{"type":"Point","coordinates":[113.2365867,23.144493]}},{"type":"Feature","properties":{"facility_id":"osm_node_3665458772","osm_id":"3665458772","name":"广州火车站 A出入口","category":"transit","category_zh":"公共交通","amenity":null,"railway":"subway_entrance","source":"OpenStreetMap"},"geometry":{"type":"Point","coordinates":[113.2523068,23.1503945]}},{"type":"Feature","properties":{"facility_id":"osm_node_3677484477","osm_id":"3677484477","name":"公园前站 A出入口","category":"transit","category_zh":"公共交通","amenity":null,"railway":"subway_entrance","source":"OpenStreetMap"},"geometry":{"type":"Point","coordinates":[113.2580514,23.1278904]}},{"type":"Feature","properties":{"facility_id":"osm_node_3677484478","osm_id":"3677484478","name":"公园前J","category":"transit","category_zh":"公共交通","amenity":null,"railway":"subway_entrance","source":"OpenStreetMap"},"geometry":{"type":"Point","coordinates":[113.2590832,23.1272181]}},{"type":"Feature","properties":{"facility_id":"osm_node_3930584819","osm_id":"3930584819","name":"未命名设施","category":"transit","category_zh":"公共交通","amenity":null,"railway":"subway_entrance","source":"OpenStreetMap"},"geometry":{"type":"Point","coordinates":[113.2608967,23.1163313]}},{"type":"Feature","properties":{"facility_id":"osm_node_3930584820","osm_id":"3930584820","name":"未命名设施","category":"transit","category_zh":"公共交通","amenity":null,"railway":"subway_entrance","source":"OpenStreetMap"},"geometry":{"type":"Point","coordinates":[113.2597842,23.1175846]}},{"type":"Feature","properties":{"facility_id":"osm_node_3930584821","osm_id":"3930584821","name":"未命名设施","category":"transit","category_zh":"公共交通","amenity":null,"railway":"subway_entrance","source":"OpenStreetMap"},"geometry":{"type":"Point","coordinates":[113.2596237,23.1179465]}},{"type":"Feature","properties":{"facility_id":"osm_node_3930584822","osm_id":"3930584822","name":"未命名设施","category":"transit","category_zh":"公共交通","amenity":null,"railway":"subway_entrance","source":"OpenStreetMap"},"geometry":{"type":"Point","coordinates":[113.2597391,23.1185002]}},{"type":"Feature","properties":{"facility_id":"osm_node_3930584823","osm_id":"3930584823","name":"未命名设施","category":"transit","category_zh":"公共交通","amenity":null,"railway":"subway_entrance","source":"OpenStreetMap"},"geometry":{"type":"Point","coordinates":[113.2597007,23.1164773]}},{"type":"Feature","properties":{"facility_id":"osm_node_3930584825","osm_id":"3930584825","name":"未命名设施","category":"transit","category_zh":"公共交通","amenity":null,"railway":"subway_entrance","source":"OpenStreetMap"},"geometry":{"type":"Point","coordinates":[113.2609967,23.1175462]}},{"type":"Feature","properties":{"facility_id":"osm_node_4002519206","osm_id":"4002519206","name":"未命名设施","category":"transit","category_zh":"公共交通","amenity":null,"railway":"subway_entrance","source":"OpenStreetMap"},"geometry":{"type":"Point","coordinates":[113.2648481,23.121753]}},{"type":"Feature","properties":{"facility_id":"osm_node_4002519207","osm_id":"4002519207","name":"未命名设施","category":"transit","category_zh":"公共交通","amenity":null,"railway":"subway_entrance","source":"OpenStreetMap"},"geometry":{"type":"Point","coordinates":[113.2648101,23.1209747]}},{"type":"Feature","properties":{"facility_id":"osm_node_4283676590","osm_id":"4283676590","name":"烈士陵园站 C出入口","category":"transit","category_zh":"公共交通","amenity":null,"railway":"subway_entrance","source":"OpenStreetMap"},"geometry":{"type":"Point","coordinates":[113.2811971,23.1293088]}},{"type":"Feature","properties":{"facility_id":"osm_node_4466399305","osm_id":"4466399305","name":"未命名设施","category":"transit","category_zh":"公共交通","amenity":null,"railway":"subway_entrance","source":"OpenStreetMap"},"geometry":{"type":"Point","coordinates":[113.2439226,23.1121714]}},{"type":"Feature","properties":{"facility_id":"osm_node_4466399306","osm_id":"4466399306","name":"未命名设施","category":"transit","category_zh":"公共交通","amenity":null,"railway":"subway_entrance","source":"OpenStreetMap"},"geometry":{"type":"Point","coordinates":[113.2444977,23.1113364]}},{"type":"Feature","properties":{"facility_id":"osm_node_4809874708","osm_id":"4809874708","name":"淘金站 B出入口","category":"transit","category_zh":"公共交通","amenity":null,"railway":"subway_entrance","source":"OpenStreetMap"},"geometry":{"type":"Point","coordinates":[113.2809593,23.13941]}},{"type":"Feature","properties":{"facility_id":"osm_node_4809874709","osm_id":"4809874709","name":"淘金站 A出入口","category":"transit","category_zh":"公共交通","amenity":null,"railway":"subway_entrance","source":"OpenStreetMap"},"geometry":{"type":"Point","coordinates":[113.2815286,23.1387562]}},{"type":"Feature","properties":{"facility_id":"osm_node_4853163778","osm_id":"4853163778","name":"团一大广场站 A出入口","category":"transit","category_zh":"公共交通","amenity":null,"railway":"subway_entrance","source":"OpenStreetMap"},"geometry":{"type":"Point","coordinates":[113.2727148,23.1210508]}},{"type":"Feature","properties":{"facility_id":"osm_node_4867365919","osm_id":"4867365919","name":"长寿路站 A出入口","category":"transit","category_zh":"公共交通","amenity":null,"railway":"subway_entrance","source":"OpenStreetMap"},"geometry":{"type":"Point","coordinates":[113.2370981,23.1204418]}},{"type":"Feature","properties":{"facility_id":"osm_node_4867381921","osm_id":"4867381921","name":"长寿路站 B出入口","category":"transit","category_zh":"公共交通","amenity":null,"railway":"subway_entrance","source":"OpenStreetMap"},"geometry":{"type":"Point","coordinates":[113.2370598,23.1216361]}},{"type":"Feature","properties":{"facility_id":"osm_node_4867381927","osm_id":"4867381927","name":"长寿路站 D2出入口","category":"transit","category_zh":"公共交通","amenity":null,"railway":"subway_entrance","source":"OpenStreetMap"},"geometry":{"type":"Point","coordinates":[113.2364317,23.1205306]}},{"type":"Feature","properties":{"facility_id":"osm_node_4867425985","osm_id":"4867425985","name":"未命名设施","category":"transit","category_zh":"公共交通","amenity":null,"railway":"subway_entrance","source":"OpenStreetMap"},"geometry":{"type":"Point","coordinates":[113.2349474,23.1137539]}},{"type":"Feature","properties":{"facility_id":"osm_node_4867425988","osm_id":"4867425988","name":"未命名设施","category":"transit","category_zh":"公共交通","amenity":null,"railway":"subway_entrance","source":"OpenStreetMap"},"geometry":{"type":"Point","coordinates":[113.234519,23.1136498]}},{"type":"Feature","properties":{"facility_id":"osm_node_4867425989","osm_id":"4867425989","name":"未命名设施","category":"transit","category_zh":"公共交通","amenity":null,"railway":"subway_entrance","source":"OpenStreetMap"},"geometry":{"type":"Point","coordinates":[113.2352467,23.1118467]}},{"type":"Feature","properties":{"facility_id":"osm_node_4867425990","osm_id":"4867425990","name":"未命名设施","category":"transit","category_zh":"公共交通","amenity":null,"railway":"subway_entrance","source":"OpenStreetMap"},"geometry":{"type":"Point","coordinates":[113.2362029,23.1119023]}},{"type":"Feature","properties":{"facility_id":"osm_node_4867425997","osm_id":"4867425997","name":"陈家祠站 A出入口","category":"transit","category_zh":"公共交通","amenity":null,"railway":"subway_entrance","source":"OpenStreetMap"},"geometry":{"type":"Point","coordinates":[113.2404748,23.1281549]}},{"type":"Feature","properties":{"facility_id":"osm_node_4867425998","osm_id":"4867425998","name":"陈家祠站 D出入口","category":"transit","category_zh":"公共交通","amenity":null,"railway":"subway_entrance","source":"OpenStreetMap"},"geometry":{"type":"Point","coordinates":[113.2404635,23.128585]}},{"type":"Feature","properties":{"facility_id":"osm_node_4867425999","osm_id":"4867425999","name":"陈家祠站 C出入口","category":"transit","category_zh":"公共交通","amenity":null,"railway":"subway_entrance","source":"OpenStreetMap"},"geometry":{"type":"Point","coordinates":[113.2417177,23.1285849]}},{"type":"Feature","properties":{"facility_id":"osm_node_4867426439","osm_id":"4867426439","name":"公园前站 I2出入口","category":"transit","category_zh":"公共交通","amenity":null,"railway":"subway_entrance","source":"OpenStreetMap"},"geometry":{"type":"Point","coordinates":[113.2576488,23.1282139]}},{"type":"Feature","properties":{"facility_id":"osm_node_4867426442","osm_id":"4867426442","name":"公园前站 B2出入口","category":"transit","category_zh":"公共交通","amenity":null,"railway":"subway_entrance","source":"OpenStreetMap"},"geometry":{"type":"Point","coordinates":[113.2587026,23.1279153]}},{"type":"Feature","properties":{"facility_id":"osm_node_4867426444","osm_id":"4867426444","name":"公园前站 C出入口","category":"transit","category_zh":"公共交通","amenity":null,"railway":"subway_entrance","source":"OpenStreetMap"},"geometry":{"type":"Point","coordinates":[113.2593556,23.1279365]}},{"type":"Feature","properties":{"facility_id":"osm_node_4867426447","osm_id":"4867426447","name":"公园前站 D出入口","category":"transit","category_zh":"公共交通","amenity":null,"railway":"subway_entrance","source":"OpenStreetMap"},"geometry":{"type":"Point","coordinates":[113.2601552,23.1276832]}},{"type":"Feature","properties":{"facility_id":"osm_node_4867426453","osm_id":"4867426453","name":"公园前E","category":"transit","category_zh":"公共交通","amenity":null,"railway":"subway_entrance","source":"OpenStreetMap"},"geometry":{"type":"Point","coordinates":[113.2617197,23.1281332]}},{"type":"Feature","properties":{"facility_id":"osm_node_4867426457","osm_id":"4867426457","name":"公园前站 G出入口","category":"transit","category_zh":"公共交通","amenity":null,"railway":"subway_entrance","source":"OpenStreetMap"},"geometry":{"type":"Point","coordinates":[113.259255,23.12839]}},{"type":"Feature","properties":{"facility_id":"osm_node_4867426459","osm_id":"4867426459","name":"公园前站 H出入口","category":"transit","category_zh":"公共交通","amenity":null,"railway":"subway_entrance","source":"OpenStreetMap"},"geometry":{"type":"Point","coordinates":[113.2586024,23.1283632]}},{"type":"Feature","properties":{"facility_id":"osm_node_4881068293","osm_id":"4881068293","name":"未命名设施","category":"transit","category_zh":"公共交通","amenity":null,"railway":"subway_entrance","source":"OpenStreetMap"},"geometry":{"type":"Point","coordinates":[113.2519478,23.115862]}},{"type":"Feature","properties":{"facility_id":"osm_node_4881068299","osm_id":"4881068299","name":"未命名设施","category":"transit","category_zh":"公共交通","amenity":null,"railway":"subway_entrance","source":"OpenStreetMap"},"geometry":{"type":"Point","coordinates":[113.2602187,23.1184439]}},{"type":"Feature","properties":{"facility_id":"osm_node_4891911096","osm_id":"4891911096","name":"未命名设施","category":"transit","category_zh":"公共交通","amenity":null,"railway":"subway_entrance","source":"OpenStreetMap"},"geometry":{"type":"Point","coordinates":[113.2836853,23.1185587]}},{"type":"Feature","properties":{"facility_id":"osm_node_4891911097","osm_id":"4891911097","name":"未命名设施","category":"transit","category_zh":"公共交通","amenity":null,"railway":"subway_entrance","source":"OpenStreetMap"},"geometry":{"type":"Point","coordinates":[113.2828809,23.1182514]}},{"type":"Feature","properties":{"facility_id":"osm_node_4891911102","osm_id":"4891911102","name":"未命名设施","category":"transit","category_zh":"公共交通","amenity":null,"railway":"subway_entrance","source":"OpenStreetMap"},"geometry":{"type":"Point","coordinates":[113.2833708,23.1172493]}},{"type":"Feature","properties":{"facility_id":"osm_node_4998973786","osm_id":"4998973786","name":"市二宫站 D出入口","category":"transit","category_zh":"公共交通","amenity":null,"railway":"subway_entrance","source":"OpenStreetMap"},"geometry":{"type":"Point","coordinates":[113.2639941,23.1092755]}},{"type":"Feature","properties":{"facility_id":"osm_node_4998975338","osm_id":"4998975338","name":"市二宫站 A出入口","category":"transit","category_zh":"公共交通","amenity":null,"railway":"subway_entrance","source":"OpenStreetMap"},"geometry":{"type":"Point","coordinates":[113.2649883,23.108763]}},{"type":"Feature","properties":{"facility_id":"osm_node_4998975343","osm_id":"4998975343","name":"市二宫站 E出入口","category":"transit","category_zh":"公共交通","amenity":null,"railway":"subway_entrance","source":"OpenStreetMap"},"geometry":{"type":"Point","coordinates":[113.2646053,23.1080498]}},{"type":"Feature","properties":{"facility_id":"osm_node_5024339149","osm_id":"5024339149","name":"烈士陵园站 B1出入口(停用)","category":"transit","category_zh":"公共交通","amenity":null,"railway":"subway_entrance","source":"OpenStreetMap"},"geometry":{"type":"Point","coordinates":[113.2808688,23.1290029]}},{"type":"Feature","properties":{"facility_id":"osm_node_5028331558","osm_id":"5028331558","name":"烈士陵园站 B2出入口(停用)","category":"transit","category_zh":"公共交通","amenity":null,"railway":"subway_entrance","source":"OpenStreetMap"},"geometry":{"type":"Point","coordinates":[113.2805885,23.1290499]}},{"type":"Feature","properties":{"facility_id":"osm_node_5430384679","osm_id":"5430384679","name":"黄沙","category":"transit","category_zh":"公共交通","amenity":null,"railway":"station","source":"OpenStreetMap"},"geometry":{"type":"Point","coordinates":[113.2349684,23.1119285]}},{"type":"Feature","properties":{"facility_id":"osm_node_5441572927","osm_id":"5441572927","name":"纪念堂","category":"transit","category_zh":"公共交通","amenity":null,"railway":"station","source":"OpenStreetMap"},"geometry":{"type":"Point","coordinates":[113.2580736,23.1351289]}},{"type":"Feature","properties":{"facility_id":"osm_node_5444596609","osm_id":"5444596609","name":"东湖","category":"transit","category_zh":"公共交通","amenity":null,"railway":"station","source":"OpenStreetMap"},"geometry":{"type":"Point","coordinates":[113.2838684,23.1175468]}},{"type":"Feature","properties":{"facility_id":"osm_node_5444643981","osm_id":"5444643981","name":"烈士陵园","category":"transit","category_zh":"公共交通","amenity":null,"railway":"station","source":"OpenStreetMap"},"geometry":{"type":"Point","coordinates":[113.2801067,23.1293267]}},{"type":"Feature","properties":{"facility_id":"osm_node_5444664708","osm_id":"5444664708","name":"黄花岗","category":"transit","category_zh":"公共交通","amenity":null,"railway":"station","source":"OpenStreetMap"},"geometry":{"type":"Point","coordinates":[113.2943388,23.1436235]}},{"type":"Feature","properties":{"facility_id":"osm_node_5450281413","osm_id":"5450281413","name":"公园前","category":"transit","category_zh":"公共交通","amenity":null,"railway":"station","source":"OpenStreetMap"},"geometry":{"type":"Point","coordinates":[113.2588495,23.1281]}},{"type":"Feature","properties":{"facility_id":"osm_node_5527530679","osm_id":"5527530679","name":"一德路","category":"transit","category_zh":"公共交通","amenity":null,"railway":"station","source":"OpenStreetMap"},"geometry":{"type":"Point","coordinates":[113.2521025,23.1154916]}},{"type":"Feature","properties":{"facility_id":"osm_node_5578025816","osm_id":"5578025816","name":"长寿路","category":"transit","category_zh":"公共交通","amenity":null,"railway":"station","source":"OpenStreetMap"},"geometry":{"type":"Point","coordinates":[113.2367015,23.1210478]}},{"type":"Feature","properties":{"facility_id":"osm_node_5578029343","osm_id":"5578029343","name":"陈家祠","category":"transit","category_zh":"公共交通","amenity":null,"railway":"station","source":"OpenStreetMap"},"geometry":{"type":"Point","coordinates":[113.2413838,23.1287473]}},{"type":"Feature","properties":{"facility_id":"osm_node_5578044178","osm_id":"5578044178","name":"西门口","category":"transit","category_zh":"公共交通","amenity":null,"railway":"station","source":"OpenStreetMap"},"geometry":{"type":"Point","coordinates":[113.2503501,23.12796]}},{"type":"Feature","properties":{"facility_id":"osm_node_5578075708","osm_id":"5578075708","name":"农讲所","category":"transit","category_zh":"公共交通","amenity":null,"railway":"station","source":"OpenStreetMap"},"geometry":{"type":"Point","coordinates":[113.2702048,23.1291942]}},{"type":"Feature","properties":{"facility_id":"osm_node_5582526161","osm_id":"5582526161","name":"市二宫","category":"transit","category_zh":"公共交通","amenity":null,"railway":"station","source":"OpenStreetMap"},"geometry":{"type":"Point","coordinates":[113.2646995,23.1088215]}},{"type":"Feature","properties":{"facility_id":"osm_node_5582577701","osm_id":"5582577701","name":"越秀公园","category":"transit","category_zh":"公共交通","amenity":null,"railway":"station","source":"OpenStreetMap"},"geometry":{"type":"Point","coordinates":[113.2560768,23.1424518]}},{"type":"Feature","properties":{"facility_id":"osm_node_5598402252","osm_id":"5598402252","name":"西村","category":"transit","category_zh":"公共交通","amenity":null,"railway":"station","source":"OpenStreetMap"},"geometry":{"type":"Point","coordinates":[113.2364628,23.1443634]}},{"type":"Feature","properties":{"facility_id":"osm_node_5598511573","osm_id":"5598511573","name":"小北","category":"transit","category_zh":"公共交通","amenity":null,"railway":"station","source":"OpenStreetMap"},"geometry":{"type":"Point","coordinates":[113.2714218,23.1421364]}},{"type":"Feature","properties":{"facility_id":"osm_node_5598534883","osm_id":"5598534883","name":"淘金","category":"transit","category_zh":"公共交通","amenity":null,"railway":"station","source":"OpenStreetMap"},"geometry":{"type":"Point","coordinates":[113.2811445,23.1390887]}},{"type":"Feature","properties":{"facility_id":"osm_node_5598548552","osm_id":"5598548552","name":"区庄","category":"transit","category_zh":"公共交通","amenity":null,"railway":"station","source":"OpenStreetMap"},"geometry":{"type":"Point","coordinates":[113.2916067,23.1370941]}},{"type":"Feature","properties":{"facility_id":"osm_node_5602280386","osm_id":"5602280386","name":"北京路","category":"transit","category_zh":"公共交通","amenity":null,"railway":"station","source":"OpenStreetMap"},"geometry":{"type":"Point","coordinates":[113.2650224,23.1216392]}},{"type":"Feature","properties":{"facility_id":"osm_node_5602394307","osm_id":"5602394307","name":"团一大广场","category":"transit","category_zh":"公共交通","amenity":null,"railway":"station","source":"OpenStreetMap"},"geometry":{"type":"Point","coordinates":[113.2727792,23.1209798]}},{"type":"Feature","properties":{"facility_id":"osm_node_6381165632","osm_id":"6381165632","name":"广州火车站 H2出入口","category":"transit","category_zh":"公共交通","amenity":null,"railway":"subway_entrance","source":"OpenStreetMap"},"geometry":{"type":"Point","coordinates":[113.2480301,23.1502387]}},{"type":"Feature","properties":{"facility_id":"osm_node_6381539899","osm_id":"6381539899","name":"广州火车站 D1出入口","category":"transit","category_zh":"公共交通","amenity":null,"railway":"subway_entrance","source":"OpenStreetMap"},"geometry":{"type":"Point","coordinates":[113.2502801,23.1514882]}},{"type":"Feature","properties":{"facility_id":"osm_node_6381539900","osm_id":"6381539900","name":"广州火车站 D3出入口","category":"transit","category_zh":"公共交通","amenity":null,"railway":"subway_entrance","source":"OpenStreetMap"},"geometry":{"type":"Point","coordinates":[113.2503955,23.1508554]}},{"type":"Feature","properties":{"facility_id":"osm_node_6381539901","osm_id":"6381539901","name":"广州火车站 D4出入口","category":"transit","category_zh":"公共交通","amenity":null,"railway":"subway_entrance","source":"OpenStreetMap"},"geometry":{"type":"Point","coordinates":[113.2502464,23.1502142]}},{"type":"Feature","properties":{"facility_id":"osm_node_6381539903","osm_id":"6381539903","name":"广州火车站 D2出入口","category":"transit","category_zh":"公共交通","amenity":null,"railway":"subway_entrance","source":"OpenStreetMap"},"geometry":{"type":"Point","coordinates":[113.2492706,23.1508538]}},{"type":"Feature","properties":{"facility_id":"osm_node_6381539912","osm_id":"6381539912","name":"广州火车站 H出入口","category":"transit","category_zh":"公共交通","amenity":null,"railway":"subway_entrance","source":"OpenStreetMap"},"geometry":{"type":"Point","coordinates":[113.2478221,23.1500562]}},{"type":"Feature","properties":{"facility_id":"osm_node_6381539913","osm_id":"6381539913","name":"广州火车站 G出入口","category":"transit","category_zh":"公共交通","amenity":null,"railway":"subway_entrance","source":"OpenStreetMap"},"geometry":{"type":"Point","coordinates":[113.2483655,23.1502226]}},{"type":"Feature","properties":{"facility_id":"osm_node_6381539914","osm_id":"6381539914","name":"广州火车站 E出入口","category":"transit","category_zh":"公共交通","amenity":null,"railway":"subway_entrance","source":"OpenStreetMap"},"geometry":{"type":"Point","coordinates":[113.2482836,23.1506593]}},{"type":"Feature","properties":{"facility_id":"osm_node_6381539915","osm_id":"6381539915","name":"广州火车站 F出入口","category":"transit","category_zh":"公共交通","amenity":null,"railway":"subway_entrance","source":"OpenStreetMap"},"geometry":{"type":"Point","coordinates":[113.2477455,23.150566]}},{"type":"Feature","properties":{"facility_id":"osm_node_6381539918","osm_id":"6381539918","name":"广州火车站 C出入口","category":"transit","category_zh":"公共交通","amenity":null,"railway":"subway_entrance","source":"OpenStreetMap"},"geometry":{"type":"Point","coordinates":[113.2516627,23.1521011]}},{"type":"Feature","properties":{"facility_id":"osm_node_6473086844","osm_id":"6473086844","name":"团一大广场站 B出入口","category":"transit","category_zh":"公共交通","amenity":null,"railway":"subway_entrance","source":"OpenStreetMap"},"geometry":{"type":"Point","coordinates":[113.272764,23.1204751]}},{"type":"Feature","properties":{"facility_id":"osm_node_656436101","osm_id":"656436101","name":"西门口站 B出入口","category":"transit","category_zh":"公共交通","amenity":null,"railway":"subway_entrance","source":"OpenStreetMap"},"geometry":{"type":"Point","coordinates":[113.2511079,23.1276544]}},{"type":"Feature","properties":{"facility_id":"osm_node_6576363048","osm_id":"6576363048","name":"公园前B1","category":"transit","category_zh":"公共交通","amenity":null,"railway":"subway_entrance","source":"OpenStreetMap"},"geometry":{"type":"Point","coordinates":[113.2586714,23.1279648]}},{"type":"Feature","properties":{"facility_id":"osm_node_6576363051","osm_id":"6576363051","name":"公园前站 K出入口","category":"transit","category_zh":"公共交通","amenity":null,"railway":"subway_entrance","source":"OpenStreetMap"},"geometry":{"type":"Point","coordinates":[113.2586926,23.128421]}},{"type":"Feature","properties":{"facility_id":"osm_node_6576363061","osm_id":"6576363061","name":"未命名设施","category":"transit","category_zh":"公共交通","amenity":null,"railway":"subway_entrance","source":"OpenStreetMap"},"geometry":{"type":"Point","coordinates":[113.2894426,23.1270586]}},{"type":"Feature","properties":{"facility_id":"osm_node_6576363064","osm_id":"6576363064","name":"未命名设施","category":"transit","category_zh":"公共交通","amenity":null,"railway":"subway_entrance","source":"OpenStreetMap"},"geometry":{"type":"Point","coordinates":[113.2895914,23.1271985]}},{"type":"Feature","properties":{"facility_id":"osm_node_658356566","osm_id":"658356566","name":"越秀公园站 B1出入口","category":"transit","category_zh":"公共交通","amenity":null,"railway":"subway_entrance","source":"OpenStreetMap"},"geometry":{"type":"Point","coordinates":[113.2563241,23.1433036]}},{"type":"Feature","properties":{"facility_id":"osm_node_6898322555","osm_id":"6898322555","name":"文化公园","category":"transit","category_zh":"公共交通","amenity":null,"railway":"station","source":"OpenStreetMap"},"geometry":{"type":"Point","coordinates":[113.2445068,23.1116869]}},{"type":"Feature","properties":{"facility_id":"osm_node_7822566598","osm_id":"7822566598","name":"同福西站 D出入口","category":"transit","category_zh":"公共交通","amenity":null,"railway":"subway_entrance","source":"OpenStreetMap"},"geometry":{"type":"Point","coordinates":[113.2463477,23.1047176]}},{"type":"Feature","properties":{"facility_id":"osm_node_7822566608","osm_id":"7822566608","name":"同福西站 A出入口","category":"transit","category_zh":"公共交通","amenity":null,"railway":"subway_entrance","source":"OpenStreetMap"},"geometry":{"type":"Point","coordinates":[113.2472396,23.1047175]}},{"type":"Feature","properties":{"facility_id":"osm_node_7822566612","osm_id":"7822566612","name":"未命名设施","category":"transit","category_zh":"公共交通","amenity":null,"railway":"subway_entrance","source":"OpenStreetMap"},"geometry":{"type":"Point","coordinates":[113.2447679,23.1113713]}},{"type":"Feature","properties":{"facility_id":"osm_node_7855785186","osm_id":"7855785186","name":"广州","category":"transit","category_zh":"公共交通","amenity":null,"railway":"station","source":"OpenStreetMap"},"geometry":{"type":"Point","coordinates":[113.2522641,23.1526233]}},{"type":"Feature","properties":{"facility_id":"osm_node_8077883633","osm_id":"8077883633","name":"市二宫站 B 出入口","category":"transit","category_zh":"公共交通","amenity":null,"railway":"subway_entrance","source":"OpenStreetMap"},"geometry":{"type":"Point","coordinates":[113.2648261,23.1091554]}},{"type":"Feature","properties":{"facility_id":"osm_node_8170597527","osm_id":"8170597527","name":"C1","category":"transit","category_zh":"公共交通","amenity":null,"railway":"subway_entrance","source":"OpenStreetMap"},"geometry":{"type":"Point","coordinates":[113.2415432,23.1213863]}},{"type":"Feature","properties":{"facility_id":"osm_node_8170597528","osm_id":"8170597528","name":"B","category":"transit","category_zh":"公共交通","amenity":null,"railway":"subway_entrance","source":"OpenStreetMap"},"geometry":{"type":"Point","coordinates":[113.2423034,23.1207239]}},{"type":"Feature","properties":{"facility_id":"osm_node_8170597529","osm_id":"8170597529","name":"D","category":"transit","category_zh":"公共交通","amenity":null,"railway":"subway_entrance","source":"OpenStreetMap"},"geometry":{"type":"Point","coordinates":[113.2414537,23.1203151]}},{"type":"Feature","properties":{"facility_id":"osm_node_8274109477","osm_id":"8274109477","name":"西村站 C出入口","category":"transit","category_zh":"公共交通","amenity":null,"railway":"subway_entrance","source":"OpenStreetMap"},"geometry":{"type":"Point","coordinates":[113.2374739,23.145726]}},{"type":"Feature","properties":{"facility_id":"osm_node_8298573795","osm_id":"8298573795","name":"下九路（上下九步行街）","category":"transit","category_zh":"公共交通","amenity":null,"railway":"subway_entrance","source":"OpenStreetMap"},"geometry":{"type":"Point","coordinates":[113.2415676,23.1197714]}},{"type":"Feature","properties":{"facility_id":"osm_node_8517892963","osm_id":"8517892963","name":"陈家祠站 E出入口","category":"transit","category_zh":"公共交通","amenity":null,"railway":"subway_entrance","source":"OpenStreetMap"},"geometry":{"type":"Point","coordinates":[113.2409131,23.1290246]}},{"type":"Feature","properties":{"facility_id":"osm_node_8517892967","osm_id":"8517892967","name":"陈家祠站 F出入口","category":"transit","category_zh":"公共交通","amenity":null,"railway":"subway_entrance","source":"OpenStreetMap"},"geometry":{"type":"Point","coordinates":[113.2417194,23.1299333]}},{"type":"Feature","properties":{"facility_id":"osm_node_8517892971","osm_id":"8517892971","name":"陈家祠站 G出入口","category":"transit","category_zh":"公共交通","amenity":null,"railway":"subway_entrance","source":"OpenStreetMap"},"geometry":{"type":"Point","coordinates":[113.2417712,23.1294775]}},{"type":"Feature","properties":{"facility_id":"osm_node_8918528298","osm_id":"8918528298","name":"广州火车站 B出入口","category":"transit","category_zh":"公共交通","amenity":null,"railway":"subway_entrance","source":"OpenStreetMap"},"geometry":{"type":"Point","coordinates":[113.2517496,23.1514888]}},{"type":"Feature","properties":{"facility_id":"osm_node_9090121505","osm_id":"9090121505","name":"同福西","category":"transit","category_zh":"公共交通","amenity":null,"railway":"station","source":"OpenStreetMap"},"geometry":{"type":"Point","coordinates":[113.2470747,23.1043227]}},{"type":"Feature","properties":{"facility_id":"osm_node_9220578094","osm_id":"9220578094","name":"广州火车站","category":"transit","category_zh":"公共交通","amenity":null,"railway":"station","source":"OpenStreetMap"},"geometry":{"type":"Point","coordinates":[113.2519606,23.1505659]}},{"type":"Feature","properties":{"facility_id":"osm_node_9220578109","osm_id":"9220578109","name":"西村站 A出入口","category":"transit","category_zh":"公共交通","amenity":null,"railway":"subway_entrance","source":"OpenStreetMap"},"geometry":{"type":"Point","coordinates":[113.2365954,23.1441309]}},{"type":"Feature","properties":{"facility_id":"osm_node_9225232064","osm_id":"9225232064","name":"华林寺","category":"transit","category_zh":"公共交通","amenity":null,"railway":"station","source":"OpenStreetMap"},"geometry":{"type":"Point","coordinates":[113.2418239,23.1207642]}},{"type":"Feature","properties":{"facility_id":"osm_node_9396724897","osm_id":"9396724897","name":"海珠广场","category":"transit","category_zh":"公共交通","amenity":null,"railway":"station","source":"OpenStreetMap"},"geometry":{"type":"Point","coordinates":[113.2602568,23.1175005]}},{"type":"Feature","properties":{"facility_id":"osm_node_9396731718","osm_id":"9396731718","name":"东山口","category":"transit","category_zh":"公共交通","amenity":null,"railway":"station","source":"OpenStreetMap"},"geometry":{"type":"Point","coordinates":[113.2901636,23.1264857]}},{"type":"Feature","properties":{"facility_id":"osm_node_9396731728","osm_id":"9396731728","name":"黄花岗B","category":"transit","category_zh":"公共交通","amenity":null,"railway":"subway_entrance","source":"OpenStreetMap"},"geometry":{"type":"Point","coordinates":[113.2938793,23.1436596]}},{"type":"Feature","properties":{"facility_id":"osm_node_9898752134","osm_id":"9898752134","name":"陈家祠站 B出入口","category":"transit","category_zh":"公共交通","amenity":null,"railway":"subway_entrance","source":"OpenStreetMap"},"geometry":{"type":"Point","coordinates":[113.2418422,23.1282007]}}]}