{"type":"FeatureCollection","name":"xian_analysis_grid","crs":{"type":"name","properties":{"name":"urn:ogc:def:crs:OGC:1.3:CRS84"}},"features":[{"type":"Feature","properties":{"cell_id":"xian_01_01","city_id":"xian","city_name_zh":"西安","row":1,"column":1,"area_km2":0.4784,"center_lon":108.91355,"center_lat":34.363475,"distance_to_center_km":3.424,"facility_count":0,"transit_count":0,"healthcare_count":0,"education_count":0,"park_count":0,"service_diversity":0,"facility_density_km2":0.0,"road_segment_count":62,"road_length_m":3737.24,"road_density_km_km2":7.8115,"intersection_count":1,"elevation_m":370,"terrain_relief_m":9,"source_note":"OSM道路与设施聚合；SRTM高程采样；均为教学裁剪","accessibility_proxy":0.2768,"osm_intensity_class":"低","core_zone":"外圈"},"geometry":{"type":"Polygon","coordinates":[[[108.9098,34.36035],[108.9173,34.36035],[108.9173,34.3666],[108.9098,34.3666],[108.9098,34.36035]]]}},{"type":"Feature","properties":{"cell_id":"xian_01_02","city_id":"xian","city_name_zh":"西安","row":1,"column":2,"area_km2":0.4784,"center_lon":108.92105,"center_lat":34.363475,"distance_to_center_km":2.98,"facility_count":1,"transit_count":1,"healthcare_count":0,"education_count":0,"park_count":0,"service_diversity":1,"facility_density_km2":2.0902,"road_segment_count":15,"road_length_m":2126.04,"road_density_km_km2":4.4438,"intersection_count":2,"elevation_m":375,"terrain_relief_m":7,"source_note":"OSM道路与设施聚合；SRTM高程采样；均为教学裁剪","accessibility_proxy":0.2354,"osm_intensity_class":"低","core_zone":"内圈"},"geometry":{"type":"Polygon","coordinates":[[[108.9173,34.36035],[108.9248,34.36035],[108.9248,34.3666],[108.9173,34.3666],[108.9173,34.36035]]]}},{"type":"Feature","properties":{"cell_id":"xian_01_03","city_id":"xian","city_name_zh":"西安","row":1,"column":3,"area_km2":0.4784,"center_lon":108.92855,"center_lat":34.363475,"distance_to_center_km":2.643,"facility_count":2,"transit_count":2,"healthcare_count":0,"education_count":0,"park_count":0,"service_diversity":1,"facility_density_km2":4.1804,"road_segment_count":21,"road_length_m":2035.43,"road_density_km_km2":4.2544,"intersection_count":0,"elevation_m":373,"terrain_relief_m":4,"source_note":"OSM道路与设施聚合；SRTM高程采样；均为教学裁剪","accessibility_proxy":0.2724,"osm_intensity_class":"低","core_zone":"内圈"},"geometry":{"type":"Polygon","coordinates":[[[108.9248,34.36035],[108.9323,34.36035],[108.9323,34.3666],[108.9248,34.3666],[108.9248,34.36035]]]}},{"type":"Feature","properties":{"cell_id":"xian_01_04","city_id":"xian","city_name_zh":"西安","row":1,"column":4,"area_km2":0.4784,"center_lon":108.93605,"center_lat":34.363475,"distance_to_center_km":2.457,"facility_count":0,"transit_count":0,"healthcare_count":0,"education_count":0,"park_count":0,"service_diversity":0,"facility_density_km2":0.0,"road_segment_count":39,"road_length_m":3091.31,"road_density_km_km2":6.4614,"intersection_count":4,"elevation_m":374,"terrain_relief_m":2,"source_note":"OSM道路与设施聚合；SRTM高程采样；均为教学裁剪","accessibility_proxy":0.2731,"osm_intensity_class":"低","core_zone":"内圈"},"geometry":{"type":"Polygon","coordinates":[[[108.9323,34.36035],[108.9398,34.36035],[108.9398,34.3666],[108.9323,34.3666],[108.9323,34.36035]]]}},{"type":"Feature","properties":{"cell_id":"xian_01_05","city_id":"xian","city_name_zh":"西安","row":1,"column":5,"area_km2":0.4784,"center_lon":108.94355,"center_lat":34.363475,"distance_to_center_km":2.457,"facility_count":4,"transit_count":4,"healthcare_count":0,"education_count":0,"park_count":0,"service_diversity":1,"facility_density_km2":8.3607,"road_segment_count":39,"road_length_m":1929.1,"road_density_km_km2":4.0322,"intersection_count":1,"elevation_m":373,"terrain_relief_m":2,"source_note":"OSM道路与设施聚合；SRTM高程采样；均为教学裁剪","accessibility_proxy":0.335,"osm_intensity_class":"较低","core_zone":"内圈"},"geometry":{"type":"Polygon","coordinates":[[[108.9398,34.36035],[108.9473,34.36035],[108.9473,34.3666],[108.9398,34.3666],[108.9398,34.36035]]]}},{"type":"Feature","properties":{"cell_id":"xian_01_06","city_id":"xian","city_name_zh":"西安","row":1,"column":6,"area_km2":0.4784,"center_lon":108.95105,"center_lat":34.363475,"distance_to_center_km":2.643,"facility_count":0,"transit_count":0,"healthcare_count":0,"education_count":0,"park_count":0,"service_diversity":0,"facility_density_km2":0.0,"road_segment_count":33,"road_length_m":1639.47,"road_density_km_km2":3.4268,"intersection_count":1,"elevation_m":372,"terrain_relief_m":4,"source_note":"OSM道路与设施聚合；SRTM高程采样；均为教学裁剪","accessibility_proxy":0.19,"osm_intensity_class":"低","core_zone":"内圈"},"geometry":{"type":"Polygon","coordinates":[[[108.9473,34.36035],[108.9548,34.36035],[108.9548,34.3666],[108.9473,34.3666],[108.9473,34.36035]]]}},{"type":"Feature","properties":{"cell_id":"xian_01_07","city_id":"xian","city_name_zh":"西安","row":1,"column":7,"area_km2":0.4784,"center_lon":108.95855,"center_lat":34.363475,"distance_to_center_km":2.98,"facility_count":0,"transit_count":0,"healthcare_count":0,"education_count":0,"park_count":0,"service_diversity":0,"facility_density_km2":0.0,"road_segment_count":18,"road_length_m":1759.72,"road_density_km_km2":3.6781,"intersection_count":2,"elevation_m":376,"terrain_relief_m":11,"source_note":"OSM道路与设施聚合；SRTM高程采样；均为教学裁剪","accessibility_proxy":0.1853,"osm_intensity_class":"低","core_zone":"内圈"},"geometry":{"type":"Polygon","coordinates":[[[108.9548,34.36035],[108.9623,34.36035],[108.9623,34.3666],[108.9548,34.3666],[108.9548,34.36035]]]}},{"type":"Feature","properties":{"cell_id":"xian_01_08","city_id":"xian","city_name_zh":"西安","row":1,"column":8,"area_km2":0.4784,"center_lon":108.96605,"center_lat":34.363475,"distance_to_center_km":3.424,"facility_count":0,"transit_count":0,"healthcare_count":0,"education_count":0,"park_count":0,"service_diversity":0,"facility_density_km2":0.0,"road_segment_count":4,"road_length_m":706.51,"road_density_km_km2":1.4767,"intersection_count":0,"elevation_m":375,"terrain_relief_m":11,"source_note":"OSM道路与设施聚合；SRTM高程采样；均为教学裁剪","accessibility_proxy":0.1171,"osm_intensity_class":"低","core_zone":"外圈"},"geometry":{"type":"Polygon","coordinates":[[[108.9623,34.36035],[108.9698,34.36035],[108.9698,34.3666],[108.9623,34.3666],[108.9623,34.36035]]]}},{"type":"Feature","properties":{"cell_id":"xian_02_01","city_id":"xian","city_name_zh":"西安","row":2,"column":1,"area_km2":0.4785,"center_lon":108.91355,"center_lat":34.357225,"distance_to_center_km":2.971,"facility_count":0,"transit_count":0,"healthcare_count":0,"education_count":0,"park_count":0,"service_diversity":0,"facility_density_km2":0.0,"road_segment_count":52,"road_length_m":4251.71,"road_density_km_km2":8.8862,"intersection_count":10,"elevation_m":375,"terrain_relief_m":8,"source_note":"OSM道路与设施聚合；SRTM高程采样；均为教学裁剪","accessibility_proxy":0.3169,"osm_intensity_class":"较低","core_zone":"内圈"},"geometry":{"type":"Polygon","coordinates":[[[108.9098,34.3541],[108.9173,34.3541],[108.9173,34.36035],[108.9098,34.36035],[108.9098,34.3541]]]}},{"type":"Feature","properties":{"cell_id":"xian_02_02","city_id":"xian","city_name_zh":"西安","row":2,"column":2,"area_km2":0.4785,"center_lon":108.92105,"center_lat":34.357225,"distance_to_center_km":2.446,"facility_count":1,"transit_count":1,"healthcare_count":0,"education_count":0,"park_count":0,"service_diversity":1,"facility_density_km2":2.09,"road_segment_count":43,"road_length_m":3540.67,"road_density_km_km2":7.4001,"intersection_count":8,"elevation_m":375,"terrain_relief_m":6,"source_note":"OSM道路与设施聚合；SRTM高程采样；均为教学裁剪","accessibility_proxy":0.328,"osm_intensity_class":"较低","core_zone":"内圈"},"geometry":{"type":"Polygon","coordinates":[[[108.9173,34.3541],[108.9248,34.3541],[108.9248,34.36035],[108.9173,34.36035],[108.9173,34.3541]]]}},{"type":"Feature","properties":{"cell_id":"xian_02_03","city_id":"xian","city_name_zh":"西安","row":2,"column":3,"area_km2":0.4785,"center_lon":108.92855,"center_lat":34.357225,"distance_to_center_km":2.021,"facility_count":1,"transit_count":1,"healthcare_count":0,"education_count":0,"park_count":0,"service_diversity":1,"facility_density_km2":2.09,"road_segment_count":42,"road_length_m":3439.2,"road_density_km_km2":7.188,"intersection_count":10,"elevation_m":374,"terrain_relief_m":6,"source_note":"OSM道路与设施聚合；SRTM高程采样；均为教学裁剪","accessibility_proxy":0.3395,"osm_intensity_class":"较低","core_zone":"内圈"},"geometry":{"type":"Polygon","coordinates":[[[108.9248,34.3541],[108.9323,34.3541],[108.9323,34.36035],[108.9248,34.36035],[108.9248,34.3541]]]}},{"type":"Feature","properties":{"cell_id":"xian_02_04","city_id":"xian","city_name_zh":"西安","row":2,"column":4,"area_km2":0.4785,"center_lon":108.93605,"center_lat":34.357225,"distance_to_center_km":1.771,"facility_count":0,"transit_count":0,"healthcare_count":0,"education_count":0,"park_count":0,"service_diversity":0,"facility_density_km2":0.0,"road_segment_count":53,"road_length_m":4741.5,"road_density_km_km2":9.9099,"intersection_count":12,"elevation_m":374,"terrain_relief_m":3,"source_note":"OSM道路与设施聚合；SRTM高程采样；均为教学裁剪","accessibility_proxy":0.3884,"osm_intensity_class":"较高","core_zone":"内圈"},"geometry":{"type":"Polygon","coordinates":[[[108.9323,34.3541],[108.9398,34.3541],[108.9398,34.36035],[108.9323,34.36035],[108.9323,34.3541]]]}},{"type":"Feature","properties":{"cell_id":"xian_02_05","city_id":"xian","city_name_zh":"西安","row":2,"column":5,"area_km2":0.4785,"center_lon":108.94355,"center_lat":34.357225,"distance_to_center_km":1.771,"facility_count":2,"transit_count":2,"healthcare_count":0,"education_count":0,"park_count":0,"service_diversity":1,"facility_density_km2":4.1801,"road_segment_count":79,"road_length_m":5200.45,"road_density_km_km2":10.8691,"intersection_count":13,"elevation_m":372,"terrain_relief_m":6,"source_note":"OSM道路与设施聚合；SRTM高程采样；均为教学裁剪","accessibility_proxy":0.4741,"osm_intensity_class":"高","core_zone":"内圈"},"geometry":{"type":"Polygon","coordinates":[[[108.9398,34.3541],[108.9473,34.3541],[108.9473,34.36035],[108.9398,34.36035],[108.9398,34.3541]]]}},{"type":"Feature","properties":{"cell_id":"xian_02_06","city_id":"xian","city_name_zh":"西安","row":2,"column":6,"area_km2":0.4785,"center_lon":108.95105,"center_lat":34.357225,"distance_to_center_km":2.021,"facility_count":0,"transit_count":0,"healthcare_count":0,"education_count":0,"park_count":0,"service_diversity":0,"facility_density_km2":0.0,"road_segment_count":84,"road_length_m":6183.97,"road_density_km_km2":12.9247,"intersection_count":24,"elevation_m":380,"terrain_relief_m":7,"source_note":"OSM道路与设施聚合；SRTM高程采样；均为教学裁剪","accessibility_proxy":0.4533,"osm_intensity_class":"较高","core_zone":"内圈"},"geometry":{"type":"Polygon","coordinates":[[[108.9473,34.3541],[108.9548,34.3541],[108.9548,34.36035],[108.9473,34.36035],[108.9473,34.3541]]]}},{"type":"Feature","properties":{"cell_id":"xian_02_07","city_id":"xian","city_name_zh":"西安","row":2,"column":7,"area_km2":0.4785,"center_lon":108.95855,"center_lat":34.357225,"distance_to_center_km":2.446,"facility_count":0,"transit_count":0,"healthcare_count":0,"education_count":0,"park_count":0,"service_diversity":0,"facility_density_km2":0.0,"road_segment_count":45,"road_length_m":4552.96,"road_density_km_km2":9.5158,"intersection_count":14,"elevation_m":378,"terrain_relief_m":6,"source_note":"OSM道路与设施聚合；SRTM高程采样；均为教学裁剪","accessibility_proxy":0.3506,"osm_intensity_class":"较低","core_zone":"内圈"},"geometry":{"type":"Polygon","coordinates":[[[108.9548,34.3541],[108.9623,34.3541],[108.9623,34.36035],[108.9548,34.36035],[108.9548,34.3541]]]}},{"type":"Feature","properties":{"cell_id":"xian_02_08","city_id":"xian","city_name_zh":"西安","row":2,"column":8,"area_km2":0.4785,"center_lon":108.96605,"center_lat":34.357225,"distance_to_center_km":2.971,"facility_count":0,"transit_count":0,"healthcare_count":0,"education_count":0,"park_count":0,"service_diversity":0,"facility_density_km2":0.0,"road_segment_count":20,"road_length_m":2668.08,"road_density_km_km2":5.5764,"intersection_count":7,"elevation_m":374,"terrain_relief_m":7,"source_note":"OSM道路与设施聚合；SRTM高程采样；均为教学裁剪","accessibility_proxy":0.2335,"osm_intensity_class":"低","core_zone":"内圈"},"geometry":{"type":"Polygon","coordinates":[[[108.9623,34.3541],[108.9698,34.3541],[108.9698,34.36035],[108.9623,34.36035],[108.9623,34.3541]]]}},{"type":"Feature","properties":{"cell_id":"xian_03_01","city_id":"xian","city_name_zh":"西安","row":3,"column":1,"area_km2":0.4785,"center_lon":108.91355,"center_lat":34.350975,"distance_to_center_km":2.626,"facility_count":0,"transit_count":0,"healthcare_count":0,"education_count":0,"park_count":0,"service_diversity":0,"facility_density_km2":0.0,"road_segment_count":60,"road_length_m":5086.31,"road_density_km_km2":10.6297,"intersection_count":12,"elevation_m":375,"terrain_relief_m":5,"source_note":"OSM道路与设施聚合；SRTM高程采样；均为教学裁剪","accessibility_proxy":0.3722,"osm_intensity_class":"较低","core_zone":"内圈"},"geometry":{"type":"Polygon","coordinates":[[[108.9098,34.34785],[108.9173,34.34785],[108.9173,34.3541],[108.9098,34.3541],[108.9098,34.34785]]]}},{"type":"Feature","properties":{"cell_id":"xian_03_02","city_id":"xian","city_name_zh":"西安","row":3,"column":2,"area_km2":0.4785,"center_lon":108.92105,"center_lat":34.350975,"distance_to_center_km":2.012,"facility_count":3,"transit_count":3,"healthcare_count":0,"education_count":0,"park_count":0,"service_diversity":1,"facility_density_km2":6.2696,"road_segment_count":69,"road_length_m":5060.67,"road_density_km_km2":10.5762,"intersection_count":16,"elevation_m":378,"terrain_relief_m":4,"source_note":"OSM道路与设施聚合；SRTM高程采样；均为教学裁剪","accessibility_proxy":0.4868,"osm_intensity_class":"高","core_zone":"内圈"},"geometry":{"type":"Polygon","coordinates":[[[108.9173,34.34785],[108.9248,34.34785],[108.9248,34.3541],[108.9173,34.3541],[108.9173,34.34785]]]}},{"type":"Feature","properties":{"cell_id":"xian_03_03","city_id":"xian","city_name_zh":"西安","row":3,"column":3,"area_km2":0.4785,"center_lon":108.92855,"center_lat":34.350975,"distance_to_center_km":1.467,"facility_count":5,"transit_count":5,"healthcare_count":0,"education_count":0,"park_count":0,"service_diversity":1,"facility_density_km2":10.4494,"road_segment_count":53,"road_length_m":4755.8,"road_density_km_km2":9.939,"intersection_count":12,"elevation_m":378,"terrain_relief_m":4,"source_note":"OSM道路与设施聚合；SRTM高程采样；均为教学裁剪","accessibility_proxy":0.5578,"osm_intensity_class":"高","core_zone":"核心"},"geometry":{"type":"Polygon","coordinates":[[[108.9248,34.34785],[108.9323,34.34785],[108.9323,34.3541],[108.9248,34.3541],[108.9248,34.34785]]]}},{"type":"Feature","properties":{"cell_id":"xian_03_04","city_id":"xian","city_name_zh":"西安","row":3,"column":4,"area_km2":0.4785,"center_lon":108.93605,"center_lat":34.350975,"distance_to_center_km":1.098,"facility_count":0,"transit_count":0,"healthcare_count":0,"education_count":0,"park_count":0,"service_diversity":0,"facility_density_km2":0.0,"road_segment_count":78,"road_length_m":5961.19,"road_density_km_km2":12.4581,"intersection_count":20,"elevation_m":377,"terrain_relief_m":17,"source_note":"OSM道路与设施聚合；SRTM高程采样；均为教学裁剪","accessibility_proxy":0.4875,"osm_intensity_class":"高","core_zone":"核心"},"geometry":{"type":"Polygon","coordinates":[[[108.9323,34.34785],[108.9398,34.34785],[108.9398,34.3541],[108.9323,34.3541],[108.9323,34.34785]]]}},{"type":"Feature","properties":{"cell_id":"xian_03_05","city_id":"xian","city_name_zh":"西安","row":3,"column":5,"area_km2":0.4785,"center_lon":108.94355,"center_lat":34.350975,"distance_to_center_km":1.098,"facility_count":3,"transit_count":3,"healthcare_count":0,"education_count":0,"park_count":0,"service_diversity":1,"facility_density_km2":6.2696,"road_segment_count":91,"road_length_m":4458.05,"road_density_km_km2":9.3168,"intersection_count":19,"elevation_m":379,"terrain_relief_m":17,"source_note":"OSM道路与设施聚合；SRTM高程采样；均为教学裁剪","accessibility_proxy":0.5006,"osm_intensity_class":"高","core_zone":"核心"},"geometry":{"type":"Polygon","coordinates":[[[108.9398,34.34785],[108.9473,34.34785],[108.9473,34.3541],[108.9398,34.3541],[108.9398,34.34785]]]}},{"type":"Feature","properties":{"cell_id":"xian_03_06","city_id":"xian","city_name_zh":"西安","row":3,"column":6,"area_km2":0.4785,"center_lon":108.95105,"center_lat":34.350975,"distance_to_center_km":1.467,"facility_count":0,"transit_count":0,"healthcare_count":0,"education_count":0,"park_count":0,"service_diversity":0,"facility_density_km2":0.0,"road_segment_count":38,"road_length_m":3617.81,"road_density_km_km2":7.5608,"intersection_count":7,"elevation_m":374,"terrain_relief_m":11,"source_note":"OSM道路与设施聚合；SRTM高程采样；均为教学裁剪","accessibility_proxy":0.344,"osm_intensity_class":"较低","core_zone":"核心"},"geometry":{"type":"Polygon","coordinates":[[[108.9473,34.34785],[108.9548,34.34785],[108.9548,34.3541],[108.9473,34.3541],[108.9473,34.34785]]]}},{"type":"Feature","properties":{"cell_id":"xian_03_07","city_id":"xian","city_name_zh":"西安","row":3,"column":7,"area_km2":0.4785,"center_lon":108.95855,"center_lat":34.350975,"distance_to_center_km":2.012,"facility_count":0,"transit_count":0,"healthcare_count":0,"education_count":0,"park_count":0,"service_diversity":0,"facility_density_km2":0.0,"road_segment_count":47,"road_length_m":5129.24,"road_density_km_km2":10.7195,"intersection_count":22,"elevation_m":385,"terrain_relief_m":7,"source_note":"OSM道路与设施聚合；SRTM高程采样；均为教学裁剪","accessibility_proxy":0.3981,"osm_intensity_class":"较高","core_zone":"内圈"},"geometry":{"type":"Polygon","coordinates":[[[108.9548,34.34785],[108.9623,34.34785],[108.9623,34.3541],[108.9548,34.3541],[108.9548,34.34785]]]}},{"type":"Feature","properties":{"cell_id":"xian_03_08","city_id":"xian","city_name_zh":"西安","row":3,"column":8,"area_km2":0.4785,"center_lon":108.96605,"center_lat":34.350975,"distance_to_center_km":2.626,"facility_count":0,"transit_count":0,"healthcare_count":0,"education_count":0,"park_count":0,"service_diversity":0,"facility_density_km2":0.0,"road_segment_count":14,"road_length_m":2706.59,"road_density_km_km2":5.6564,"intersection_count":5,"elevation_m":378,"terrain_relief_m":6,"source_note":"OSM道路与设施聚合；SRTM高程采样；均为教学裁剪","accessibility_proxy":0.2468,"osm_intensity_class":"低","core_zone":"内圈"},"geometry":{"type":"Polygon","coordinates":[[[108.9623,34.34785],[108.9698,34.34785],[108.9698,34.3541],[108.9623,34.3541],[108.9623,34.34785]]]}},{"type":"Feature","properties":{"cell_id":"xian_04_01","city_id":"xian","city_name_zh":"西安","row":4,"column":1,"area_km2":0.4785,"center_lon":108.91355,"center_lat":34.344725,"distance_to_center_km":2.435,"facility_count":0,"transit_count":0,"healthcare_count":0,"education_count":0,"park_count":0,"service_diversity":0,"facility_density_km2":0.0,"road_segment_count":83,"road_length_m":5418.42,"road_density_km_km2":11.323,"intersection_count":22,"elevation_m":378,"terrain_relief_m":4,"source_note":"OSM道路与设施聚合；SRTM高程采样；均为教学裁剪","accessibility_proxy":0.3965,"osm_intensity_class":"较高","core_zone":"内圈"},"geometry":{"type":"Polygon","coordinates":[[[108.9098,34.3416],[108.9173,34.3416],[108.9173,34.34785],[108.9098,34.34785],[108.9098,34.3416]]]}},{"type":"Feature","properties":{"cell_id":"xian_04_02","city_id":"xian","city_name_zh":"西安","row":4,"column":2,"area_km2":0.4785,"center_lon":108.92105,"center_lat":34.344725,"distance_to_center_km":1.756,"facility_count":0,"transit_count":0,"healthcare_count":0,"education_count":0,"park_count":0,"service_diversity":0,"facility_density_km2":0.0,"road_segment_count":67,"road_length_m":4113.67,"road_density_km_km2":8.5964,"intersection_count":11,"elevation_m":378,"terrain_relief_m":9,"source_note":"OSM道路与设施聚合；SRTM高程采样；均为教学裁剪","accessibility_proxy":0.356,"osm_intensity_class":"较低","core_zone":"内圈"},"geometry":{"type":"Polygon","coordinates":[[[108.9173,34.3416],[108.9248,34.3416],[108.9248,34.34785],[108.9173,34.34785],[108.9173,34.3416]]]}},{"type":"Feature","properties":{"cell_id":"xian_04_03","city_id":"xian","city_name_zh":"西安","row":4,"column":3,"area_km2":0.4785,"center_lon":108.92855,"center_lat":34.344725,"distance_to_center_km":1.09,"facility_count":4,"transit_count":3,"healthcare_count":0,"education_count":0,"park_count":0,"service_diversity":2,"facility_density_km2":8.3589,"road_segment_count":59,"road_length_m":4811.6,"road_density_km_km2":10.0549,"intersection_count":10,"elevation_m":378,"terrain_relief_m":9,"source_note":"OSM道路与设施聚合；SRTM高程采样；均为教学裁剪","accessibility_proxy":0.5504,"osm_intensity_class":"高","core_zone":"核心"},"geometry":{"type":"Polygon","coordinates":[[[108.9248,34.3416],[108.9323,34.3416],[108.9323,34.34785],[108.9248,34.34785],[108.9248,34.3416]]]}},{"type":"Feature","properties":{"cell_id":"xian_04_04","city_id":"xian","city_name_zh":"西安","row":4,"column":4,"area_km2":0.4785,"center_lon":108.93605,"center_lat":34.344725,"distance_to_center_km":0.489,"facility_count":4,"transit_count":4,"healthcare_count":0,"education_count":0,"park_count":0,"service_diversity":1,"facility_density_km2":8.3589,"road_segment_count":40,"road_length_m":2866.39,"road_density_km_km2":5.9899,"intersection_count":11,"elevation_m":378,"terrain_relief_m":16,"source_note":"OSM道路与设施聚合；SRTM高程采样；均为教学裁剪","accessibility_proxy":0.4865,"osm_intensity_class":"高","core_zone":"核心"},"geometry":{"type":"Polygon","coordinates":[[[108.9323,34.3416],[108.9398,34.3416],[108.9398,34.34785],[108.9323,34.34785],[108.9323,34.3416]]]}},{"type":"Feature","properties":{"cell_id":"xian_04_05","city_id":"xian","city_name_zh":"西安","row":4,"column":5,"area_km2":0.4785,"center_lon":108.94355,"center_lat":34.344725,"distance_to_center_km":0.489,"facility_count":13,"transit_count":13,"healthcare_count":0,"education_count":0,"park_count":0,"service_diversity":1,"facility_density_km2":27.1663,"road_segment_count":61,"road_length_m":3387.78,"road_density_km_km2":7.0795,"intersection_count":12,"elevation_m":382,"terrain_relief_m":10,"source_note":"OSM道路与设施聚合；SRTM高程采样；均为教学裁剪","accessibility_proxy":0.7909,"osm_intensity_class":"高","core_zone":"核心"},"geometry":{"type":"Polygon","coordinates":[[[108.9398,34.3416],[108.9473,34.3416],[108.9473,34.34785],[108.9398,34.34785],[108.9398,34.3416]]]}},{"type":"Feature","properties":{"cell_id":"xian_04_06","city_id":"xian","city_name_zh":"西安","row":4,"column":6,"area_km2":0.4785,"center_lon":108.95105,"center_lat":34.344725,"distance_to_center_km":1.09,"facility_count":0,"transit_count":0,"healthcare_count":0,"education_count":0,"park_count":0,"service_diversity":0,"facility_density_km2":0.0,"road_segment_count":41,"road_length_m":4854.87,"road_density_km_km2":10.1453,"intersection_count":11,"elevation_m":382,"terrain_relief_m":5,"source_note":"OSM道路与设施聚合；SRTM高程采样；均为教学裁剪","accessibility_proxy":0.4296,"osm_intensity_class":"较高","core_zone":"核心"},"geometry":{"type":"Polygon","coordinates":[[[108.9473,34.3416],[108.9548,34.3416],[108.9548,34.34785],[108.9473,34.34785],[108.9473,34.3416]]]}},{"type":"Feature","properties":{"cell_id":"xian_04_07","city_id":"xian","city_name_zh":"西安","row":4,"column":7,"area_km2":0.4785,"center_lon":108.95855,"center_lat":34.344725,"distance_to_center_km":1.756,"facility_count":4,"transit_count":4,"healthcare_count":0,"education_count":0,"park_count":0,"service_diversity":1,"facility_density_km2":8.3589,"road_segment_count":57,"road_length_m":5117.38,"road_density_km_km2":10.6939,"intersection_count":21,"elevation_m":379,"terrain_relief_m":13,"source_note":"OSM道路与设施聚合；SRTM高程采样；均为教学裁剪","accessibility_proxy":0.5319,"osm_intensity_class":"高","core_zone":"内圈"},"geometry":{"type":"Polygon","coordinates":[[[108.9548,34.3416],[108.9623,34.3416],[108.9623,34.34785],[108.9548,34.34785],[108.9548,34.3416]]]}},{"type":"Feature","properties":{"cell_id":"xian_04_08","city_id":"xian","city_name_zh":"西安","row":4,"column":8,"area_km2":0.4785,"center_lon":108.96605,"center_lat":34.344725,"distance_to_center_km":2.435,"facility_count":0,"transit_count":0,"healthcare_count":0,"education_count":0,"park_count":0,"service_diversity":0,"facility_density_km2":0.0,"road_segment_count":86,"road_length_m":5472.38,"road_density_km_km2":11.4357,"intersection_count":15,"elevation_m":382,"terrain_relief_m":10,"source_note":"OSM道路与设施聚合；SRTM高程采样；均为教学裁剪","accessibility_proxy":0.3994,"osm_intensity_class":"较高","core_zone":"内圈"},"geometry":{"type":"Polygon","coordinates":[[[108.9623,34.3416],[108.9698,34.3416],[108.9698,34.34785],[108.9623,34.34785],[108.9623,34.3416]]]}},{"type":"Feature","properties":{"cell_id":"xian_05_01","city_id":"xian","city_name_zh":"西安","row":5,"column":1,"area_km2":0.4786,"center_lon":108.91355,"center_lat":34.338475,"distance_to_center_km":2.435,"facility_count":0,"transit_count":0,"healthcare_count":0,"education_count":0,"park_count":0,"service_diversity":0,"facility_density_km2":0.0,"road_segment_count":67,"road_length_m":4551.64,"road_density_km_km2":9.5109,"intersection_count":12,"elevation_m":378,"terrain_relief_m":2,"source_note":"OSM道路与设施聚合；SRTM高程采样；均为教学裁剪","accessibility_proxy":0.3508,"osm_intensity_class":"较低","core_zone":"内圈"},"geometry":{"type":"Polygon","coordinates":[[[108.9098,34.33535],[108.9173,34.33535],[108.9173,34.3416],[108.9098,34.3416],[108.9098,34.33535]]]}},{"type":"Feature","properties":{"cell_id":"xian_05_02","city_id":"xian","city_name_zh":"西安","row":5,"column":2,"area_km2":0.4786,"center_lon":108.92105,"center_lat":34.338475,"distance_to_center_km":1.756,"facility_count":0,"transit_count":0,"healthcare_count":0,"education_count":0,"park_count":0,"service_diversity":0,"facility_density_km2":0.0,"road_segment_count":17,"road_length_m":1465.76,"road_density_km_km2":3.0628,"intersection_count":2,"elevation_m":376,"terrain_relief_m":7,"source_note":"OSM道路与设施聚合；SRTM高程采样；均为教学裁剪","accessibility_proxy":0.2165,"osm_intensity_class":"低","core_zone":"内圈"},"geometry":{"type":"Polygon","coordinates":[[[108.9173,34.33535],[108.9248,34.33535],[108.9248,34.3416],[108.9173,34.3416],[108.9173,34.33535]]]}},{"type":"Feature","properties":{"cell_id":"xian_05_03","city_id":"xian","city_name_zh":"西安","row":5,"column":3,"area_km2":0.4786,"center_lon":108.92855,"center_lat":34.338475,"distance_to_center_km":1.09,"facility_count":0,"transit_count":0,"healthcare_count":0,"education_count":0,"park_count":0,"service_diversity":0,"facility_density_km2":0.0,"road_segment_count":27,"road_length_m":2274.61,"road_density_km_km2":4.7529,"intersection_count":3,"elevation_m":378,"terrain_relief_m":5,"source_note":"OSM道路与设施聚合；SRTM高程采样；均为教学裁剪","accessibility_proxy":0.2937,"osm_intensity_class":"低","core_zone":"核心"},"geometry":{"type":"Polygon","coordinates":[[[108.9248,34.33535],[108.9323,34.33535],[108.9323,34.3416],[108.9248,34.3416],[108.9248,34.33535]]]}},{"type":"Feature","properties":{"cell_id":"xian_05_04","city_id":"xian","city_name_zh":"西安","row":5,"column":4,"area_km2":0.4786,"center_lon":108.93605,"center_lat":34.338475,"distance_to_center_km":0.489,"facility_count":0,"transit_count":0,"healthcare_count":0,"education_count":0,"park_count":0,"service_diversity":0,"facility_density_km2":0.0,"road_segment_count":37,"road_length_m":3905.21,"road_density_km_km2":8.1602,"intersection_count":7,"elevation_m":386,"terrain_relief_m":7,"source_note":"OSM道路与设施聚合；SRTM高程采样；均为教学裁剪","accessibility_proxy":0.4182,"osm_intensity_class":"较高","core_zone":"核心"},"geometry":{"type":"Polygon","coordinates":[[[108.9323,34.33535],[108.9398,34.33535],[108.9398,34.3416],[108.9323,34.3416],[108.9323,34.33535]]]}},{"type":"Feature","properties":{"cell_id":"xian_05_05","city_id":"xian","city_name_zh":"西安","row":5,"column":5,"area_km2":0.4786,"center_lon":108.94355,"center_lat":34.338475,"distance_to_center_km":0.489,"facility_count":8,"transit_count":8,"healthcare_count":0,"education_count":0,"park_count":0,"service_diversity":1,"facility_density_km2":16.7165,"road_segment_count":41,"road_length_m":2677.14,"road_density_km_km2":5.594,"intersection_count":6,"elevation_m":384,"terrain_relief_m":2,"source_note":"OSM道路与设施聚合；SRTM高程采样；均为教学裁剪","accessibility_proxy":0.5996,"osm_intensity_class":"高","core_zone":"核心"},"geometry":{"type":"Polygon","coordinates":[[[108.9398,34.33535],[108.9473,34.33535],[108.9473,34.3416],[108.9398,34.3416],[108.9398,34.33535]]]}},{"type":"Feature","properties":{"cell_id":"xian_05_06","city_id":"xian","city_name_zh":"西安","row":5,"column":6,"area_km2":0.4786,"center_lon":108.95105,"center_lat":34.338475,"distance_to_center_km":1.09,"facility_count":0,"transit_count":0,"healthcare_count":0,"education_count":0,"park_count":0,"service_diversity":0,"facility_density_km2":0.0,"road_segment_count":63,"road_length_m":4256.85,"road_density_km_km2":8.8949,"intersection_count":8,"elevation_m":388,"terrain_relief_m":6,"source_note":"OSM道路与设施聚合；SRTM高程采样；均为教学裁剪","accessibility_proxy":0.3981,"osm_intensity_class":"较高","core_zone":"核心"},"geometry":{"type":"Polygon","coordinates":[[[108.9473,34.33535],[108.9548,34.33535],[108.9548,34.3416],[108.9473,34.3416],[108.9473,34.33535]]]}},{"type":"Feature","properties":{"cell_id":"xian_05_07","city_id":"xian","city_name_zh":"西安","row":5,"column":7,"area_km2":0.4786,"center_lon":108.95855,"center_lat":34.338475,"distance_to_center_km":1.756,"facility_count":0,"transit_count":0,"healthcare_count":0,"education_count":0,"park_count":0,"service_diversity":0,"facility_density_km2":0.0,"road_segment_count":38,"road_length_m":4474.99,"road_density_km_km2":9.3508,"intersection_count":12,"elevation_m":390,"terrain_relief_m":8,"source_note":"OSM道路与设施聚合；SRTM高程采样；均为教学裁剪","accessibility_proxy":0.375,"osm_intensity_class":"较低","core_zone":"内圈"},"geometry":{"type":"Polygon","coordinates":[[[108.9548,34.33535],[108.9623,34.33535],[108.9623,34.3416],[108.9548,34.3416],[108.9548,34.33535]]]}},{"type":"Feature","properties":{"cell_id":"xian_05_08","city_id":"xian","city_name_zh":"西安","row":5,"column":8,"area_km2":0.4786,"center_lon":108.96605,"center_lat":34.338475,"distance_to_center_km":2.435,"facility_count":4,"transit_count":4,"healthcare_count":0,"education_count":0,"park_count":0,"service_diversity":1,"facility_density_km2":8.3582,"road_segment_count":55,"road_length_m":3930.77,"road_density_km_km2":8.2136,"intersection_count":10,"elevation_m":391,"terrain_relief_m":4,"source_note":"OSM道路与设施聚合；SRTM高程采样；均为教学裁剪","accessibility_proxy":0.4412,"osm_intensity_class":"较高","core_zone":"内圈"},"geometry":{"type":"Polygon","coordinates":[[[108.9623,34.33535],[108.9698,34.33535],[108.9698,34.3416],[108.9623,34.3416],[108.9623,34.33535]]]}},{"type":"Feature","properties":{"cell_id":"xian_06_01","city_id":"xian","city_name_zh":"西安","row":6,"column":1,"area_km2":0.4786,"center_lon":108.91355,"center_lat":34.332225,"distance_to_center_km":2.626,"facility_count":0,"transit_count":0,"healthcare_count":0,"education_count":0,"park_count":0,"service_diversity":0,"facility_density_km2":0.0,"road_segment_count":25,"road_length_m":2909.55,"road_density_km_km2":6.0792,"intersection_count":1,"elevation_m":378,"terrain_relief_m":7,"source_note":"OSM道路与设施聚合；SRTM高程采样；均为教学裁剪","accessibility_proxy":0.2575,"osm_intensity_class":"低","core_zone":"内圈"},"geometry":{"type":"Polygon","coordinates":[[[108.9098,34.3291],[108.9173,34.3291],[108.9173,34.33535],[108.9098,34.33535],[108.9098,34.3291]]]}},{"type":"Feature","properties":{"cell_id":"xian_06_02","city_id":"xian","city_name_zh":"西安","row":6,"column":2,"area_km2":0.4786,"center_lon":108.92105,"center_lat":34.332225,"distance_to_center_km":2.013,"facility_count":0,"transit_count":0,"healthcare_count":0,"education_count":0,"park_count":0,"service_diversity":0,"facility_density_km2":0.0,"road_segment_count":19,"road_length_m":2731.47,"road_density_km_km2":5.7071,"intersection_count":1,"elevation_m":383,"terrain_relief_m":8,"source_note":"OSM道路与设施聚合；SRTM高程采样；均为教学裁剪","accessibility_proxy":0.2717,"osm_intensity_class":"低","core_zone":"内圈"},"geometry":{"type":"Polygon","coordinates":[[[108.9173,34.3291],[108.9248,34.3291],[108.9248,34.33535],[108.9173,34.33535],[108.9173,34.3291]]]}},{"type":"Feature","properties":{"cell_id":"xian_06_03","city_id":"xian","city_name_zh":"西安","row":6,"column":3,"area_km2":0.4786,"center_lon":108.92855,"center_lat":34.332225,"distance_to_center_km":1.468,"facility_count":0,"transit_count":0,"healthcare_count":0,"education_count":0,"park_count":0,"service_diversity":0,"facility_density_km2":0.0,"road_segment_count":46,"road_length_m":4411.03,"road_density_km_km2":9.2164,"intersection_count":10,"elevation_m":383,"terrain_relief_m":11,"source_note":"OSM道路与设施聚合；SRTM高程采样；均为教学裁剪","accessibility_proxy":0.3856,"osm_intensity_class":"较高","core_zone":"核心"},"geometry":{"type":"Polygon","coordinates":[[[108.9248,34.3291],[108.9323,34.3291],[108.9323,34.33535],[108.9248,34.33535],[108.9248,34.3291]]]}},{"type":"Feature","properties":{"cell_id":"xian_06_04","city_id":"xian","city_name_zh":"西安","row":6,"column":4,"area_km2":0.4786,"center_lon":108.93605,"center_lat":34.332225,"distance_to_center_km":1.098,"facility_count":0,"transit_count":0,"healthcare_count":0,"education_count":0,"park_count":0,"service_diversity":0,"facility_density_km2":0.0,"road_segment_count":72,"road_length_m":4927.03,"road_density_km_km2":10.2946,"intersection_count":16,"elevation_m":390,"terrain_relief_m":13,"source_note":"OSM道路与设施聚合；SRTM高程采样；均为教学裁剪","accessibility_proxy":0.4329,"osm_intensity_class":"较高","core_zone":"核心"},"geometry":{"type":"Polygon","coordinates":[[[108.9323,34.3291],[108.9398,34.3291],[108.9398,34.33535],[108.9323,34.33535],[108.9323,34.3291]]]}},{"type":"Feature","properties":{"cell_id":"xian_06_05","city_id":"xian","city_name_zh":"西安","row":6,"column":5,"area_km2":0.4786,"center_lon":108.94355,"center_lat":34.332225,"distance_to_center_km":1.098,"facility_count":4,"transit_count":4,"healthcare_count":0,"education_count":0,"park_count":0,"service_diversity":1,"facility_density_km2":8.3576,"road_segment_count":52,"road_length_m":5812.03,"road_density_km_km2":12.1437,"intersection_count":13,"elevation_m":387,"terrain_relief_m":8,"source_note":"OSM道路与设施聚合；SRTM高程采样；均为教学裁剪","accessibility_proxy":0.6026,"osm_intensity_class":"高","core_zone":"核心"},"geometry":{"type":"Polygon","coordinates":[[[108.9398,34.3291],[108.9473,34.3291],[108.9473,34.33535],[108.9398,34.33535],[108.9398,34.3291]]]}},{"type":"Feature","properties":{"cell_id":"xian_06_06","city_id":"xian","city_name_zh":"西安","row":6,"column":6,"area_km2":0.4786,"center_lon":108.95105,"center_lat":34.332225,"distance_to_center_km":1.468,"facility_count":0,"transit_count":0,"healthcare_count":0,"education_count":0,"park_count":0,"service_diversity":0,"facility_density_km2":0.0,"road_segment_count":71,"road_length_m":5058.01,"road_density_km_km2":10.5682,"intersection_count":15,"elevation_m":387,"terrain_relief_m":7,"source_note":"OSM道路与设施聚合；SRTM高程采样；均为教学裁剪","accessibility_proxy":0.4197,"osm_intensity_class":"较高","core_zone":"核心"},"geometry":{"type":"Polygon","coordinates":[[[108.9473,34.3291],[108.9548,34.3291],[108.9548,34.33535],[108.9473,34.33535],[108.9473,34.3291]]]}},{"type":"Feature","properties":{"cell_id":"xian_06_07","city_id":"xian","city_name_zh":"西安","row":6,"column":7,"area_km2":0.4786,"center_lon":108.95855,"center_lat":34.332225,"distance_to_center_km":2.013,"facility_count":0,"transit_count":0,"healthcare_count":0,"education_count":0,"park_count":0,"service_diversity":0,"facility_density_km2":0.0,"road_segment_count":62,"road_length_m":5524.0,"road_density_km_km2":11.5419,"intersection_count":18,"elevation_m":391,"terrain_relief_m":2,"source_note":"OSM道路与设施聚合；SRTM高程采样；均为教学裁剪","accessibility_proxy":0.4188,"osm_intensity_class":"较高","core_zone":"内圈"},"geometry":{"type":"Polygon","coordinates":[[[108.9548,34.3291],[108.9623,34.3291],[108.9623,34.33535],[108.9548,34.33535],[108.9548,34.3291]]]}},{"type":"Feature","properties":{"cell_id":"xian_06_08","city_id":"xian","city_name_zh":"西安","row":6,"column":8,"area_km2":0.4786,"center_lon":108.96605,"center_lat":34.332225,"distance_to_center_km":2.626,"facility_count":0,"transit_count":0,"healthcare_count":0,"education_count":0,"park_count":0,"service_diversity":0,"facility_density_km2":0.0,"road_segment_count":22,"road_length_m":3951.8,"road_density_km_km2":8.2569,"intersection_count":9,"elevation_m":389,"terrain_relief_m":5,"source_note":"OSM道路与设施聚合；SRTM高程采样；均为教学裁剪","accessibility_proxy":0.3124,"osm_intensity_class":"较低","core_zone":"内圈"},"geometry":{"type":"Polygon","coordinates":[[[108.9623,34.3291],[108.9698,34.3291],[108.9698,34.33535],[108.9623,34.33535],[108.9623,34.3291]]]}},{"type":"Feature","properties":{"cell_id":"xian_07_01","city_id":"xian","city_name_zh":"西安","row":7,"column":1,"area_km2":0.4786,"center_lon":108.91355,"center_lat":34.325975,"distance_to_center_km":2.971,"facility_count":0,"transit_count":0,"healthcare_count":0,"education_count":0,"park_count":0,"service_diversity":0,"facility_density_km2":0.0,"road_segment_count":72,"road_length_m":4567.3,"road_density_km_km2":9.5422,"intersection_count":30,"elevation_m":381,"terrain_relief_m":5,"source_note":"OSM道路与设施聚合；SRTM高程采样；均为教学裁剪","accessibility_proxy":0.3335,"osm_intensity_class":"较低","core_zone":"内圈"},"geometry":{"type":"Polygon","coordinates":[[[108.9098,34.32285],[108.9173,34.32285],[108.9173,34.3291],[108.9098,34.3291],[108.9098,34.32285]]]}},{"type":"Feature","properties":{"cell_id":"xian_07_02","city_id":"xian","city_name_zh":"西安","row":7,"column":2,"area_km2":0.4786,"center_lon":108.92105,"center_lat":34.325975,"distance_to_center_km":2.446,"facility_count":0,"transit_count":0,"healthcare_count":0,"education_count":0,"park_count":0,"service_diversity":0,"facility_density_km2":0.0,"road_segment_count":28,"road_length_m":2734.3,"road_density_km_km2":5.7126,"intersection_count":3,"elevation_m":384,"terrain_relief_m":5,"source_note":"OSM道路与设施聚合；SRTM高程采样；均为教学裁剪","accessibility_proxy":0.2547,"osm_intensity_class":"低","core_zone":"内圈"},"geometry":{"type":"Polygon","coordinates":[[[108.9173,34.32285],[108.9248,34.32285],[108.9248,34.3291],[108.9173,34.3291],[108.9173,34.32285]]]}},{"type":"Feature","properties":{"cell_id":"xian_07_03","city_id":"xian","city_name_zh":"西安","row":7,"column":3,"area_km2":0.4786,"center_lon":108.92855,"center_lat":34.325975,"distance_to_center_km":2.021,"facility_count":0,"transit_count":0,"healthcare_count":0,"education_count":0,"park_count":0,"service_diversity":0,"facility_density_km2":0.0,"road_segment_count":46,"road_length_m":4485.62,"road_density_km_km2":9.3716,"intersection_count":9,"elevation_m":388,"terrain_relief_m":4,"source_note":"OSM道路与设施聚合；SRTM高程采样；均为教学裁剪","accessibility_proxy":0.3638,"osm_intensity_class":"较低","core_zone":"内圈"},"geometry":{"type":"Polygon","coordinates":[[[108.9248,34.32285],[108.9323,34.32285],[108.9323,34.3291],[108.9248,34.3291],[108.9248,34.32285]]]}},{"type":"Feature","properties":{"cell_id":"xian_07_04","city_id":"xian","city_name_zh":"西安","row":7,"column":4,"area_km2":0.4786,"center_lon":108.93605,"center_lat":34.325975,"distance_to_center_km":1.771,"facility_count":0,"transit_count":0,"healthcare_count":0,"education_count":0,"park_count":0,"service_diversity":0,"facility_density_km2":0.0,"road_segment_count":45,"road_length_m":3895.16,"road_density_km_km2":8.138,"intersection_count":11,"elevation_m":389,"terrain_relief_m":4,"source_note":"OSM道路与设施聚合；SRTM高程采样；均为教学裁剪","accessibility_proxy":0.3437,"osm_intensity_class":"较低","core_zone":"内圈"},"geometry":{"type":"Polygon","coordinates":[[[108.9323,34.32285],[108.9398,34.32285],[108.9398,34.3291],[108.9323,34.3291],[108.9323,34.32285]]]}},{"type":"Feature","properties":{"cell_id":"xian_07_05","city_id":"xian","city_name_zh":"西安","row":7,"column":5,"area_km2":0.4786,"center_lon":108.94355,"center_lat":34.325975,"distance_to_center_km":1.771,"facility_count":1,"transit_count":0,"healthcare_count":0,"education_count":1,"park_count":0,"service_diversity":1,"facility_density_km2":2.0892,"road_segment_count":62,"road_length_m":4534.7,"road_density_km_km2":9.4741,"intersection_count":14,"elevation_m":385,"terrain_relief_m":8,"source_note":"OSM道路与设施聚合；SRTM高程采样；均为教学裁剪","accessibility_proxy":0.4082,"osm_intensity_class":"较高","core_zone":"内圈"},"geometry":{"type":"Polygon","coordinates":[[[108.9398,34.32285],[108.9473,34.32285],[108.9473,34.3291],[108.9398,34.3291],[108.9398,34.32285]]]}},{"type":"Feature","properties":{"cell_id":"xian_07_06","city_id":"xian","city_name_zh":"西安","row":7,"column":6,"area_km2":0.4786,"center_lon":108.95105,"center_lat":34.325975,"distance_to_center_km":2.021,"facility_count":0,"transit_count":0,"healthcare_count":0,"education_count":0,"park_count":0,"service_diversity":0,"facility_density_km2":0.0,"road_segment_count":74,"road_length_m":5239.78,"road_density_km_km2":10.9472,"intersection_count":19,"elevation_m":392,"terrain_relief_m":5,"source_note":"OSM道路与设施聚合；SRTM高程采样；均为教学裁剪","accessibility_proxy":0.4035,"osm_intensity_class":"较高","core_zone":"内圈"},"geometry":{"type":"Polygon","coordinates":[[[108.9473,34.32285],[108.9548,34.32285],[108.9548,34.3291],[108.9473,34.3291],[108.9473,34.32285]]]}},{"type":"Feature","properties":{"cell_id":"xian_07_07","city_id":"xian","city_name_zh":"西安","row":7,"column":7,"area_km2":0.4786,"center_lon":108.95855,"center_lat":34.325975,"distance_to_center_km":2.446,"facility_count":0,"transit_count":0,"healthcare_count":0,"education_count":0,"park_count":0,"service_diversity":0,"facility_density_km2":0.0,"road_segment_count":75,"road_length_m":5596.84,"road_density_km_km2":11.6932,"intersection_count":19,"elevation_m":389,"terrain_relief_m":3,"source_note":"OSM道路与设施聚合；SRTM高程采样；均为教学裁剪","accessibility_proxy":0.4055,"osm_intensity_class":"较高","core_zone":"内圈"},"geometry":{"type":"Polygon","coordinates":[[[108.9548,34.32285],[108.9623,34.32285],[108.9623,34.3291],[108.9548,34.3291],[108.9548,34.32285]]]}},{"type":"Feature","properties":{"cell_id":"xian_07_08","city_id":"xian","city_name_zh":"西安","row":7,"column":8,"area_km2":0.4786,"center_lon":108.96605,"center_lat":34.325975,"distance_to_center_km":2.971,"facility_count":4,"transit_count":4,"healthcare_count":0,"education_count":0,"park_count":0,"service_diversity":1,"facility_density_km2":8.357,"road_segment_count":47,"road_length_m":5263.11,"road_density_km_km2":10.9959,"intersection_count":15,"elevation_m":392,"terrain_relief_m":8,"source_note":"OSM道路与设施聚合；SRTM高程采样；均为教学裁剪","accessibility_proxy":0.4932,"osm_intensity_class":"高","core_zone":"内圈"},"geometry":{"type":"Polygon","coordinates":[[[108.9623,34.32285],[108.9698,34.32285],[108.9698,34.3291],[108.9623,34.3291],[108.9623,34.32285]]]}},{"type":"Feature","properties":{"cell_id":"xian_08_01","city_id":"xian","city_name_zh":"西安","row":8,"column":1,"area_km2":0.4787,"center_lon":108.91355,"center_lat":34.319725,"distance_to_center_km":3.424,"facility_count":0,"transit_count":0,"healthcare_count":0,"education_count":0,"park_count":0,"service_diversity":0,"facility_density_km2":0.0,"road_segment_count":19,"road_length_m":1650.73,"road_density_km_km2":3.4485,"intersection_count":8,"elevation_m":389,"terrain_relief_m":6,"source_note":"OSM道路与设施聚合；SRTM高程采样；均为教学裁剪","accessibility_proxy":0.1668,"osm_intensity_class":"低","core_zone":"外圈"},"geometry":{"type":"Polygon","coordinates":[[[108.9098,34.3166],[108.9173,34.3166],[108.9173,34.32285],[108.9098,34.32285],[108.9098,34.3166]]]}},{"type":"Feature","properties":{"cell_id":"xian_08_02","city_id":"xian","city_name_zh":"西安","row":8,"column":2,"area_km2":0.4787,"center_lon":108.92105,"center_lat":34.319725,"distance_to_center_km":2.98,"facility_count":0,"transit_count":0,"healthcare_count":0,"education_count":0,"park_count":0,"service_diversity":0,"facility_density_km2":0.0,"road_segment_count":29,"road_length_m":2407.71,"road_density_km_km2":5.0299,"intersection_count":2,"elevation_m":392,"terrain_relief_m":8,"source_note":"OSM道路与设施聚合；SRTM高程采样；均为教学裁剪","accessibility_proxy":0.2194,"osm_intensity_class":"低","core_zone":"内圈"},"geometry":{"type":"Polygon","coordinates":[[[108.9173,34.3166],[108.9248,34.3166],[108.9248,34.32285],[108.9173,34.32285],[108.9173,34.3166]]]}},{"type":"Feature","properties":{"cell_id":"xian_08_03","city_id":"xian","city_name_zh":"西安","row":8,"column":3,"area_km2":0.4787,"center_lon":108.92855,"center_lat":34.319725,"distance_to_center_km":2.643,"facility_count":5,"transit_count":5,"healthcare_count":0,"education_count":0,"park_count":0,"service_diversity":1,"facility_density_km2":10.4455,"road_segment_count":68,"road_length_m":4446.04,"road_density_km_km2":9.2882,"intersection_count":11,"elevation_m":389,"terrain_relief_m":7,"source_note":"OSM道路与设施聚合；SRTM高程采样；均为教学裁剪","accessibility_proxy":0.4916,"osm_intensity_class":"高","core_zone":"内圈"},"geometry":{"type":"Polygon","coordinates":[[[108.9248,34.3166],[108.9323,34.3166],[108.9323,34.32285],[108.9248,34.32285],[108.9248,34.3166]]]}},{"type":"Feature","properties":{"cell_id":"xian_08_04","city_id":"xian","city_name_zh":"西安","row":8,"column":4,"area_km2":0.4787,"center_lon":108.93605,"center_lat":34.319725,"distance_to_center_km":2.457,"facility_count":0,"transit_count":0,"healthcare_count":0,"education_count":0,"park_count":0,"service_diversity":0,"facility_density_km2":0.0,"road_segment_count":46,"road_length_m":4009.53,"road_density_km_km2":8.3763,"intersection_count":11,"elevation_m":395,"terrain_relief_m":6,"source_note":"OSM道路与设施聚合；SRTM高程采样；均为教学裁剪","accessibility_proxy":0.3214,"osm_intensity_class":"较低","core_zone":"内圈"},"geometry":{"type":"Polygon","coordinates":[[[108.9323,34.3166],[108.9398,34.3166],[108.9398,34.32285],[108.9323,34.32285],[108.9323,34.3166]]]}},{"type":"Feature","properties":{"cell_id":"xian_08_05","city_id":"xian","city_name_zh":"西安","row":8,"column":5,"area_km2":0.4787,"center_lon":108.94355,"center_lat":34.319725,"distance_to_center_km":2.457,"facility_count":7,"transit_count":7,"healthcare_count":0,"education_count":0,"park_count":0,"service_diversity":1,"facility_density_km2":14.6237,"road_segment_count":69,"road_length_m":3298.93,"road_density_km_km2":6.8918,"intersection_count":5,"elevation_m":393,"terrain_relief_m":2,"source_note":"OSM道路与设施聚合；SRTM高程采样；均为教学裁剪","accessibility_proxy":0.4993,"osm_intensity_class":"高","core_zone":"内圈"},"geometry":{"type":"Polygon","coordinates":[[[108.9398,34.3166],[108.9473,34.3166],[108.9473,34.32285],[108.9398,34.32285],[108.9398,34.3166]]]}},{"type":"Feature","properties":{"cell_id":"xian_08_06","city_id":"xian","city_name_zh":"西安","row":8,"column":6,"area_km2":0.4787,"center_lon":108.95105,"center_lat":34.319725,"distance_to_center_km":2.643,"facility_count":1,"transit_count":1,"healthcare_count":0,"education_count":0,"park_count":0,"service_diversity":1,"facility_density_km2":2.0891,"road_segment_count":40,"road_length_m":3255.58,"road_density_km_km2":6.8012,"intersection_count":8,"elevation_m":393,"terrain_relief_m":7,"source_note":"OSM道路与设施聚合；SRTM高程采样；均为教学裁剪","accessibility_proxy":0.3058,"osm_intensity_class":"较低","core_zone":"内圈"},"geometry":{"type":"Polygon","coordinates":[[[108.9473,34.3166],[108.9548,34.3166],[108.9548,34.32285],[108.9473,34.32285],[108.9473,34.3166]]]}},{"type":"Feature","properties":{"cell_id":"xian_08_07","city_id":"xian","city_name_zh":"西安","row":8,"column":7,"area_km2":0.4787,"center_lon":108.95855,"center_lat":34.319725,"distance_to_center_km":2.98,"facility_count":4,"transit_count":4,"healthcare_count":0,"education_count":0,"park_count":0,"service_diversity":1,"facility_density_km2":8.3564,"road_segment_count":125,"road_length_m":6644.48,"road_density_km_km2":13.8809,"intersection_count":23,"elevation_m":391,"terrain_relief_m":8,"source_note":"OSM道路与设施聚合；SRTM高程采样；均为教学裁剪","accessibility_proxy":0.5656,"osm_intensity_class":"高","core_zone":"内圈"},"geometry":{"type":"Polygon","coordinates":[[[108.9548,34.3166],[108.9623,34.3166],[108.9623,34.32285],[108.9548,34.32285],[108.9548,34.3166]]]}},{"type":"Feature","properties":{"cell_id":"xian_08_08","city_id":"xian","city_name_zh":"西安","row":8,"column":8,"area_km2":0.4787,"center_lon":108.96605,"center_lat":34.319725,"distance_to_center_km":3.424,"facility_count":7,"transit_count":7,"healthcare_count":0,"education_count":0,"park_count":0,"service_diversity":1,"facility_density_km2":14.6237,"road_segment_count":65,"road_length_m":5487.8,"road_density_km_km2":11.4645,"intersection_count":15,"elevation_m":395,"terrain_relief_m":8,"source_note":"OSM道路与设施聚合；SRTM高程采样；均为教学裁剪","accessibility_proxy":0.5842,"osm_intensity_class":"高","core_zone":"外圈"},"geometry":{"type":"Polygon","coordinates":[[[108.9623,34.3166],[108.9698,34.3166],[108.9698,34.32285],[108.9623,34.32285],[108.9623,34.3166]]]}}]}