{"type":"FeatureCollection","name":"xian_ghsl_boundary","crs":{"type":"name","properties":{"name":"urn:ogc:def:crs:OGC:1.3:CRS84"}},"features":[{"type":"Feature","properties":{"uc_id":8006,"city_name_en":"Xi'an","city_name_zh":"西安","country":"China","urban_area_km2_2025":691,"population_2025":5298991,"population_density_km2_2025":7668.58,"gdp_average_ppp_1990":6415062,"gdp_average_ppp_2000":18663780,"gdp_average_ppp_2010":75350100,"gdp_average_ppp_2020":128818400,"gdp_total_ppp_1990":6184119296,"gdp_total_ppp_2000":18066540544,"gdp_total_ppp_2010":72938897408,"gdp_total_ppp_2020":125000000000,"hdi_1990":0.453,"hdi_2000":0.548,"hdi_2010":0.684,"hdi_2020":0.763},"geometry":{"type":"Polygon","coordinates":[[[109.015538442737,34.4143216541283],[109.026780634837,34.4143216541283],[109.019712070344,34.4056208630211],[109.030953533911,34.4056208630211],[109.023887315817,34.3969204136948],[109.012646580784,34.3969204136948],[108.998524821074,34.3795205356936],[109.009764099938,34.3795205356936],[109.002707100356,34.3708211080081],[109.025184201915,34.3708211080081],[109.00402725282,34.3447248650218],[109.015263622939,34.3447248650218],[109.008216714132,34.3360267975459],[109.019452357514,34.3360267975459],[109.01240778792,34.327329069873],[109.046112541448,34.327329069873],[109.039068858492,34.3186316817542],[109.050303050196,34.3186316817542],[109.043261705555,34.3099346329407],[109.065728639082,34.3099346329407],[109.072771434503,34.3186316817542],[109.084005627106,34.3186316817542],[109.069921647842,34.3012379231828],[109.081154388767,34.3012379231828],[109.074116268179,34.292541553715],[109.085348285062,34.292541553715],[109.078312500094,34.2838455228031],[109.089543792935,34.2838455228031],[109.082510343586,34.2751498301966],[109.093740911487,34.2751498301966],[109.079681739199,34.2577594626083],[109.090910860812,34.2577594626083],[109.083885136077,34.2490647871242],[109.106341931218,34.2490647871242],[109.078263788049,34.2142894668091],[109.055812770872,34.2142894668091],[109.048802306716,34.2055964812443],[109.037577519475,34.2055964812443],[108.988594566344,34.1447550357835],[108.977374822245,34.1447550357835],[108.970390137941,34.1360647492239],[108.959171112494,34.1360647492239],[108.952190183149,34.1273747996356],[108.940971876353,34.1273747996356],[108.927020554901,34.1099959088605],[108.904586815021,34.1099959088605],[108.911559523883,34.1186851860187],[108.866689173108,34.1186851860187],[108.873662039176,34.1273747996356],[108.851225426484,34.1273747996356],[108.844253997721,34.1186851860187],[108.81060123419,34.1186851860187],[108.817570507895,34.1273747996356],[108.795133895203,34.1273747996356],[108.802104761621,34.1360647492239],[108.813323787068,34.1360647492239],[108.827276053548,34.15344565957],[108.816055589898,34.15344565957],[108.823035554453,34.1621366200956],[108.800593187153,34.1621366200956],[108.835531359905,34.2055964812443],[108.824306573562,34.2055964812443],[108.831302606282,34.2142894668091],[108.797626081414,34.2142894668091],[108.80462299089,34.2229827894066],[108.793396760954,34.2229827894066],[108.800395991677,34.2316764500329],[108.777942086416,34.2316764500329],[108.770944300184,34.2229827894066],[108.759718070248,34.2229827894066],[108.752724047957,34.2142894668091],[108.741498540267,34.2142894668091],[108.755488181154,34.2316764500329],[108.744261228973,34.2316764500329],[108.751259891062,34.2403704496831],[108.762487566387,34.2403704496831],[108.776495471822,34.2577594626083],[108.765266350209,34.2577594626083],[108.772274149961,34.2664544771295],[108.761044305204,34.2664544771295],[108.768054429796,34.2751498301966],[108.745593293097,34.2751498301966],[108.752605018487,34.2838455228031],[108.741373725646,34.2838455228031],[108.748387777673,34.292541553715],[108.73715576079,34.292541553715],[108.744172138555,34.3012379231828],[108.721706655806,34.3012379231828],[108.714691727024,34.292541553715],[108.703459710141,34.292541553715],[108.710473913983,34.3012379231828],[108.676775688512,34.3012379231828],[108.690808902183,34.3186316817542],[108.71327728649,34.3186316817542],[108.720299923716,34.327329069873],[108.731534842157,34.327329069873],[108.73856126129,34.3360267975459],[108.74979690557,34.3360267975459],[108.756827108407,34.3447248650218],[108.768063478526,34.3447248650218],[108.761032548952,34.3360267975459],[108.817210768556,34.3360267975459],[108.824245329121,34.3447248650218],[108.83548169924,34.3447248650218],[108.856605935285,34.3708211080081],[108.867844486514,34.3708211080081],[108.874892755369,34.3795205356936],[108.908610591961,34.3795205356936],[108.915664112368,34.3882203044207],[108.949384131865,34.3882203044207],[108.956442906518,34.3969204136948],[108.967683641551,34.3969204136948],[108.981811865538,34.4143216541283],[109.004296250637,34.4143216541283],[109.011366432995,34.4230227857797],[109.022609354528,34.4230227857797],[109.015538442737,34.4143216541283]]]}}]}