{"type":"FeatureCollection","name":"xian_facilities","crs":{"type":"name","properties":{"name":"urn:ogc:def:crs:OGC:1.3:CRS84"}},"features":[{"type":"Feature","properties":{"facility_id":"osm_node_13207243087","osm_id":"13207243087","name":"开火","category":"community","category_zh":"社区服务","amenity":"community_centre","railway":null,"source":"OpenStreetMap"},"geometry":{"type":"Point","coordinates":[108.9284695,34.3422177]}},{"type":"Feature","properties":{"facility_id":"osm_node_8975921362","osm_id":"8975921362","name":"新东方优能中学","category":"education","category_zh":"教育","amenity":"school","railway":null,"source":"OpenStreetMap"},"geometry":{"type":"Point","coordinates":[108.9400709,34.3239167]}},{"type":"Feature","properties":{"facility_id":"osm_node_12451270618","osm_id":"12451270618","name":"市第三医院","category":"transit","category_zh":"公共交通","amenity":null,"railway":"station","source":"OpenStreetMap"},"geometry":{"type":"Point","coordinates":[108.9556181,34.3194595]}},{"type":"Feature","properties":{"facility_id":"osm_node_12451270619","osm_id":"12451270619","name":"霸城门","category":"transit","category_zh":"公共交通","amenity":null,"railway":"station","source":"OpenStreetMap"},"geometry":{"type":"Point","coordinates":[108.925121,34.3194402]}},{"type":"Feature","properties":{"facility_id":"osm_node_13021032643","osm_id":"13021032643","name":"青少年中心-E口","category":"transit","category_zh":"公共交通","amenity":null,"railway":"subway_entrance","source":"OpenStreetMap"},"geometry":{"type":"Point","coordinates":[108.9404792,34.3196326]}},{"type":"Feature","properties":{"facility_id":"osm_node_13021032644","osm_id":"13021032644","name":"青少年中心-F口","category":"transit","category_zh":"公共交通","amenity":null,"railway":"subway_entrance","source":"OpenStreetMap"},"geometry":{"type":"Point","coordinates":[108.941536,34.3191952]}},{"type":"Feature","properties":{"facility_id":"osm_node_13288666550","osm_id":"13288666550","name":"霸城门-A口","category":"transit","category_zh":"公共交通","amenity":null,"railway":"subway_entrance","source":"OpenStreetMap"},"geometry":{"type":"Point","coordinates":[108.9248389,34.3200779]}},{"type":"Feature","properties":{"facility_id":"osm_node_13288666551","osm_id":"13288666551","name":"霸城门-D口","category":"transit","category_zh":"公共交通","amenity":null,"railway":"subway_entrance","source":"OpenStreetMap"},"geometry":{"type":"Point","coordinates":[108.9253875,34.3200312]}},{"type":"Feature","properties":{"facility_id":"osm_node_13288666552","osm_id":"13288666552","name":"霸城门-B口","category":"transit","category_zh":"公共交通","amenity":null,"railway":"subway_entrance","source":"OpenStreetMap"},"geometry":{"type":"Point","coordinates":[108.9248442,34.3187494]}},{"type":"Feature","properties":{"facility_id":"osm_node_13288666553","osm_id":"13288666553","name":"霸城门-C口","category":"transit","category_zh":"公共交通","amenity":null,"railway":"subway_entrance","source":"OpenStreetMap"},"geometry":{"type":"Point","coordinates":[108.9260405,34.3192361]}},{"type":"Feature","properties":{"facility_id":"osm_node_13288666743","osm_id":"13288666743","name":"市第三医院-D口","category":"transit","category_zh":"公共交通","amenity":null,"railway":"subway_entrance","source":"OpenStreetMap"},"geometry":{"type":"Point","coordinates":[108.9559435,34.3199577]}},{"type":"Feature","properties":{"facility_id":"osm_node_13288666744","osm_id":"13288666744","name":"市第三医院-A口","category":"transit","category_zh":"公共交通","amenity":null,"railway":"subway_entrance","source":"OpenStreetMap"},"geometry":{"type":"Point","coordinates":[108.9547421,34.3196001]}},{"type":"Feature","properties":{"facility_id":"osm_node_13288666745","osm_id":"13288666745","name":"市第三医院-B口","category":"transit","category_zh":"公共交通","amenity":null,"railway":"subway_entrance","source":"OpenStreetMap"},"geometry":{"type":"Point","coordinates":[108.9553418,34.3189235]}},{"type":"Feature","properties":{"facility_id":"osm_node_13288666746","osm_id":"13288666746","name":"市第三医院-C口","category":"transit","category_zh":"公共交通","amenity":null,"railway":"subway_entrance","source":"OpenStreetMap"},"geometry":{"type":"Point","coordinates":[108.9563154,34.3192173]}},{"type":"Feature","properties":{"facility_id":"osm_node_13288666781","osm_id":"13288666781","name":"余家寨-K口","category":"transit","category_zh":"公共交通","amenity":null,"railway":"subway_entrance","source":"OpenStreetMap"},"geometry":{"type":"Point","coordinates":[108.9683468,34.3188786]}},{"type":"Feature","properties":{"facility_id":"osm_node_13386742096","osm_id":"13386742096","name":"常青路-A口","category":"transit","category_zh":"公共交通","amenity":null,"railway":"subway_entrance","source":"OpenStreetMap"},"geometry":{"type":"Point","coordinates":[108.9664993,34.3375483]}},{"type":"Feature","properties":{"facility_id":"osm_node_13386742097","osm_id":"13386742097","name":"常青路-D口","category":"transit","category_zh":"公共交通","amenity":null,"railway":"subway_entrance","source":"OpenStreetMap"},"geometry":{"type":"Point","coordinates":[108.967133,34.3379886]}},{"type":"Feature","properties":{"facility_id":"osm_node_13386742098","osm_id":"13386742098","name":"常青路-C口","category":"transit","category_zh":"公共交通","amenity":null,"railway":"subway_entrance","source":"OpenStreetMap"},"geometry":{"type":"Point","coordinates":[108.9672126,34.3358956]}},{"type":"Feature","properties":{"facility_id":"osm_node_5218241219","osm_id":"5218241219","name":"北苑-C口","category":"transit","category_zh":"公共交通","amenity":null,"railway":"subway_entrance","source":"OpenStreetMap"},"geometry":{"type":"Point","coordinates":[108.9411386,34.3630549]}},{"type":"Feature","properties":{"facility_id":"osm_node_5218241220","osm_id":"5218241220","name":"北苑-D口","category":"transit","category_zh":"公共交通","amenity":null,"railway":"subway_entrance","source":"OpenStreetMap"},"geometry":{"type":"Point","coordinates":[108.9406083,34.3642016]}},{"type":"Feature","properties":{"facility_id":"osm_node_6670618320","osm_id":"6670618320","name":"北苑-B口","category":"transit","category_zh":"公共交通","amenity":null,"railway":"subway_entrance","source":"OpenStreetMap"},"geometry":{"type":"Point","coordinates":[108.9401912,34.3630374]}},{"type":"Feature","properties":{"facility_id":"osm_node_8972089469","osm_id":"8972089469","name":"凤城十路-A口","category":"transit","category_zh":"公共交通","amenity":null,"railway":"subway_entrance","source":"OpenStreetMap"},"geometry":{"type":"Point","coordinates":[108.9427674,34.3544726]}},{"type":"Feature","properties":{"facility_id":"osm_node_8972089470","osm_id":"8972089470","name":"凤城十路-D口","category":"transit","category_zh":"公共交通","amenity":null,"railway":"subway_entrance","source":"OpenStreetMap"},"geometry":{"type":"Point","coordinates":[108.9435229,34.3543983]}},{"type":"Feature","properties":{"facility_id":"osm_node_8972089471","osm_id":"8972089471","name":"凤城十路-C口","category":"transit","category_zh":"公共交通","amenity":null,"railway":"subway_entrance","source":"OpenStreetMap"},"geometry":{"type":"Point","coordinates":[108.943643,34.3537382]}},{"type":"Feature","properties":{"facility_id":"osm_node_8972089472","osm_id":"8972089472","name":"凤城十路-B口","category":"transit","category_zh":"公共交通","amenity":null,"railway":"subway_entrance","source":"OpenStreetMap"},"geometry":{"type":"Point","coordinates":[108.9425432,34.3533526]}},{"type":"Feature","properties":{"facility_id":"osm_node_8972232284","osm_id":"8972232284","name":"行政中心-A口","category":"transit","category_zh":"公共交通","amenity":null,"railway":"subway_entrance","source":"OpenStreetMap"},"geometry":{"type":"Point","coordinates":[108.9420717,34.3432408]}},{"type":"Feature","properties":{"facility_id":"osm_node_8972232285","osm_id":"8972232285","name":"行政中心-D口","category":"transit","category_zh":"公共交通","amenity":null,"railway":"subway_entrance","source":"OpenStreetMap"},"geometry":{"type":"Point","coordinates":[108.9430382,34.3432335]}},{"type":"Feature","properties":{"facility_id":"osm_node_8972232286","osm_id":"8972232286","name":"行政中心-A2口","category":"transit","category_zh":"公共交通","amenity":null,"railway":"subway_entrance","source":"OpenStreetMap"},"geometry":{"type":"Point","coordinates":[108.9413706,34.3438542]}},{"type":"Feature","properties":{"facility_id":"osm_node_8972232287","osm_id":"8972232287","name":"行政中心-A3口","category":"transit","category_zh":"公共交通","amenity":null,"railway":"subway_entrance","source":"OpenStreetMap"},"geometry":{"type":"Point","coordinates":[108.9409681,34.343534]}},{"type":"Feature","properties":{"facility_id":"osm_node_8972232288","osm_id":"8972232288","name":"行政中心-A1口","category":"transit","category_zh":"公共交通","amenity":null,"railway":"subway_entrance","source":"OpenStreetMap"},"geometry":{"type":"Point","coordinates":[108.9416795,34.3436009]}},{"type":"Feature","properties":{"facility_id":"osm_node_8972232289","osm_id":"8972232289","name":"行政中心-D3口","category":"transit","category_zh":"公共交通","amenity":null,"railway":"subway_entrance","source":"OpenStreetMap"},"geometry":{"type":"Point","coordinates":[108.9441463,34.3435252]}},{"type":"Feature","properties":{"facility_id":"osm_node_8972232290","osm_id":"8972232290","name":"行政中心-D2口","category":"transit","category_zh":"公共交通","amenity":null,"railway":"subway_entrance","source":"OpenStreetMap"},"geometry":{"type":"Point","coordinates":[108.9445582,34.3432012]}},{"type":"Feature","properties":{"facility_id":"osm_node_8972232291","osm_id":"8972232291","name":"行政中心-D1口","category":"transit","category_zh":"公共交通","amenity":null,"railway":"subway_entrance","source":"OpenStreetMap"},"geometry":{"type":"Point","coordinates":[108.9438531,34.3432578]}},{"type":"Feature","properties":{"facility_id":"osm_node_8972232292","osm_id":"8972232292","name":"行政中心-B口","category":"transit","category_zh":"公共交通","amenity":null,"railway":"subway_entrance","source":"OpenStreetMap"},"geometry":{"type":"Point","coordinates":[108.9420872,34.341876]}},{"type":"Feature","properties":{"facility_id":"osm_node_8972232293","osm_id":"8972232293","name":"行政中心-C口","category":"transit","category_zh":"公共交通","amenity":null,"railway":"subway_entrance","source":"OpenStreetMap"},"geometry":{"type":"Point","coordinates":[108.9430322,34.3418762]}},{"type":"Feature","properties":{"facility_id":"osm_node_8972232294","osm_id":"8972232294","name":"行政中心-B2口","category":"transit","category_zh":"公共交通","amenity":null,"railway":"subway_entrance","source":"OpenStreetMap"},"geometry":{"type":"Point","coordinates":[108.9409616,34.3415987]}},{"type":"Feature","properties":{"facility_id":"osm_node_8972232295","osm_id":"8972232295","name":"行政中心-B3口","category":"transit","category_zh":"公共交通","amenity":null,"railway":"subway_entrance","source":"OpenStreetMap"},"geometry":{"type":"Point","coordinates":[108.9413167,34.3412782]}},{"type":"Feature","properties":{"facility_id":"osm_node_8972232296","osm_id":"8972232296","name":"行政中心-B1口","category":"transit","category_zh":"公共交通","amenity":null,"railway":"subway_entrance","source":"OpenStreetMap"},"geometry":{"type":"Point","coordinates":[108.9416458,34.341596]}},{"type":"Feature","properties":{"facility_id":"osm_node_8972232297","osm_id":"8972232297","name":"行政中心-C1口","category":"transit","category_zh":"公共交通","amenity":null,"railway":"subway_entrance","source":"OpenStreetMap"},"geometry":{"type":"Point","coordinates":[108.943395,34.341527]}},{"type":"Feature","properties":{"facility_id":"osm_node_8972232298","osm_id":"8972232298","name":"行政中心-C2口","category":"transit","category_zh":"公共交通","amenity":null,"railway":"subway_entrance","source":"OpenStreetMap"},"geometry":{"type":"Point","coordinates":[108.9437284,34.3412249]}},{"type":"Feature","properties":{"facility_id":"osm_node_8972232299","osm_id":"8972232299","name":"行政中心-C3口","category":"transit","category_zh":"公共交通","amenity":null,"railway":"subway_entrance","source":"OpenStreetMap"},"geometry":{"type":"Point","coordinates":[108.9441837,34.3415785]}},{"type":"Feature","properties":{"facility_id":"osm_node_8973232033","osm_id":"8973232033","name":"凤城五路-A口","category":"transit","category_zh":"公共交通","amenity":null,"railway":"subway_entrance","source":"OpenStreetMap"},"geometry":{"type":"Point","coordinates":[108.9421626,34.3319872]}},{"type":"Feature","properties":{"facility_id":"osm_node_8973232034","osm_id":"8973232034","name":"凤城五路-D口","category":"transit","category_zh":"公共交通","amenity":null,"railway":"subway_entrance","source":"OpenStreetMap"},"geometry":{"type":"Point","coordinates":[108.9433439,34.3316712]}},{"type":"Feature","properties":{"facility_id":"osm_node_8973785607","osm_id":"8973785607","name":"凤城五路-B口","category":"transit","category_zh":"公共交通","amenity":null,"railway":"subway_entrance","source":"OpenStreetMap"},"geometry":{"type":"Point","coordinates":[108.9415892,34.3310287]}},{"type":"Feature","properties":{"facility_id":"osm_node_8974813675","osm_id":"8974813675","name":"青少年中心-A口","category":"transit","category_zh":"公共交通","amenity":null,"railway":"subway_entrance","source":"OpenStreetMap"},"geometry":{"type":"Point","coordinates":[108.942247,34.3199099]}},{"type":"Feature","properties":{"facility_id":"osm_node_8974813676","osm_id":"8974813676","name":"青少年中心-D口","category":"transit","category_zh":"公共交通","amenity":null,"railway":"subway_entrance","source":"OpenStreetMap"},"geometry":{"type":"Point","coordinates":[108.9434576,34.3197179]}},{"type":"Feature","properties":{"facility_id":"osm_node_8974813677","osm_id":"8974813677","name":"青少年中心-C口","category":"transit","category_zh":"公共交通","amenity":null,"railway":"subway_entrance","source":"OpenStreetMap"},"geometry":{"type":"Point","coordinates":[108.9432359,34.3191611]}},{"type":"Feature","properties":{"facility_id":"osm_node_8974813678","osm_id":"8974813678","name":"青少年中心-B口","category":"transit","category_zh":"公共交通","amenity":null,"railway":"subway_entrance","source":"OpenStreetMap"},"geometry":{"type":"Point","coordinates":[108.9422595,34.3186871]}},{"type":"Feature","properties":{"facility_id":"osm_node_9028995242","osm_id":"9028995242","name":"凤城十二路-A口","category":"transit","category_zh":"公共交通","amenity":null,"railway":"subway_entrance","source":"OpenStreetMap"},"geometry":{"type":"Point","coordinates":[108.9247969,34.3614377]}},{"type":"Feature","properties":{"facility_id":"osm_node_9028995249","osm_id":"9028995249","name":"凤城十二路-B口","category":"transit","category_zh":"公共交通","amenity":null,"railway":"subway_entrance","source":"OpenStreetMap"},"geometry":{"type":"Point","coordinates":[108.9247867,34.3600704]}},{"type":"Feature","properties":{"facility_id":"osm_node_9028995250","osm_id":"9028995250","name":"凤城十二路-C口","category":"transit","category_zh":"公共交通","amenity":null,"railway":"subway_entrance","source":"OpenStreetMap"},"geometry":{"type":"Point","coordinates":[108.9254103,34.359891]}},{"type":"Feature","properties":{"facility_id":"osm_node_9028995251","osm_id":"9028995251","name":"凤城十二路-D口","category":"transit","category_zh":"公共交通","amenity":null,"railway":"subway_entrance","source":"OpenStreetMap"},"geometry":{"type":"Point","coordinates":[108.9254531,34.3612088]}},{"type":"Feature","properties":{"facility_id":"osm_node_9028995259","osm_id":"9028995259","name":"凤城九路-A口","category":"transit","category_zh":"公共交通","amenity":null,"railway":"subway_entrance","source":"OpenStreetMap"},"geometry":{"type":"Point","coordinates":[108.9247649,34.3495255]}},{"type":"Feature","properties":{"facility_id":"osm_node_9028995260","osm_id":"9028995260","name":"凤城九路-B口","category":"transit","category_zh":"公共交通","amenity":null,"railway":"subway_entrance","source":"OpenStreetMap"},"geometry":{"type":"Point","coordinates":[108.9246831,34.3483394]}},{"type":"Feature","properties":{"facility_id":"osm_node_9028995261","osm_id":"9028995261","name":"凤城九路-C口","category":"transit","category_zh":"公共交通","amenity":null,"railway":"subway_entrance","source":"OpenStreetMap"},"geometry":{"type":"Point","coordinates":[108.9253769,34.3483468]}},{"type":"Feature","properties":{"facility_id":"osm_node_9028995262","osm_id":"9028995262","name":"凤城九路-D口","category":"transit","category_zh":"公共交通","amenity":null,"railway":"subway_entrance","source":"OpenStreetMap"},"geometry":{"type":"Point","coordinates":[108.9253962,34.3494558]}},{"type":"Feature","properties":{"facility_id":"osm_node_9028995263","osm_id":"9028995263","name":"凤城九路-E口","category":"transit","category_zh":"公共交通","amenity":null,"railway":"subway_entrance","source":"OpenStreetMap"},"geometry":{"type":"Point","coordinates":[108.9253662,34.3502388]}},{"type":"Feature","properties":{"facility_id":"osm_node_9028995264","osm_id":"9028995264","name":"凤城九路-","category":"transit","category_zh":"公共交通","amenity":null,"railway":"subway_entrance","source":"OpenStreetMap"},"geometry":{"type":"Point","coordinates":[108.9252848,34.3511545]}},{"type":"Feature","properties":{"facility_id":"osm_node_9028995265","osm_id":"9028995265","name":"凤城九路-","category":"transit","category_zh":"公共交通","amenity":null,"railway":"subway_entrance","source":"OpenStreetMap"},"geometry":{"type":"Point","coordinates":[108.9247508,34.3511001]}},{"type":"Feature","properties":{"facility_id":"osm_node_9028995266","osm_id":"9028995266","name":"文景路-A口","category":"transit","category_zh":"公共交通","amenity":null,"railway":"subway_entrance","source":"OpenStreetMap"},"geometry":{"type":"Point","coordinates":[108.9311619,34.3428061]}},{"type":"Feature","properties":{"facility_id":"osm_node_9028995267","osm_id":"9028995267","name":"文景路-B口","category":"transit","category_zh":"公共交通","amenity":null,"railway":"subway_entrance","source":"OpenStreetMap"},"geometry":{"type":"Point","coordinates":[108.9310953,34.3423295]}},{"type":"Feature","properties":{"facility_id":"osm_node_9028995268","osm_id":"9028995268","name":"文景路-C口","category":"transit","category_zh":"公共交通","amenity":null,"railway":"subway_entrance","source":"OpenStreetMap"},"geometry":{"type":"Point","coordinates":[108.9327476,34.342]}},{"type":"Feature","properties":{"facility_id":"osm_node_9028995269","osm_id":"9028995269","name":"文景路-D口","category":"transit","category_zh":"公共交通","amenity":null,"railway":"subway_entrance","source":"OpenStreetMap"},"geometry":{"type":"Point","coordinates":[108.9326776,34.3431486]}},{"type":"Feature","properties":{"facility_id":"osm_node_9028995270","osm_id":"9028995270","name":"行政中心-B5口","category":"transit","category_zh":"公共交通","amenity":null,"railway":"subway_entrance","source":"OpenStreetMap"},"geometry":{"type":"Point","coordinates":[108.9397316,34.3423045]}},{"type":"Feature","properties":{"facility_id":"osm_node_9028995271","osm_id":"9028995271","name":"行政中心-B6口","category":"transit","category_zh":"公共交通","amenity":null,"railway":"subway_entrance","source":"OpenStreetMap"},"geometry":{"type":"Point","coordinates":[108.9397316,34.3428081]}},{"type":"Feature","properties":{"facility_id":"osm_node_9028995272","osm_id":"9028995272","name":"行政中心-C5口","category":"transit","category_zh":"公共交通","amenity":null,"railway":"subway_entrance","source":"OpenStreetMap"},"geometry":{"type":"Point","coordinates":[108.9421594,34.339989]}},{"type":"Feature","properties":{"facility_id":"osm_node_9028995273","osm_id":"9028995273","name":"行政中心-C6口","category":"transit","category_zh":"公共交通","amenity":null,"railway":"subway_entrance","source":"OpenStreetMap"},"geometry":{"type":"Point","coordinates":[108.942949,34.3399759]}},{"type":"Feature","properties":{"facility_id":"osm_node_9028995284","osm_id":"9028995284","name":"行政中心-D5口","category":"transit","category_zh":"公共交通","amenity":null,"railway":"subway_entrance","source":"OpenStreetMap"},"geometry":{"type":"Point","coordinates":[108.9454202,34.3422966]}},{"type":"Feature","properties":{"facility_id":"osm_node_9028995285","osm_id":"9028995285","name":"行政中心-D6口","category":"transit","category_zh":"公共交通","amenity":null,"railway":"subway_entrance","source":"OpenStreetMap"},"geometry":{"type":"Point","coordinates":[108.9454159,34.3427892]}},{"type":"Feature","properties":{"facility_id":"osm_node_9028995286","osm_id":"9028995286","name":"市中医医院-A口","category":"transit","category_zh":"公共交通","amenity":null,"railway":"subway_entrance","source":"OpenStreetMap"},"geometry":{"type":"Point","coordinates":[108.9549429,34.3428421]}},{"type":"Feature","properties":{"facility_id":"osm_node_9028995287","osm_id":"9028995287","name":"市中医医院-B口","category":"transit","category_zh":"公共交通","amenity":null,"railway":"subway_entrance","source":"OpenStreetMap"},"geometry":{"type":"Point","coordinates":[108.9549751,34.3423319]}},{"type":"Feature","properties":{"facility_id":"osm_node_9028995288","osm_id":"9028995288","name":"市中医医院-C口","category":"transit","category_zh":"公共交通","amenity":null,"railway":"subway_entrance","source":"OpenStreetMap"},"geometry":{"type":"Point","coordinates":[108.9560394,34.342098]}},{"type":"Feature","properties":{"facility_id":"osm_node_9029084654","osm_id":"9029084654","name":"百花村-B口","category":"transit","category_zh":"公共交通","amenity":null,"railway":"subway_entrance","source":"OpenStreetMap"},"geometry":{"type":"Point","coordinates":[108.9664853,34.3271631]}},{"type":"Feature","properties":{"facility_id":"osm_node_9029084655","osm_id":"9029084655","name":"百花村-C口","category":"transit","category_zh":"公共交通","amenity":null,"railway":"subway_entrance","source":"OpenStreetMap"},"geometry":{"type":"Point","coordinates":[108.9671896,34.3272227]}},{"type":"Feature","properties":{"facility_id":"osm_node_9029084656","osm_id":"9029084656","name":"百花村-D口","category":"transit","category_zh":"公共交通","amenity":null,"railway":"subway_entrance","source":"OpenStreetMap"},"geometry":{"type":"Point","coordinates":[108.9672518,34.3290559]}},{"type":"Feature","properties":{"facility_id":"osm_node_9029084657","osm_id":"9029084657","name":"余家寨-A口","category":"transit","category_zh":"公共交通","amenity":null,"railway":"subway_entrance","source":"OpenStreetMap"},"geometry":{"type":"Point","coordinates":[108.9664461,34.3192691]}},{"type":"Feature","properties":{"facility_id":"osm_node_9029084658","osm_id":"9029084658","name":"余家寨-C口","category":"transit","category_zh":"公共交通","amenity":null,"railway":"subway_entrance","source":"OpenStreetMap"},"geometry":{"type":"Point","coordinates":[108.9678708,34.3183053]}},{"type":"Feature","properties":{"facility_id":"osm_node_9029084659","osm_id":"9029084659","name":"余家寨-F口","category":"transit","category_zh":"公共交通","amenity":null,"railway":"subway_entrance","source":"OpenStreetMap"},"geometry":{"type":"Point","coordinates":[108.9673707,34.3209128]}},{"type":"Feature","properties":{"facility_id":"osm_node_9029084660","osm_id":"9029084660","name":"余家寨-G口","category":"transit","category_zh":"公共交通","amenity":null,"railway":"subway_entrance","source":"OpenStreetMap"},"geometry":{"type":"Point","coordinates":[108.9673744,34.3222895]}},{"type":"Feature","properties":{"facility_id":"osm_node_9029084661","osm_id":"9029084661","name":"余家寨-H口","category":"transit","category_zh":"公共交通","amenity":null,"railway":"subway_entrance","source":"OpenStreetMap"},"geometry":{"type":"Point","coordinates":[108.9665782,34.321849]}},{"type":"Feature","properties":{"facility_id":"osm_node_9312150581","osm_id":"9312150581","name":"青少年中心","category":"transit","category_zh":"公共交通","amenity":null,"railway":"station","source":"OpenStreetMap"},"geometry":{"type":"Point","coordinates":[108.9422346,34.3194225]}},{"type":"Feature","properties":{"facility_id":"osm_node_9312150582","osm_id":"9312150582","name":"行政中心","category":"transit","category_zh":"公共交通","amenity":null,"railway":"station","source":"OpenStreetMap"},"geometry":{"type":"Point","coordinates":[108.9425669,34.3425841]}},{"type":"Feature","properties":{"facility_id":"osm_node_9312150584","osm_id":"9312150584","name":"北苑","category":"transit","category_zh":"公共交通","amenity":null,"railway":"station","source":"OpenStreetMap"},"geometry":{"type":"Point","coordinates":[108.9406496,34.3635712]}},{"type":"Feature","properties":{"facility_id":"osm_node_9445300000","osm_id":"9445300000","name":"文景路","category":"transit","category_zh":"公共交通","amenity":null,"railway":"station","source":"OpenStreetMap"},"geometry":{"type":"Point","coordinates":[108.9320773,34.342548]}},{"type":"Feature","properties":{"facility_id":"osm_node_9445300001","osm_id":"9445300001","name":"市中医医院","category":"transit","category_zh":"公共交通","amenity":null,"railway":"station","source":"OpenStreetMap"},"geometry":{"type":"Point","coordinates":[108.9557156,34.3425756]}},{"type":"Feature","properties":{"facility_id":"osm_node_9445300002","osm_id":"9445300002","name":"常青路","category":"transit","category_zh":"公共交通","amenity":null,"railway":"station","source":"OpenStreetMap"},"geometry":{"type":"Point","coordinates":[108.9668769,34.3369423]}},{"type":"Feature","properties":{"facility_id":"osm_node_9445300003","osm_id":"9445300003","name":"百花村","category":"transit","category_zh":"公共交通","amenity":null,"railway":"station","source":"OpenStreetMap"},"geometry":{"type":"Point","coordinates":[108.9668341,34.3280098]}},{"type":"Feature","properties":{"facility_id":"osm_node_9445300004","osm_id":"9445300004","name":"余家寨","category":"transit","category_zh":"公共交通","amenity":null,"railway":"station","source":"OpenStreetMap"},"geometry":{"type":"Point","coordinates":[108.9671118,34.3187222]}},{"type":"Feature","properties":{"facility_id":"osm_node_9462758684","osm_id":"9462758684","name":"凤城十二路","category":"transit","category_zh":"公共交通","amenity":null,"railway":"station","source":"OpenStreetMap"},"geometry":{"type":"Point","coordinates":[108.9250716,34.3606945]}},{"type":"Feature","properties":{"facility_id":"osm_node_9553295317","osm_id":"9553295317","name":"凤城十路","category":"transit","category_zh":"公共交通","amenity":null,"railway":"station","source":"OpenStreetMap"},"geometry":{"type":"Point","coordinates":[108.9430016,34.353978]}},{"type":"Feature","properties":{"facility_id":"osm_node_9553308097","osm_id":"9553308097","name":"凤城五路","category":"transit","category_zh":"公共交通","amenity":null,"railway":"station","source":"OpenStreetMap"},"geometry":{"type":"Point","coordinates":[108.9425553,34.3313736]}},{"type":"Feature","properties":{"facility_id":"osm_node_9565713934","osm_id":"9565713934","name":"凤城九路","category":"transit","category_zh":"公共交通","amenity":null,"railway":"station","source":"OpenStreetMap"},"geometry":{"type":"Point","coordinates":[108.9250942,34.3489893]}}]}