{"type":"FeatureCollection","name":"nanjing_osm_public_services","crs":{"type":"name","properties":{"name":"urn:ogc:def:crs:OGC:1.3:CRS84"}},"features":[{"type":"Feature","properties":{"osm_type":"node","osm_id":4363723490,"name":"金贸新村","category":"community","category_zh":"社区服务","amenity":"community_centre","railway":null,"leisure":null},"geometry":{"type":"Point","coordinates":[118.7480198,32.0332215]}},{"type":"Feature","properties":{"osm_type":"node","osm_id":4363757390,"name":"莫愁花园","category":"community","category_zh":"社区服务","amenity":"community_centre","railway":null,"leisure":null},"geometry":{"type":"Point","coordinates":[118.7401699,32.0412738]}},{"type":"Feature","properties":{"osm_type":"node","osm_id":4717545994,"name":"凤凰和鸣小区","category":"community","category_zh":"社区服务","amenity":"community_centre","railway":null,"leisure":null},"geometry":{"type":"Point","coordinates":[118.7765144,32.086551]}},{"type":"Feature","properties":{"osm_type":"node","osm_id":13582167819,"name":"梧桐语","category":"community","category_zh":"社区服务","amenity":"community_centre","railway":null,"leisure":null},"geometry":{"type":"Point","coordinates":[118.7290318,32.0007288]}},{"type":"Feature","properties":{"osm_type":"node","osm_id":1984689547,"name":"德国研究图书馆","category":"culture","category_zh":"图书馆","amenity":"library","railway":null,"leisure":null},"geometry":{"type":"Point","coordinates":[118.7745951,32.058776]}},{"type":"Feature","properties":{"osm_type":"node","osm_id":2696060672,"name":"未命名节点","category":"culture","category_zh":"图书馆","amenity":"library","railway":null,"leisure":null},"geometry":{"type":"Point","coordinates":[118.8545111,32.0211947]}},{"type":"Feature","properties":{"osm_type":"node","osm_id":3387153747,"name":"未命名节点","category":"culture","category_zh":"图书馆","amenity":"library","railway":null,"leisure":null},"geometry":{"type":"Point","coordinates":[118.7747791,32.0629337]}},{"type":"Feature","properties":{"osm_type":"node","osm_id":3604590572,"name":"未命名节点","category":"culture","category_zh":"图书馆","amenity":"library","railway":null,"leisure":null},"geometry":{"type":"Point","coordinates":[118.7617727,32.0548006]}},{"type":"Feature","properties":{"osm_type":"node","osm_id":5521715034,"name":"南京邮电大学三牌楼图书馆","category":"culture","category_zh":"图书馆","amenity":"library","railway":null,"leisure":null},"geometry":{"type":"Point","coordinates":[118.7659966,32.0817986]}},{"type":"Feature","properties":{"osm_type":"node","osm_id":6901818354,"name":"南京外国语学校图书馆","category":"culture","category_zh":"图书馆","amenity":"library","railway":null,"leisure":null},"geometry":{"type":"Point","coordinates":[118.7963618,32.058181]}},{"type":"Feature","properties":{"osm_type":"node","osm_id":11074555925,"name":"未命名节点","category":"culture","category_zh":"图书馆","amenity":"library","railway":null,"leisure":null},"geometry":{"type":"Point","coordinates":[118.7492908,32.0601287]}},{"type":"Feature","properties":{"osm_type":"node","osm_id":13683750001,"name":"南京錦創書城","category":"culture","category_zh":"图书馆","amenity":"library","railway":null,"leisure":null},"geometry":{"type":"Point","coordinates":[118.801329,32.0478809]}},{"type":"Feature","properties":{"osm_type":"node","osm_id":1058313052,"name":"南京玄武高级中学","category":"education","category_zh":"学校与幼儿园","amenity":"school","railway":null,"leisure":null},"geometry":{"type":"Point","coordinates":[118.8087267,32.058319]}},{"type":"Feature","properties":{"osm_type":"node","osm_id":1058331313,"name":"人民中学","category":"education","category_zh":"学校与幼儿园","amenity":"school","railway":null,"leisure":null},"geometry":{"type":"Point","coordinates":[118.7798897,32.0507544]}},{"type":"Feature","properties":{"osm_type":"node","osm_id":1058335545,"name":"梅园中学","category":"education","category_zh":"学校与幼儿园","amenity":"school","railway":null,"leisure":null},"geometry":{"type":"Point","coordinates":[118.7972919,32.0472079]}},{"type":"Feature","properties":{"osm_type":"node","osm_id":1060672951,"name":"南湖一中","category":"education","category_zh":"学校与幼儿园","amenity":"school","railway":null,"leisure":null},"geometry":{"type":"Point","coordinates":[118.7544628,32.0300928]}},{"type":"Feature","properties":{"osm_type":"node","osm_id":1060672967,"name":"南湖二中","category":"education","category_zh":"学校与幼儿园","amenity":"school","railway":null,"leisure":null},"geometry":{"type":"Point","coordinates":[118.7424859,32.0314376]}},{"type":"Feature","properties":{"osm_type":"node","osm_id":1060714928,"name":"十二中","category":"education","category_zh":"学校与幼儿园","amenity":"school","railway":null,"leisure":null},"geometry":{"type":"Point","coordinates":[118.7386675,32.0894282]}},{"type":"Feature","properties":{"osm_type":"node","osm_id":1067141189,"name":"八中","category":"education","category_zh":"学校与幼儿园","amenity":"school","railway":null,"leisure":null},"geometry":{"type":"Point","coordinates":[118.7532601,32.0865284]}},{"type":"Feature","properties":{"osm_type":"node","osm_id":1097657641,"name":"成贤街小学","category":"education","category_zh":"学校与幼儿园","amenity":"school","railway":null,"leisure":null},"geometry":{"type":"Point","coordinates":[118.7923763,32.0535805]}},{"type":"Feature","properties":{"osm_type":"node","osm_id":1354433886,"name":"大光路幼儿园","category":"education","category_zh":"学校与幼儿园","amenity":"kindergarten","railway":null,"leisure":null},"geometry":{"type":"Point","coordinates":[118.8030214,32.0270871]}},{"type":"Feature","properties":{"osm_type":"node","osm_id":1470664904,"name":"南京理工大学 附属幼儿园","category":"education","category_zh":"学校与幼儿园","amenity":"kindergarten","railway":null,"leisure":null},"geometry":{"type":"Point","coordinates":[118.8469157,32.0382542]}},{"type":"Feature","properties":{"osm_type":"node","osm_id":1494967465,"name":"南京五中","category":"education","category_zh":"学校与幼儿园","amenity":"school","railway":null,"leisure":null},"geometry":{"type":"Point","coordinates":[118.7724199,32.0410775]}},{"type":"Feature","properties":{"osm_type":"node","osm_id":1517497140,"name":"中山幼儿园","category":"education","category_zh":"学校与幼儿园","amenity":"kindergarten","railway":null,"leisure":null},"geometry":{"type":"Point","coordinates":[118.8584181,32.03481]}},{"type":"Feature","properties":{"osm_type":"node","osm_id":1606225419,"name":"第十二中学初中部","category":"education","category_zh":"学校与幼儿园","amenity":"school","railway":null,"leisure":null},"geometry":{"type":"Point","coordinates":[118.7382593,32.0817023]}},{"type":"Feature","properties":{"osm_type":"node","osm_id":1606254338,"name":"太平巷幼儿园","category":"education","category_zh":"学校与幼儿园","amenity":"kindergarten","railway":null,"leisure":null},"geometry":{"type":"Point","coordinates":[118.7900056,32.034347]}},{"type":"Feature","properties":{"osm_type":"node","osm_id":1608079748,"name":"珠江路小学","category":"education","category_zh":"学校与幼儿园","amenity":"school","railway":null,"leisure":null},"geometry":{"type":"Point","coordinates":[118.7854604,32.0520014]}},{"type":"Feature","properties":{"osm_type":"node","osm_id":1694909375,"name":"南京市石扬路幼儿园","category":"education","category_zh":"学校与幼儿园","amenity":"kindergarten","railway":null,"leisure":null},"geometry":{"type":"Point","coordinates":[118.8580138,32.0079752]}},{"type":"Feature","properties":{"osm_type":"node","osm_id":1884999765,"name":"建邺高级中学","category":"education","category_zh":"学校与幼儿园","amenity":"school","railway":null,"leisure":null},"geometry":{"type":"Point","coordinates":[118.7524228,32.0223675]}},{"type":"Feature","properties":{"osm_type":"node","osm_id":2024977728,"name":"南京大学附属中学国际高中","category":"education","category_zh":"学校与幼儿园","amenity":"school","railway":null,"leisure":null},"geometry":{"type":"Point","coordinates":[118.7725194,32.0543028]}},{"type":"Feature","properties":{"osm_type":"node","osm_id":2157459590,"name":"南京第二幼儿园","category":"education","category_zh":"学校与幼儿园","amenity":"kindergarten","railway":null,"leisure":null},"geometry":{"type":"Point","coordinates":[118.7687944,32.0544626]}},{"type":"Feature","properties":{"osm_type":"node","osm_id":2183438972,"name":"南京市奥星幼儿园","category":"education","category_zh":"学校与幼儿园","amenity":"kindergarten","railway":null,"leisure":null},"geometry":{"type":"Point","coordinates":[118.7977316,32.0312117]}},{"type":"Feature","properties":{"osm_type":"node","osm_id":3604590567,"name":"南京师范大学附属幼儿园","category":"education","category_zh":"学校与幼儿园","amenity":"school","railway":null,"leisure":null},"geometry":{"type":"Point","coordinates":[118.7654151,32.0572625]}},{"type":"Feature","properties":{"osm_type":"node","osm_id":3727328553,"name":"水上运动学校","category":"education","category_zh":"学校与幼儿园","amenity":"school","railway":null,"leisure":null},"geometry":{"type":"Point","coordinates":[118.8018007,32.0642731]}},{"type":"Feature","properties":{"osm_type":"node","osm_id":4348849495,"name":"未命名节点","category":"education","category_zh":"学校与幼儿园","amenity":"school","railway":null,"leisure":null},"geometry":{"type":"Point","coordinates":[118.7641616,32.0568529]}},{"type":"Feature","properties":{"osm_type":"node","osm_id":4745751722,"name":"长江路小学","category":"education","category_zh":"学校与幼儿园","amenity":"school","railway":null,"leisure":null},"geometry":{"type":"Point","coordinates":[118.7870765,32.0470433]}},{"type":"Feature","properties":{"osm_type":"node","osm_id":5104682252,"name":"小营小学","category":"education","category_zh":"学校与幼儿园","amenity":"school","railway":null,"leisure":null},"geometry":{"type":"Point","coordinates":[118.8023363,32.0570063]}},{"type":"Feature","properties":{"osm_type":"node","osm_id":5104682253,"name":"小百灵幼儿园","category":"education","category_zh":"学校与幼儿园","amenity":"kindergarten","railway":null,"leisure":null},"geometry":{"type":"Point","coordinates":[118.801686,32.0561573]}},{"type":"Feature","properties":{"osm_type":"node","osm_id":5201590121,"name":"KG2","category":"education","category_zh":"学校与幼儿园","amenity":"school","railway":null,"leisure":null},"geometry":{"type":"Point","coordinates":[118.750994,32.0198684]}},{"type":"Feature","properties":{"osm_type":"node","osm_id":5577537228,"name":"未命名节点","category":"education","category_zh":"学校与幼儿园","amenity":"school","railway":null,"leisure":null},"geometry":{"type":"Point","coordinates":[118.8488172,32.0048544]}},{"type":"Feature","properties":{"osm_type":"node","osm_id":5595588259,"name":"未命名节点","category":"education","category_zh":"学校与幼儿园","amenity":"school","railway":null,"leisure":null},"geometry":{"type":"Point","coordinates":[118.722833,32.0431206]}},{"type":"Feature","properties":{"osm_type":"node","osm_id":6632808399,"name":"未命名节点","category":"education","category_zh":"学校与幼儿园","amenity":"school","railway":null,"leisure":null},"geometry":{"type":"Point","coordinates":[118.7939988,32.0097069]}},{"type":"Feature","properties":{"osm_type":"node","osm_id":7967791173,"name":"北京东路小学","category":"education","category_zh":"学校与幼儿园","amenity":"school","railway":null,"leisure":null},"geometry":{"type":"Point","coordinates":[118.7940867,32.0598423]}},{"type":"Feature","properties":{"osm_type":"node","osm_id":7992465398,"name":"北京东路小学附属幼儿园","category":"education","category_zh":"学校与幼儿园","amenity":"kindergarten","railway":null,"leisure":null},"geometry":{"type":"Point","coordinates":[118.7935181,32.0600132]}},{"type":"Feature","properties":{"osm_type":"node","osm_id":772575588,"name":"江苏省口腔医院","category":"healthcare","category_zh":"医院与诊所","amenity":"hospital","railway":null,"leisure":null},"geometry":{"type":"Point","coordinates":[118.7706098,32.0449011]}},{"type":"Feature","properties":{"osm_type":"node","osm_id":772584568,"name":"南京儿童医院","category":"healthcare","category_zh":"医院与诊所","amenity":"hospital","railway":null,"leisure":null},"geometry":{"type":"Point","coordinates":[118.7739688,32.0525487]}},{"type":"Feature","properties":{"osm_type":"node","osm_id":1507211942,"name":"南京南方医院","category":"healthcare","category_zh":"医院与诊所","amenity":"hospital","railway":null,"leisure":null},"geometry":{"type":"Point","coordinates":[118.8229651,32.0213223]}},{"type":"Feature","properties":{"osm_type":"node","osm_id":2153973734,"name":"八一医院","category":"healthcare","category_zh":"医院与诊所","amenity":"hospital","railway":null,"leisure":null},"geometry":{"type":"Point","coordinates":[118.7890299,32.0366292]}},{"type":"Feature","properties":{"osm_type":"node","osm_id":2696060923,"name":"未命名节点","category":"healthcare","category_zh":"医院与诊所","amenity":"hospital","railway":null,"leisure":null},"geometry":{"type":"Point","coordinates":[118.855745,32.0222044]}},{"type":"Feature","properties":{"osm_type":"node","osm_id":2776540948,"name":"南京艺术学院卫生所","category":"healthcare","category_zh":"医院与诊所","amenity":"hospital","railway":null,"leisure":null},"geometry":{"type":"Point","coordinates":[118.7474057,32.0665418]}},{"type":"Feature","properties":{"osm_type":"node","osm_id":4403656724,"name":"未命名节点","category":"healthcare","category_zh":"医院与诊所","amenity":"hospital","railway":null,"leisure":null},"geometry":{"type":"Point","coordinates":[118.7710466,32.0427255]}},{"type":"Feature","properties":{"osm_type":"node","osm_id":4403838612,"name":"南京水西门老年护理院","category":"healthcare","category_zh":"医院与诊所","amenity":"hospital","railway":null,"leisure":null},"geometry":{"type":"Point","coordinates":[118.7660739,32.0294201]}},{"type":"Feature","properties":{"osm_type":"node","osm_id":4697397790,"name":"秦淮区妇幼保健所","category":"healthcare","category_zh":"医院与诊所","amenity":"clinic","railway":null,"leisure":null},"geometry":{"type":"Point","coordinates":[118.7892745,32.0382182]}},{"type":"Feature","properties":{"osm_type":"node","osm_id":5251808322,"name":"江苏省肿瘤医院","category":"healthcare","category_zh":"医院与诊所","amenity":"hospital","railway":null,"leisure":null},"geometry":{"type":"Point","coordinates":[118.7815085,32.0707995]}},{"type":"Feature","properties":{"osm_type":"node","osm_id":5314427222,"name":"中大医院","category":"healthcare","category_zh":"医院与诊所","amenity":"hospital","railway":null,"leisure":null},"geometry":{"type":"Point","coordinates":[118.7717142,32.0731683]}},{"type":"Feature","properties":{"osm_type":"node","osm_id":5522511479,"name":"学校门诊","category":"healthcare","category_zh":"医院与诊所","amenity":"clinic","railway":null,"leisure":null},"geometry":{"type":"Point","coordinates":[118.7670555,32.0836934]}},{"type":"Feature","properties":{"osm_type":"node","osm_id":5536911663,"name":"未命名节点","category":"healthcare","category_zh":"医院与诊所","amenity":"hospital","railway":null,"leisure":null},"geometry":{"type":"Point","coordinates":[118.8222197,32.0825425]}},{"type":"Feature","properties":{"osm_type":"node","osm_id":5549283141,"name":"江苏省第二中医院","category":"healthcare","category_zh":"医院与诊所","amenity":"hospital","railway":null,"leisure":null},"geometry":{"type":"Point","coordinates":[118.7490939,32.0247696]}},{"type":"Feature","properties":{"osm_type":"node","osm_id":6348688896,"name":"综合门诊部","category":"healthcare","category_zh":"医院与诊所","amenity":"hospital","railway":null,"leisure":null},"geometry":{"type":"Point","coordinates":[118.8116747,32.0788678]}},{"type":"Feature","properties":{"osm_type":"node","osm_id":7403767595,"name":"熊猫医院","category":"healthcare","category_zh":"医院与诊所","amenity":"hospital","railway":null,"leisure":null},"geometry":{"type":"Point","coordinates":[118.8181199,32.046007]}},{"type":"Feature","properties":{"osm_type":"node","osm_id":8516261442,"name":"南京儿童医院","category":"healthcare","category_zh":"医院与诊所","amenity":"hospital","railway":null,"leisure":null},"geometry":{"type":"Point","coordinates":[118.751028,32.0847097]}},{"type":"Feature","properties":{"osm_type":"node","osm_id":8516261445,"name":"未命名节点","category":"healthcare","category_zh":"医院与诊所","amenity":"hospital","railway":null,"leisure":null},"geometry":{"type":"Point","coordinates":[118.7516011,32.0851269]}},{"type":"Feature","properties":{"osm_type":"node","osm_id":11786706394,"name":"普天职工医院","category":"healthcare","category_zh":"医院与诊所","amenity":"hospital","railway":null,"leisure":null},"geometry":{"type":"Point","coordinates":[118.784931,32.0017811]}},{"type":"Feature","properties":{"osm_type":"node","osm_id":13584256391,"name":"门诊","category":"healthcare","category_zh":"医院与诊所","amenity":"hospital","railway":null,"leisure":null},"geometry":{"type":"Point","coordinates":[118.7255121,31.990456]}},{"type":"Feature","properties":{"osm_type":"node","osm_id":13584278602,"name":"东北门","category":"healthcare","category_zh":"医院与诊所","amenity":"hospital","railway":null,"leisure":null},"geometry":{"type":"Point","coordinates":[118.7265462,31.9900663]}},{"type":"Feature","properties":{"osm_type":"node","osm_id":13584278619,"name":"急诊","category":"healthcare","category_zh":"医院与诊所","amenity":"hospital","railway":null,"leisure":null},"geometry":{"type":"Point","coordinates":[118.7246647,31.9909652]}},{"type":"Feature","properties":{"osm_type":"node","osm_id":13584278625,"name":"急诊东北门","category":"healthcare","category_zh":"医院与诊所","amenity":"hospital","railway":null,"leisure":null},"geometry":{"type":"Point","coordinates":[118.7246315,31.9910352]}},{"type":"Feature","properties":{"osm_type":"node","osm_id":13584278627,"name":"体检中心","category":"healthcare","category_zh":"医院与诊所","amenity":"hospital","railway":null,"leisure":null},"geometry":{"type":"Point","coordinates":[118.7253037,31.9902628]}},{"type":"Feature","properties":{"osm_type":"node","osm_id":13584278630,"name":"住院楼","category":"healthcare","category_zh":"医院与诊所","amenity":"hospital","railway":null,"leisure":null},"geometry":{"type":"Point","coordinates":[118.72399,31.9905558]}},{"type":"Feature","properties":{"osm_type":"node","osm_id":4012040016,"name":"勤仁坡","category":"park","category_zh":"公园","amenity":null,"railway":null,"leisure":"park"},"geometry":{"type":"Point","coordinates":[118.8403167,32.0376901]}},{"type":"Feature","properties":{"osm_type":"node","osm_id":7396886711,"name":"东华门遗址公园","category":"park","category_zh":"公园","amenity":null,"railway":null,"leisure":"park"},"geometry":{"type":"Point","coordinates":[118.8165726,32.040294]}},{"type":"Feature","properties":{"osm_type":"node","osm_id":7972925682,"name":"莲园","category":"park","category_zh":"公园","amenity":null,"railway":null,"leisure":"park"},"geometry":{"type":"Point","coordinates":[118.7583375,32.0348613]}},{"type":"Feature","properties":{"osm_type":"node","osm_id":9738902024,"name":"情侣园","category":"park","category_zh":"公园","amenity":null,"railway":null,"leisure":"park"},"geometry":{"type":"Point","coordinates":[118.8051933,32.0721266]}},{"type":"Feature","properties":{"osm_type":"node","osm_id":13621823577,"name":"藏春亭","category":"park","category_zh":"公园","amenity":null,"railway":null,"leisure":"park"},"geometry":{"type":"Point","coordinates":[118.7877975,32.0737996]}},{"type":"Feature","properties":{"osm_type":"node","osm_id":13745109164,"name":"未命名节点","category":"park","category_zh":"公园","amenity":null,"railway":null,"leisure":"park"},"geometry":{"type":"Point","coordinates":[118.7764044,32.0270765]}},{"type":"Feature","properties":{"osm_type":"node","osm_id":267225237,"name":"南京","category":"transit","category_zh":"轨道交通","amenity":null,"railway":"station","leisure":null},"geometry":{"type":"Point","coordinates":[118.7917463,32.0887235]}},{"type":"Feature","properties":{"osm_type":"node","osm_id":778873065,"name":"白马公园","category":"transit","category_zh":"轨道交通","amenity":null,"railway":"station","leisure":null},"geometry":{"type":"Point","coordinates":[118.8107137,32.0607028]}},{"type":"Feature","properties":{"osm_type":"node","osm_id":1027660030,"name":"中华门","category":"transit","category_zh":"轨道交通","amenity":null,"railway":"station","leisure":null},"geometry":{"type":"Point","coordinates":[118.7721046,32.0082359]}},{"type":"Feature","properties":{"osm_type":"node","osm_id":1234712870,"name":"新街口#1","category":"transit","category_zh":"轨道交通","amenity":null,"railway":"subway_entrance","leisure":null},"geometry":{"type":"Point","coordinates":[118.7784549,32.041592]}},{"type":"Feature","properties":{"osm_type":"node","osm_id":1234712872,"name":"新街口#2","category":"transit","category_zh":"轨道交通","amenity":null,"railway":"subway_entrance","leisure":null},"geometry":{"type":"Point","coordinates":[118.7786035,32.0414655]}},{"type":"Feature","properties":{"osm_type":"node","osm_id":1234712875,"name":"新街口#3","category":"transit","category_zh":"轨道交通","amenity":null,"railway":"subway_entrance","leisure":null},"geometry":{"type":"Point","coordinates":[118.7782419,32.0424462]}},{"type":"Feature","properties":{"osm_type":"node","osm_id":1234712877,"name":"新街口#5","category":"transit","category_zh":"轨道交通","amenity":null,"railway":"subway_entrance","leisure":null},"geometry":{"type":"Point","coordinates":[118.7780754,32.0436449]}},{"type":"Feature","properties":{"osm_type":"node","osm_id":1234712883,"name":"新街口#20","category":"transit","category_zh":"轨道交通","amenity":null,"railway":"subway_entrance","leisure":null},"geometry":{"type":"Point","coordinates":[118.7765333,32.0442098]}},{"type":"Feature","properties":{"osm_type":"node","osm_id":1234712884,"name":"新街口#21","category":"transit","category_zh":"轨道交通","amenity":null,"railway":"subway_entrance","leisure":null},"geometry":{"type":"Point","coordinates":[118.7768925,32.0438108]}},{"type":"Feature","properties":{"osm_type":"node","osm_id":1234712886,"name":"新街口#6","category":"transit","category_zh":"轨道交通","amenity":null,"railway":"subway_entrance","leisure":null},"geometry":{"type":"Point","coordinates":[118.7782717,32.0441398]}},{"type":"Feature","properties":{"osm_type":"node","osm_id":1234712888,"name":"新街口#7","category":"transit","category_zh":"轨道交通","amenity":null,"railway":"subway_entrance","leisure":null},"geometry":{"type":"Point","coordinates":[118.7791699,32.0445185]}},{"type":"Feature","properties":{"osm_type":"node","osm_id":1234712890,"name":"新街口#9","category":"transit","category_zh":"轨道交通","amenity":null,"railway":"subway_entrance","leisure":null},"geometry":{"type":"Point","coordinates":[118.7791557,32.0430241]}},{"type":"Feature","properties":{"osm_type":"node","osm_id":1234712891,"name":"新街口#10","category":"transit","category_zh":"轨道交通","amenity":null,"railway":"subway_entrance","leisure":null},"geometry":{"type":"Point","coordinates":[118.7791821,32.0427862]}},{"type":"Feature","properties":{"osm_type":"node","osm_id":1234712893,"name":"新街口#11","category":"transit","category_zh":"轨道交通","amenity":null,"railway":"subway_entrance","leisure":null},"geometry":{"type":"Point","coordinates":[118.7791314,32.0426293]}},{"type":"Feature","properties":{"osm_type":"node","osm_id":1234712894,"name":"新街口#13","category":"transit","category_zh":"轨道交通","amenity":null,"railway":"subway_entrance","leisure":null},"geometry":{"type":"Point","coordinates":[118.7791336,32.0414826]}},{"type":"Feature","properties":{"osm_type":"node","osm_id":1234712895,"name":"新街口#14","category":"transit","category_zh":"轨道交通","amenity":null,"railway":"subway_entrance","leisure":null},"geometry":{"type":"Point","coordinates":[118.7791289,32.0405361]}},{"type":"Feature","properties":{"osm_type":"node","osm_id":1234712896,"name":"新街口#15","category":"transit","category_zh":"轨道交通","amenity":null,"railway":"subway_entrance","leisure":null},"geometry":{"type":"Point","coordinates":[118.7786154,32.0408417]}},{"type":"Feature","properties":{"osm_type":"node","osm_id":1234712897,"name":"新街口#22","category":"transit","category_zh":"轨道交通","amenity":null,"railway":"subway_entrance","leisure":null},"geometry":{"type":"Point","coordinates":[118.7795916,32.0436346]}},{"type":"Feature","properties":{"osm_type":"node","osm_id":1234712899,"name":"新街口#24","category":"transit","category_zh":"轨道交通","amenity":null,"railway":"subway_entrance","leisure":null},"geometry":{"type":"Point","coordinates":[118.7815878,32.0434433]}},{"type":"Feature","properties":{"osm_type":"node","osm_id":1361254820,"name":"奥体东#5","category":"transit","category_zh":"轨道交通","amenity":null,"railway":"subway_entrance","leisure":null},"geometry":{"type":"Point","coordinates":[118.7244412,32.0062317]}},{"type":"Feature","properties":{"osm_type":"node","osm_id":1464739856,"name":"下马坊#4","category":"transit","category_zh":"轨道交通","amenity":null,"railway":"subway_entrance","leisure":null},"geometry":{"type":"Point","coordinates":[118.8439,32.0391724]}},{"type":"Feature","properties":{"osm_type":"node","osm_id":1496380813,"name":"西安门#3","category":"transit","category_zh":"轨道交通","amenity":null,"railway":"subway_entrance","leisure":null},"geometry":{"type":"Point","coordinates":[118.7997107,32.0420601]}},{"type":"Feature","properties":{"osm_type":"node","osm_id":1507080846,"name":"下马坊#3","category":"transit","category_zh":"轨道交通","amenity":null,"railway":"subway_entrance","leisure":null},"geometry":{"type":"Point","coordinates":[118.8425503,32.0396972]}},{"type":"Feature","properties":{"osm_type":"node","osm_id":1541912261,"name":"未命名节点","category":"transit","category_zh":"轨道交通","amenity":null,"railway":"subway_entrance","leisure":null},"geometry":{"type":"Point","coordinates":[118.7792333,32.0724389]}},{"type":"Feature","properties":{"osm_type":"node","osm_id":1558198190,"name":"下马坊#1","category":"transit","category_zh":"轨道交通","amenity":null,"railway":"subway_entrance","leisure":null},"geometry":{"type":"Point","coordinates":[118.8441026,32.0398012]}},{"type":"Feature","properties":{"osm_type":"node","osm_id":1561635807,"name":"下马坊#2","category":"transit","category_zh":"轨道交通","amenity":null,"railway":"subway_entrance","leisure":null},"geometry":{"type":"Point","coordinates":[118.8429135,32.0402027]}},{"type":"Feature","properties":{"osm_type":"node","osm_id":1561635809,"name":"孝陵卫#1","category":"transit","category_zh":"轨道交通","amenity":null,"railway":"subway_entrance","leisure":null},"geometry":{"type":"Point","coordinates":[118.8534942,32.0381544]}},{"type":"Feature","properties":{"osm_type":"node","osm_id":1561635810,"name":"孝陵卫#2","category":"transit","category_zh":"轨道交通","amenity":null,"railway":"subway_entrance","leisure":null},"geometry":{"type":"Point","coordinates":[118.8526928,32.037907]}},{"type":"Feature","properties":{"osm_type":"node","osm_id":1561635811,"name":"孝陵卫#3","category":"transit","category_zh":"轨道交通","amenity":null,"railway":"subway_entrance","leisure":null},"geometry":{"type":"Point","coordinates":[118.8536402,32.0375054]}},{"type":"Feature","properties":{"osm_type":"node","osm_id":1575080045,"name":"苜蓿园#1","category":"transit","category_zh":"轨道交通","amenity":null,"railway":"subway_entrance","leisure":null},"geometry":{"type":"Point","coordinates":[118.8304636,32.0425742]}},{"type":"Feature","properties":{"osm_type":"node","osm_id":1575080046,"name":"苜蓿园#2","category":"transit","category_zh":"轨道交通","amenity":null,"railway":"subway_entrance","leisure":null},"geometry":{"type":"Point","coordinates":[118.828719,32.0421801]}},{"type":"Feature","properties":{"osm_type":"node","osm_id":1575080047,"name":"苜蓿园#3","category":"transit","category_zh":"轨道交通","amenity":null,"railway":"subway_entrance","leisure":null},"geometry":{"type":"Point","coordinates":[118.8304072,32.0419222]}},{"type":"Feature","properties":{"osm_type":"node","osm_id":1602339121,"name":"上海路#2","category":"transit","category_zh":"轨道交通","amenity":null,"railway":"subway_entrance","leisure":null},"geometry":{"type":"Point","coordinates":[118.7701776,32.0446524]}},{"type":"Feature","properties":{"osm_type":"node","osm_id":1603187383,"name":"上海路#1","category":"transit","category_zh":"轨道交通","amenity":null,"railway":"subway_entrance","leisure":null},"geometry":{"type":"Point","coordinates":[118.7715446,32.0440843]}},{"type":"Feature","properties":{"osm_type":"node","osm_id":1603187386,"name":"上海路#3","category":"transit","category_zh":"轨道交通","amenity":null,"railway":"subway_entrance","leisure":null},"geometry":{"type":"Point","coordinates":[118.7700817,32.044199]}},{"type":"Feature","properties":{"osm_type":"node","osm_id":1608084653,"name":"西安门#2","category":"transit","category_zh":"轨道交通","amenity":null,"railway":"subway_entrance","leisure":null},"geometry":{"type":"Point","coordinates":[118.7997991,32.0428479]}},{"type":"Feature","properties":{"osm_type":"node","osm_id":1742193074,"name":"汉中门#1","category":"transit","category_zh":"轨道交通","amenity":null,"railway":"subway_entrance","leisure":null},"geometry":{"type":"Point","coordinates":[118.7625315,32.045202]}},{"type":"Feature","properties":{"osm_type":"node","osm_id":1742193075,"name":"汉中门#4","category":"transit","category_zh":"轨道交通","amenity":null,"railway":"subway_entrance","leisure":null},"geometry":{"type":"Point","coordinates":[118.7622939,32.0446683]}},{"type":"Feature","properties":{"osm_type":"node","osm_id":1742200048,"name":"新模范马路#1","category":"transit","category_zh":"轨道交通","amenity":null,"railway":"subway_entrance","leisure":null},"geometry":{"type":"Point","coordinates":[118.7784653,32.0810689]}},{"type":"Feature","properties":{"osm_type":"node","osm_id":1776918669,"name":"鼓楼#4A","category":"transit","category_zh":"轨道交通","amenity":null,"railway":"subway_entrance","leisure":null},"geometry":{"type":"Point","coordinates":[118.7786403,32.0618547]}},{"type":"Feature","properties":{"osm_type":"node","osm_id":1777208675,"name":"汉中门#2","category":"transit","category_zh":"轨道交通","amenity":null,"railway":"subway_entrance","leisure":null},"geometry":{"type":"Point","coordinates":[118.7610009,32.0450721]}},{"type":"Feature","properties":{"osm_type":"node","osm_id":1983123075,"name":"珠江路#1","category":"transit","category_zh":"轨道交通","amenity":null,"railway":"subway_entrance","leisure":null},"geometry":{"type":"Point","coordinates":[118.7786155,32.0526242]}},{"type":"Feature","properties":{"osm_type":"node","osm_id":1983123076,"name":"珠江路#4","category":"transit","category_zh":"轨道交通","amenity":null,"railway":"subway_entrance","leisure":null},"geometry":{"type":"Point","coordinates":[118.7793411,32.0528152]}},{"type":"Feature","properties":{"osm_type":"node","osm_id":1983123077,"name":"珠江路#3","category":"transit","category_zh":"轨道交通","amenity":null,"railway":"subway_entrance","leisure":null},"geometry":{"type":"Point","coordinates":[118.7792741,32.053664]}},{"type":"Feature","properties":{"osm_type":"node","osm_id":2019988528,"name":"中胜#1A","category":"transit","category_zh":"轨道交通","amenity":null,"railway":"subway_entrance","leisure":null},"geometry":{"type":"Point","coordinates":[118.7272703,31.9904634]}},{"type":"Feature","properties":{"osm_type":"node","osm_id":2019988530,"name":"中胜#1B","category":"transit","category_zh":"轨道交通","amenity":null,"railway":"subway_entrance","leisure":null},"geometry":{"type":"Point","coordinates":[118.7277109,31.991004]}},{"type":"Feature","properties":{"osm_type":"node","osm_id":2615764109,"name":"云锦路#1","category":"transit","category_zh":"轨道交通","amenity":null,"railway":"subway_entrance","leisure":null},"geometry":{"type":"Point","coordinates":[118.7429739,32.0372132]}},{"type":"Feature","properties":{"osm_type":"node","osm_id":2615764112,"name":"云锦路#2","category":"transit","category_zh":"轨道交通","amenity":null,"railway":"subway_entrance","leisure":null},"geometry":{"type":"Point","coordinates":[118.7417683,32.0375345]}},{"type":"Feature","properties":{"osm_type":"node","osm_id":2615764118,"name":"云锦路#3","category":"transit","category_zh":"轨道交通","amenity":null,"railway":"subway_entrance","leisure":null},"geometry":{"type":"Point","coordinates":[118.741363,32.0367153]}},{"type":"Feature","properties":{"osm_type":"node","osm_id":4059246652,"name":"奥体中心东门","category":"transit","category_zh":"轨道交通","amenity":null,"railway":"station","leisure":null},"geometry":{"type":"Point","coordinates":[118.7234631,32.0070407]}},{"type":"Feature","properties":{"osm_type":"node","osm_id":4059246653,"name":"富春江西街","category":"transit","category_zh":"轨道交通","amenity":null,"railway":"station","leisure":null},"geometry":{"type":"Point","coordinates":[118.7203072,32.0031515]}},{"type":"Feature","properties":{"osm_type":"node","osm_id":4405415726,"name":"常府街#1","category":"transit","category_zh":"轨道交通","amenity":null,"railway":"subway_entrance","leisure":null},"geometry":{"type":"Point","coordinates":[118.7866723,32.0349771]}},{"type":"Feature","properties":{"osm_type":"node","osm_id":4405415727,"name":"常府街#4","category":"transit","category_zh":"轨道交通","amenity":null,"railway":"subway_entrance","leisure":null},"geometry":{"type":"Point","coordinates":[118.7870922,32.0363121]}},{"type":"Feature","properties":{"osm_type":"node","osm_id":5500139642,"name":"南京站#1","category":"transit","category_zh":"轨道交通","amenity":null,"railway":"subway_entrance","leisure":null},"geometry":{"type":"Point","coordinates":[118.7901211,32.0885743]}},{"type":"Feature","properties":{"osm_type":"node","osm_id":5500139644,"name":"南京站#4","category":"transit","category_zh":"轨道交通","amenity":null,"railway":"subway_entrance","leisure":null},"geometry":{"type":"Point","coordinates":[118.7914513,32.0879379]}},{"type":"Feature","properties":{"osm_type":"node","osm_id":5549589931,"name":"北广场地面出站口","category":"transit","category_zh":"轨道交通","amenity":null,"railway":"subway_entrance","leisure":null},"geometry":{"type":"Point","coordinates":[118.7937282,32.0899204]}},{"type":"Feature","properties":{"osm_type":"node","osm_id":5616289620,"name":"卡子门#3","category":"transit","category_zh":"轨道交通","amenity":null,"railway":"subway_entrance","leisure":null},"geometry":{"type":"Point","coordinates":[118.7909826,31.9967198]}},{"type":"Feature","properties":{"osm_type":"node","osm_id":6226314588,"name":"未命名节点","category":"transit","category_zh":"轨道交通","amenity":null,"railway":"subway_entrance","leisure":null},"geometry":{"type":"Point","coordinates":[118.7792465,32.0716902]}},{"type":"Feature","properties":{"osm_type":"node","osm_id":6226324777,"name":"新模范马路#2","category":"transit","category_zh":"轨道交通","amenity":null,"railway":"subway_entrance","leisure":null},"geometry":{"type":"Point","coordinates":[118.7786213,32.0826928]}},{"type":"Feature","properties":{"osm_type":"node","osm_id":6877645736,"name":"夫子庙#3","category":"transit","category_zh":"轨道交通","amenity":null,"railway":"subway_entrance","leisure":null},"geometry":{"type":"Point","coordinates":[118.7859839,32.025737]}},{"type":"Feature","properties":{"osm_type":"node","osm_id":6877652546,"name":"明故宫#3","category":"transit","category_zh":"轨道交通","amenity":null,"railway":"subway_entrance","leisure":null},"geometry":{"type":"Point","coordinates":[118.8134963,32.0409745]}},{"type":"Feature","properties":{"osm_type":"node","osm_id":6877659238,"name":"南京站#3","category":"transit","category_zh":"轨道交通","amenity":null,"railway":"subway_entrance","leisure":null},"geometry":{"type":"Point","coordinates":[118.7927646,32.0898957]}},{"type":"Feature","properties":{"osm_type":"node","osm_id":7246781838,"name":"奥体东#4","category":"transit","category_zh":"轨道交通","amenity":null,"railway":"subway_entrance","leisure":null},"geometry":{"type":"Point","coordinates":[118.7246171,32.0071853]}},{"type":"Feature","properties":{"osm_type":"node","osm_id":7573207964,"name":"中华门#2","category":"transit","category_zh":"轨道交通","amenity":null,"railway":"subway_entrance","leisure":null},"geometry":{"type":"Point","coordinates":[118.7698059,32.0092432]}},{"type":"Feature","properties":{"osm_type":"node","osm_id":7573207966,"name":"中华门#1","category":"transit","category_zh":"轨道交通","amenity":null,"railway":"subway_entrance","leisure":null},"geometry":{"type":"Point","coordinates":[118.7696021,32.00932]}},{"type":"Feature","properties":{"osm_type":"node","osm_id":7573207967,"name":"中华门#3","category":"transit","category_zh":"轨道交通","amenity":null,"railway":"subway_entrance","leisure":null},"geometry":{"type":"Point","coordinates":[118.7689386,32.0082865]}},{"type":"Feature","properties":{"osm_type":"node","osm_id":7574616941,"name":"安德门#4","category":"transit","category_zh":"轨道交通","amenity":null,"railway":"subway_entrance","leisure":null},"geometry":{"type":"Point","coordinates":[118.7566566,31.9932909]}},{"type":"Feature","properties":{"osm_type":"node","osm_id":7574616942,"name":"安德门#3","category":"transit","category_zh":"轨道交通","amenity":null,"railway":"subway_entrance","leisure":null},"geometry":{"type":"Point","coordinates":[118.756764,31.9940277]}},{"type":"Feature","properties":{"osm_type":"node","osm_id":7574616949,"name":"安德门#1","category":"transit","category_zh":"轨道交通","amenity":null,"railway":"subway_entrance","leisure":null},"geometry":{"type":"Point","coordinates":[118.756478,31.9940662]}},{"type":"Feature","properties":{"osm_type":"node","osm_id":7574616950,"name":"安德门#2","category":"transit","category_zh":"轨道交通","amenity":null,"railway":"subway_entrance","leisure":null},"geometry":{"type":"Point","coordinates":[118.7567733,31.9942827]}},{"type":"Feature","properties":{"osm_type":"node","osm_id":7574616951,"name":"安德门#6","category":"transit","category_zh":"轨道交通","amenity":null,"railway":"subway_entrance","leisure":null},"geometry":{"type":"Point","coordinates":[118.7575379,31.9940242]}},{"type":"Feature","properties":{"osm_type":"node","osm_id":7574616952,"name":"安德门#5","category":"transit","category_zh":"轨道交通","amenity":null,"railway":"subway_entrance","leisure":null},"geometry":{"type":"Point","coordinates":[118.7565621,31.9923292]}},{"type":"Feature","properties":{"osm_type":"node","osm_id":7977608849,"name":"三山街#2","category":"transit","category_zh":"轨道交通","amenity":null,"railway":"subway_entrance","leisure":null},"geometry":{"type":"Point","coordinates":[118.7763262,32.025596]}},{"type":"Feature","properties":{"osm_type":"node","osm_id":7977649738,"name":"三山街#4","category":"transit","category_zh":"轨道交通","amenity":null,"railway":"subway_entrance","leisure":null},"geometry":{"type":"Point","coordinates":[118.7762542,32.0239367]}},{"type":"Feature","properties":{"osm_type":"node","osm_id":7977651586,"name":"三山街#1","category":"transit","category_zh":"轨道交通","amenity":null,"railway":"subway_entrance","leisure":null},"geometry":{"type":"Point","coordinates":[118.7759042,32.0246842]}},{"type":"Feature","properties":{"osm_type":"node","osm_id":7977651885,"name":"三山街#3","category":"transit","category_zh":"轨道交通","amenity":null,"railway":"subway_entrance","leisure":null},"geometry":{"type":"Point","coordinates":[118.7768547,32.0255928]}},{"type":"Feature","properties":{"osm_type":"node","osm_id":7985414437,"name":"浮桥#3A","category":"transit","category_zh":"轨道交通","amenity":null,"railway":"subway_entrance","leisure":null},"geometry":{"type":"Point","coordinates":[118.7914548,32.0506281]}},{"type":"Feature","properties":{"osm_type":"node","osm_id":7985419485,"name":"夫子庙#2","category":"transit","category_zh":"轨道交通","amenity":null,"railway":"subway_entrance","leisure":null},"geometry":{"type":"Point","coordinates":[118.7858586,32.0251254]}},{"type":"Feature","properties":{"osm_type":"node","osm_id":7987821705,"name":"大行宫#5","category":"transit","category_zh":"轨道交通","amenity":null,"railway":"subway_entrance","leisure":null},"geometry":{"type":"Point","coordinates":[118.7898627,32.0446148]}},{"type":"Feature","properties":{"osm_type":"node","osm_id":7996694645,"name":"新模范马路#4","category":"transit","category_zh":"轨道交通","amenity":null,"railway":"subway_entrance","leisure":null},"geometry":{"type":"Point","coordinates":[118.7791543,32.0813716]}},{"type":"Feature","properties":{"osm_type":"node","osm_id":7996694746,"name":"未命名节点","category":"transit","category_zh":"轨道交通","amenity":null,"railway":"subway_entrance","leisure":null},"geometry":{"type":"Point","coordinates":[118.778613,32.0721927]}},{"type":"Feature","properties":{"osm_type":"node","osm_id":7996694747,"name":"未命名节点","category":"transit","category_zh":"轨道交通","amenity":null,"railway":"subway_entrance","leisure":null},"geometry":{"type":"Point","coordinates":[118.778557,32.0746827]}},{"type":"Feature","properties":{"osm_type":"node","osm_id":7996694748,"name":"未命名节点","category":"transit","category_zh":"轨道交通","amenity":null,"railway":"subway_entrance","leisure":null},"geometry":{"type":"Point","coordinates":[118.7785228,32.0739944]}},{"type":"Feature","properties":{"osm_type":"node","osm_id":7996694788,"name":"鼓楼#4B","category":"transit","category_zh":"轨道交通","amenity":null,"railway":"subway_entrance","leisure":null},"geometry":{"type":"Point","coordinates":[118.7791544,32.0617101]}},{"type":"Feature","properties":{"osm_type":"node","osm_id":7996694789,"name":"鼓楼#3","category":"transit","category_zh":"轨道交通","amenity":null,"railway":"subway_entrance","leisure":null},"geometry":{"type":"Point","coordinates":[118.7780196,32.0613417]}},{"type":"Feature","properties":{"osm_type":"node","osm_id":7996694790,"name":"鼓楼#2","category":"transit","category_zh":"轨道交通","amenity":null,"railway":"subway_entrance","leisure":null},"geometry":{"type":"Point","coordinates":[118.7779778,32.060355]}},{"type":"Feature","properties":{"osm_type":"node","osm_id":7996694791,"name":"鼓楼#1","category":"transit","category_zh":"轨道交通","amenity":null,"railway":"subway_entrance","leisure":null},"geometry":{"type":"Point","coordinates":[118.7785385,32.0598813]}},{"type":"Feature","properties":{"osm_type":"node","osm_id":7996694934,"name":"新街口#4","category":"transit","category_zh":"轨道交通","amenity":null,"railway":"subway_entrance","leisure":null},"geometry":{"type":"Point","coordinates":[118.778619,32.0431443]}},{"type":"Feature","properties":{"osm_type":"node","osm_id":7996694935,"name":"新街口#16","category":"transit","category_zh":"轨道交通","amenity":null,"railway":"subway_entrance","leisure":null},"geometry":{"type":"Point","coordinates":[118.7786313,32.0428857]}},{"type":"Feature","properties":{"osm_type":"node","osm_id":7996788912,"name":"张府园#1","category":"transit","category_zh":"轨道交通","amenity":null,"railway":"subway_entrance","leisure":null},"geometry":{"type":"Point","coordinates":[118.7785529,32.0338811]}},{"type":"Feature","properties":{"osm_type":"node","osm_id":7996788913,"name":"张府园#2","category":"transit","category_zh":"轨道交通","amenity":null,"railway":"subway_entrance","leisure":null},"geometry":{"type":"Point","coordinates":[118.779119,32.0329996]}},{"type":"Feature","properties":{"osm_type":"node","osm_id":7996788914,"name":"张府园#4","category":"transit","category_zh":"轨道交通","amenity":null,"railway":"subway_entrance","leisure":null},"geometry":{"type":"Point","coordinates":[118.7783761,32.0325779]}},{"type":"Feature","properties":{"osm_type":"node","osm_id":7996788915,"name":"张府园#3","category":"transit","category_zh":"轨道交通","amenity":null,"railway":"subway_entrance","leisure":null},"geometry":{"type":"Point","coordinates":[118.7786944,32.0320501]}},{"type":"Feature","properties":{"osm_type":"node","osm_id":8001955539,"name":"南京林业大学·新庄","category":"transit","category_zh":"轨道交通","amenity":null,"railway":"station","leisure":null},"geometry":{"type":"Point","coordinates":[118.8052423,32.078684]}},{"type":"Feature","properties":{"osm_type":"node","osm_id":8001955540,"name":"南京林业大学·新庄#1","category":"transit","category_zh":"轨道交通","amenity":null,"railway":"subway_entrance","leisure":null},"geometry":{"type":"Point","coordinates":[118.8048259,32.0793321]}},{"type":"Feature","properties":{"osm_type":"node","osm_id":8001955541,"name":"南京林业大学·新庄#3","category":"transit","category_zh":"轨道交通","amenity":null,"railway":"subway_entrance","leisure":null},"geometry":{"type":"Point","coordinates":[118.8055123,32.0780695]}},{"type":"Feature","properties":{"osm_type":"node","osm_id":8001955542,"name":"南京林业大学·新庄#2","category":"transit","category_zh":"轨道交通","amenity":null,"railway":"subway_entrance","leisure":null},"geometry":{"type":"Point","coordinates":[118.8046806,32.0777971]}},{"type":"Feature","properties":{"osm_type":"node","osm_id":8001955583,"name":"未命名节点","category":"transit","category_zh":"轨道交通","amenity":null,"railway":"subway_entrance","leisure":null},"geometry":{"type":"Point","coordinates":[118.7933242,32.0600646]}},{"type":"Feature","properties":{"osm_type":"node","osm_id":8001955584,"name":"未命名节点","category":"transit","category_zh":"轨道交通","amenity":null,"railway":"subway_entrance","leisure":null},"geometry":{"type":"Point","coordinates":[118.792361,32.0583639]}},{"type":"Feature","properties":{"osm_type":"node","osm_id":8001964964,"name":"雨花门#2","category":"transit","category_zh":"轨道交通","amenity":null,"railway":"subway_entrance","leisure":null},"geometry":{"type":"Point","coordinates":[118.7877391,32.005788]}},{"type":"Feature","properties":{"osm_type":"node","osm_id":8001964968,"name":"卡子门#1","category":"transit","category_zh":"轨道交通","amenity":null,"railway":"subway_entrance","leisure":null},"geometry":{"type":"Point","coordinates":[118.7904241,31.9985217]}},{"type":"Feature","properties":{"osm_type":"node","osm_id":8001964969,"name":"卡子门#4","category":"transit","category_zh":"轨道交通","amenity":null,"railway":"subway_entrance","leisure":null},"geometry":{"type":"Point","coordinates":[118.7904787,31.9973697]}},{"type":"Feature","properties":{"osm_type":"node","osm_id":8001965385,"name":"鸡鸣寺#6","category":"transit","category_zh":"轨道交通","amenity":null,"railway":"subway_entrance","leisure":null},"geometry":{"type":"Point","coordinates":[118.7913881,32.0593764]}},{"type":"Feature","properties":{"osm_type":"node","osm_id":8001965386,"name":"鸡鸣寺站 5","category":"transit","category_zh":"轨道交通","amenity":null,"railway":"subway_entrance","leisure":null},"geometry":{"type":"Point","coordinates":[118.7914078,32.0597786]}},{"type":"Feature","properties":{"osm_type":"node","osm_id":8001965389,"name":"浮桥#1","category":"transit","category_zh":"轨道交通","amenity":null,"railway":"subway_entrance","leisure":null},"geometry":{"type":"Point","coordinates":[118.7910488,32.0523759]}},{"type":"Feature","properties":{"osm_type":"node","osm_id":8001965390,"name":"浮桥#2","category":"transit","category_zh":"轨道交通","amenity":null,"railway":"subway_entrance","leisure":null},"geometry":{"type":"Point","coordinates":[118.7906143,32.0508903]}},{"type":"Feature","properties":{"osm_type":"node","osm_id":8001965391,"name":"浮桥#3B","category":"transit","category_zh":"轨道交通","amenity":null,"railway":"subway_entrance","leisure":null},"geometry":{"type":"Point","coordinates":[118.7912647,32.0512404]}},{"type":"Feature","properties":{"osm_type":"node","osm_id":8001965392,"name":"大行宫#2","category":"transit","category_zh":"轨道交通","amenity":null,"railway":"subway_entrance","leisure":null},"geometry":{"type":"Point","coordinates":[118.7890113,32.0435041]}},{"type":"Feature","properties":{"osm_type":"node","osm_id":8001965393,"name":"大行宫#3","category":"transit","category_zh":"轨道交通","amenity":null,"railway":"subway_entrance","leisure":null},"geometry":{"type":"Point","coordinates":[118.7898257,32.0428263]}},{"type":"Feature","properties":{"osm_type":"node","osm_id":8001965394,"name":"大行宫#1","category":"transit","category_zh":"轨道交通","amenity":null,"railway":"subway_entrance","leisure":null},"geometry":{"type":"Point","coordinates":[118.7898619,32.0433242]}},{"type":"Feature","properties":{"osm_type":"node","osm_id":8002507181,"name":"鼓楼#6","category":"transit","category_zh":"轨道交通","amenity":null,"railway":"subway_entrance","leisure":null},"geometry":{"type":"Point","coordinates":[118.777281,32.0613256]}},{"type":"Feature","properties":{"osm_type":"node","osm_id":8002507182,"name":"未命名节点","category":"transit","category_zh":"轨道交通","amenity":null,"railway":"subway_entrance","leisure":null},"geometry":{"type":"Point","coordinates":[118.7775559,32.0602416]}},{"type":"Feature","properties":{"osm_type":"node","osm_id":8002523191,"name":"龙江#1","category":"transit","category_zh":"轨道交通","amenity":null,"railway":"subway_entrance","leisure":null},"geometry":{"type":"Point","coordinates":[118.73373,32.0598322]}},{"type":"Feature","properties":{"osm_type":"node","osm_id":8002523192,"name":"龙江#3","category":"transit","category_zh":"轨道交通","amenity":null,"railway":"subway_entrance","leisure":null},"geometry":{"type":"Point","coordinates":[118.7350255,32.0606255]}},{"type":"Feature","properties":{"osm_type":"node","osm_id":8002523193,"name":"龙江#4","category":"transit","category_zh":"轨道交通","amenity":null,"railway":"subway_entrance","leisure":null},"geometry":{"type":"Point","coordinates":[118.733316,32.060245]}},{"type":"Feature","properties":{"osm_type":"node","osm_id":8002523199,"name":"草场门#3","category":"transit","category_zh":"轨道交通","amenity":null,"railway":"subway_entrance","leisure":null},"geometry":{"type":"Point","coordinates":[118.750932,32.0631376]}},{"type":"Feature","properties":{"osm_type":"node","osm_id":8002523200,"name":"草场门#4","category":"transit","category_zh":"轨道交通","amenity":null,"railway":"subway_entrance","leisure":null},"geometry":{"type":"Point","coordinates":[118.749311,32.0623076]}},{"type":"Feature","properties":{"osm_type":"node","osm_id":8002523201,"name":"草场门#1","category":"transit","category_zh":"轨道交通","amenity":null,"railway":"subway_entrance","leisure":null},"geometry":{"type":"Point","coordinates":[118.7496409,32.0618644]}},{"type":"Feature","properties":{"osm_type":"node","osm_id":8002523205,"name":"岗子村#2","category":"transit","category_zh":"轨道交通","amenity":null,"railway":"subway_entrance","leisure":null},"geometry":{"type":"Point","coordinates":[118.8106413,32.0682605]}},{"type":"Feature","properties":{"osm_type":"node","osm_id":8002523206,"name":"岗子村#1","category":"transit","category_zh":"轨道交通","amenity":null,"railway":"subway_entrance","leisure":null},"geometry":{"type":"Point","coordinates":[118.8115113,32.0679196]}},{"type":"Feature","properties":{"osm_type":"node","osm_id":8002523207,"name":"未命名节点","category":"transit","category_zh":"轨道交通","amenity":null,"railway":"subway_entrance","leisure":null},"geometry":{"type":"Point","coordinates":[118.8096635,32.0675266]}},{"type":"Feature","properties":{"osm_type":"node","osm_id":8002525187,"name":"莫愁湖#1","category":"transit","category_zh":"轨道交通","amenity":null,"railway":"subway_entrance","leisure":null},"geometry":{"type":"Point","coordinates":[118.7539121,32.0401264]}},{"type":"Feature","properties":{"osm_type":"node","osm_id":8002525188,"name":"莫愁湖#2","category":"transit","category_zh":"轨道交通","amenity":null,"railway":"subway_entrance","leisure":null},"geometry":{"type":"Point","coordinates":[118.7528166,32.0389509]}},{"type":"Feature","properties":{"osm_type":"node","osm_id":8002618546,"name":"明故宫#2","category":"transit","category_zh":"轨道交通","amenity":null,"railway":"subway_entrance","leisure":null},"geometry":{"type":"Point","coordinates":[118.8139012,32.0416656]}},{"type":"Feature","properties":{"osm_type":"node","osm_id":8002618547,"name":"明故宫#1","category":"transit","category_zh":"轨道交通","amenity":null,"railway":"subway_entrance","leisure":null},"geometry":{"type":"Point","coordinates":[118.8152558,32.0415655]}},{"type":"Feature","properties":{"osm_type":"node","osm_id":8003740729,"name":"中胜#2C","category":"transit","category_zh":"轨道交通","amenity":null,"railway":"subway_entrance","leisure":null},"geometry":{"type":"Point","coordinates":[118.7291523,31.9900652]}},{"type":"Feature","properties":{"osm_type":"node","osm_id":8003740730,"name":"中胜#2B","category":"transit","category_zh":"轨道交通","amenity":null,"railway":"subway_entrance","leisure":null},"geometry":{"type":"Point","coordinates":[118.7288688,31.9902427]}},{"type":"Feature","properties":{"osm_type":"node","osm_id":8003740731,"name":"中胜#1C","category":"transit","category_zh":"轨道交通","amenity":null,"railway":"subway_entrance","leisure":null},"geometry":{"type":"Point","coordinates":[118.728328,31.9909376]}},{"type":"Feature","properties":{"osm_type":"node","osm_id":8018553450,"name":"龙江#2","category":"transit","category_zh":"轨道交通","amenity":null,"railway":"subway_entrance","leisure":null},"geometry":{"type":"Point","coordinates":[118.7356137,32.0599437]}},{"type":"Feature","properties":{"osm_type":"node","osm_id":8018570690,"name":"草场门#2","category":"transit","category_zh":"轨道交通","amenity":null,"railway":"subway_entrance","leisure":null},"geometry":{"type":"Point","coordinates":[118.7512525,32.0625616]}},{"type":"Feature","properties":{"osm_type":"node","osm_id":8018570726,"name":"云南路#5A","category":"transit","category_zh":"轨道交通","amenity":null,"railway":"subway_entrance","leisure":null},"geometry":{"type":"Point","coordinates":[118.7685956,32.0614171]}},{"type":"Feature","properties":{"osm_type":"node","osm_id":8018570728,"name":"云南路#5B","category":"transit","category_zh":"轨道交通","amenity":null,"railway":"subway_entrance","leisure":null},"geometry":{"type":"Point","coordinates":[118.7691749,32.0614511]}},{"type":"Feature","properties":{"osm_type":"node","osm_id":8018570731,"name":"云南路#1","category":"transit","category_zh":"轨道交通","amenity":null,"railway":"subway_entrance","leisure":null},"geometry":{"type":"Point","coordinates":[118.7684647,32.0610999]}},{"type":"Feature","properties":{"osm_type":"node","osm_id":8018570735,"name":"云南路#4","category":"transit","category_zh":"轨道交通","amenity":null,"railway":"subway_entrance","leisure":null},"geometry":{"type":"Point","coordinates":[118.7695584,32.0615947]}},{"type":"Feature","properties":{"osm_type":"node","osm_id":8018570738,"name":"云南路#2","category":"transit","category_zh":"轨道交通","amenity":null,"railway":"subway_entrance","leisure":null},"geometry":{"type":"Point","coordinates":[118.7695261,32.0609824]}},{"type":"Feature","properties":{"osm_type":"node","osm_id":8018570741,"name":"云南路#3","category":"transit","category_zh":"轨道交通","amenity":null,"railway":"subway_entrance","leisure":null},"geometry":{"type":"Point","coordinates":[118.7699759,32.0609576]}},{"type":"Feature","properties":{"osm_type":"node","osm_id":8018570849,"name":"九华山#2","category":"transit","category_zh":"轨道交通","amenity":null,"railway":"subway_entrance","leisure":null},"geometry":{"type":"Point","coordinates":[118.8000577,32.059843]}},{"type":"Feature","properties":{"osm_type":"node","osm_id":8018570850,"name":"九华山#1","category":"transit","category_zh":"轨道交通","amenity":null,"railway":"subway_entrance","leisure":null},"geometry":{"type":"Point","coordinates":[118.8010009,32.0596721]}},{"type":"Feature","properties":{"osm_type":"node","osm_id":8018570937,"name":"蒋王庙#1","category":"transit","category_zh":"轨道交通","amenity":null,"railway":"subway_entrance","leisure":null},"geometry":{"type":"Point","coordinates":[118.8252162,32.0801741]}},{"type":"Feature","properties":{"osm_type":"node","osm_id":8018570938,"name":"蒋王庙#2","category":"transit","category_zh":"轨道交通","amenity":null,"railway":"subway_entrance","leisure":null},"geometry":{"type":"Point","coordinates":[118.8255058,32.0796416]}},{"type":"Feature","properties":{"osm_type":"node","osm_id":8018687816,"name":"王家湾#2","category":"transit","category_zh":"轨道交通","amenity":null,"railway":"subway_entrance","leisure":null},"geometry":{"type":"Point","coordinates":[118.8316988,32.0873991]}},{"type":"Feature","properties":{"osm_type":"node","osm_id":8018687818,"name":"王家湾#1","category":"transit","category_zh":"轨道交通","amenity":null,"railway":"subway_entrance","leisure":null},"geometry":{"type":"Point","coordinates":[118.8344779,32.0879565]}},{"type":"Feature","properties":{"osm_type":"node","osm_id":8021178043,"name":"大行宫#6","category":"transit","category_zh":"轨道交通","amenity":null,"railway":"subway_entrance","leisure":null},"geometry":{"type":"Point","coordinates":[118.7893586,32.0445837]}},{"type":"Feature","properties":{"osm_type":"node","osm_id":8022420969,"name":"新街口#8","category":"transit","category_zh":"轨道交通","amenity":null,"railway":"subway_entrance","leisure":null},"geometry":{"type":"Point","coordinates":[118.7793632,32.0434373]}},{"type":"Feature","properties":{"osm_type":"node","osm_id":8039975272,"name":"奥体东#3","category":"transit","category_zh":"轨道交通","amenity":null,"railway":"subway_entrance","leisure":null},"geometry":{"type":"Point","coordinates":[118.7236571,32.0060056]}},{"type":"Feature","properties":{"osm_type":"node","osm_id":8039975275,"name":"奥体东#1","category":"transit","category_zh":"轨道交通","amenity":null,"railway":"subway_entrance","leisure":null},"geometry":{"type":"Point","coordinates":[118.7230211,32.0066633]}},{"type":"Feature","properties":{"osm_type":"node","osm_id":8039975278,"name":"奥体东#2","category":"transit","category_zh":"轨道交通","amenity":null,"railway":"subway_entrance","leisure":null},"geometry":{"type":"Point","coordinates":[118.7235324,32.0072935]}},{"type":"Feature","properties":{"osm_type":"node","osm_id":8039975313,"name":"兴隆大街#2","category":"transit","category_zh":"轨道交通","amenity":null,"railway":"subway_entrance","leisure":null},"geometry":{"type":"Point","coordinates":[118.7310576,32.0165431]}},{"type":"Feature","properties":{"osm_type":"node","osm_id":8039975316,"name":"兴隆大街#1","category":"transit","category_zh":"轨道交通","amenity":null,"railway":"subway_entrance","leisure":null},"geometry":{"type":"Point","coordinates":[118.7315389,32.018032]}},{"type":"Feature","properties":{"osm_type":"node","osm_id":8039975341,"name":"集庆门大街#1","category":"transit","category_zh":"轨道交通","amenity":null,"railway":"subway_entrance","leisure":null},"geometry":{"type":"Point","coordinates":[118.7351457,32.0307432]}},{"type":"Feature","properties":{"osm_type":"node","osm_id":8039975343,"name":"集庆门大街#2","category":"transit","category_zh":"轨道交通","amenity":null,"railway":"subway_entrance","leisure":null},"geometry":{"type":"Point","coordinates":[118.7347698,32.0313796]}},{"type":"Feature","properties":{"osm_type":"node","osm_id":8039975346,"name":"集庆门大街#5","category":"transit","category_zh":"轨道交通","amenity":null,"railway":"subway_entrance","leisure":null},"geometry":{"type":"Point","coordinates":[118.7337464,32.0313977]}},{"type":"Feature","properties":{"osm_type":"node","osm_id":8039975349,"name":"集庆门大街#6","category":"transit","category_zh":"轨道交通","amenity":null,"railway":"subway_entrance","leisure":null},"geometry":{"type":"Point","coordinates":[118.7335391,32.0308649]}},{"type":"Feature","properties":{"osm_type":"node","osm_id":8039975351,"name":"集庆门大街#7A","category":"transit","category_zh":"轨道交通","amenity":null,"railway":"subway_entrance","leisure":null},"geometry":{"type":"Point","coordinates":[118.7337968,32.0295183]}},{"type":"Feature","properties":{"osm_type":"node","osm_id":8039975352,"name":"集庆门大街#7B","category":"transit","category_zh":"轨道交通","amenity":null,"railway":"subway_entrance","leisure":null},"geometry":{"type":"Point","coordinates":[118.7335511,32.0298195]}},{"type":"Feature","properties":{"osm_type":"node","osm_id":8039975454,"name":"汉中门#3","category":"transit","category_zh":"轨道交通","amenity":null,"railway":"subway_entrance","leisure":null},"geometry":{"type":"Point","coordinates":[118.7613151,32.044274]}},{"type":"Feature","properties":{"osm_type":"node","osm_id":8040236493,"name":"西安门#4","category":"transit","category_zh":"轨道交通","amenity":null,"railway":"subway_entrance","leisure":null},"geometry":{"type":"Point","coordinates":[118.8011204,32.0417482]}},{"type":"Feature","properties":{"osm_type":"node","osm_id":8040236495,"name":"西安门#1","category":"transit","category_zh":"轨道交通","amenity":null,"railway":"subway_entrance","leisure":null},"geometry":{"type":"Point","coordinates":[118.8011082,32.0425801]}},{"type":"Feature","properties":{"osm_type":"node","osm_id":8040236662,"name":"钟灵街#2A","category":"transit","category_zh":"轨道交通","amenity":null,"railway":"subway_entrance","leisure":null},"geometry":{"type":"Point","coordinates":[118.8632633,32.0411355]}},{"type":"Feature","properties":{"osm_type":"node","osm_id":8040236663,"name":"钟灵街#1","category":"transit","category_zh":"轨道交通","amenity":null,"railway":"subway_entrance","leisure":null},"geometry":{"type":"Point","coordinates":[118.8647503,32.042037]}},{"type":"Feature","properties":{"osm_type":"node","osm_id":8040236666,"name":"钟灵街#2B","category":"transit","category_zh":"轨道交通","amenity":null,"railway":"subway_entrance","leisure":null},"geometry":{"type":"Point","coordinates":[118.8644867,32.0411064]}},{"type":"Feature","properties":{"osm_type":"node","osm_id":8042375373,"name":"夫子庙#1","category":"transit","category_zh":"轨道交通","amenity":null,"railway":"subway_entrance","leisure":null},"geometry":{"type":"Point","coordinates":[118.7855837,32.0275478]}},{"type":"Feature","properties":{"osm_type":"node","osm_id":8042375376,"name":"夫子庙#4","category":"transit","category_zh":"轨道交通","amenity":null,"railway":"subway_entrance","leisure":null},"geometry":{"type":"Point","coordinates":[118.7859127,32.0258594]}},{"type":"Feature","properties":{"osm_type":"node","osm_id":8042405548,"name":"雨花门#4","category":"transit","category_zh":"轨道交通","amenity":null,"railway":"subway_entrance","leisure":null},"geometry":{"type":"Point","coordinates":[118.7868267,32.0059381]}},{"type":"Feature","properties":{"osm_type":"node","osm_id":8280728428,"name":"光华门","category":"transit","category_zh":"轨道交通","amenity":null,"railway":"station","leisure":null},"geometry":{"type":"Point","coordinates":[118.8230514,32.0172432]}},{"type":"Feature","properties":{"osm_type":"node","osm_id":9164163240,"name":"南京站","category":"transit","category_zh":"轨道交通","amenity":null,"railway":"station","leisure":null},"geometry":{"type":"Point","coordinates":[118.7914145,32.089061]}},{"type":"Feature","properties":{"osm_type":"node","osm_id":9164163242,"name":"新模范马路","category":"transit","category_zh":"轨道交通","amenity":null,"railway":"station","leisure":null},"geometry":{"type":"Point","coordinates":[118.7785505,32.0819286]}},{"type":"Feature","properties":{"osm_type":"node","osm_id":9164163243,"name":"玄武门","category":"transit","category_zh":"轨道交通","amenity":null,"railway":"station","leisure":null},"geometry":{"type":"Point","coordinates":[118.7790054,32.0724367]}},{"type":"Feature","properties":{"osm_type":"node","osm_id":9164163244,"name":"鼓楼","category":"transit","category_zh":"轨道交通","amenity":null,"railway":"station","leisure":null},"geometry":{"type":"Point","coordinates":[118.778424,32.0607794]}},{"type":"Feature","properties":{"osm_type":"node","osm_id":9164163245,"name":"鼓楼","category":"transit","category_zh":"轨道交通","amenity":null,"railway":"station","leisure":null},"geometry":{"type":"Point","coordinates":[118.7779653,32.0608993]}},{"type":"Feature","properties":{"osm_type":"node","osm_id":9164163246,"name":"珠江路","category":"transit","category_zh":"轨道交通","amenity":null,"railway":"station","leisure":null},"geometry":{"type":"Point","coordinates":[118.7790309,32.0530398]}},{"type":"Feature","properties":{"osm_type":"node","osm_id":9164163247,"name":"新街口","category":"transit","category_zh":"轨道交通","amenity":null,"railway":"station","leisure":null},"geometry":{"type":"Point","coordinates":[118.7789021,32.0435852]}},{"type":"Feature","properties":{"osm_type":"node","osm_id":9164163248,"name":"新街口","category":"transit","category_zh":"轨道交通","amenity":null,"railway":"station","leisure":null},"geometry":{"type":"Point","coordinates":[118.7786931,32.0438326]}},{"type":"Feature","properties":{"osm_type":"node","osm_id":9164163249,"name":"张府园","category":"transit","category_zh":"轨道交通","amenity":null,"railway":"station","leisure":null},"geometry":{"type":"Point","coordinates":[118.7786956,32.0329227]}},{"type":"Feature","properties":{"osm_type":"node","osm_id":9164163250,"name":"三山街","category":"transit","category_zh":"轨道交通","amenity":null,"railway":"station","leisure":null},"geometry":{"type":"Point","coordinates":[118.7763077,32.0250048]}},{"type":"Feature","properties":{"osm_type":"node","osm_id":9164163251,"name":"中华门","category":"transit","category_zh":"轨道交通","amenity":null,"railway":"station","leisure":null},"geometry":{"type":"Point","coordinates":[118.7692948,32.0088699]}},{"type":"Feature","properties":{"osm_type":"node","osm_id":9164163252,"name":"安德门","category":"transit","category_zh":"轨道交通","amenity":null,"railway":"station","leisure":null},"geometry":{"type":"Point","coordinates":[118.7565037,31.9938186]}},{"type":"Feature","properties":{"osm_type":"node","osm_id":9164163253,"name":"安德门","category":"transit","category_zh":"轨道交通","amenity":null,"railway":"station","leisure":null},"geometry":{"type":"Point","coordinates":[118.7568575,31.9928898]}},{"type":"Feature","properties":{"osm_type":"node","osm_id":9164739498,"name":"钟灵街","category":"transit","category_zh":"轨道交通","amenity":null,"railway":"station","leisure":null},"geometry":{"type":"Point","coordinates":[118.8638447,32.0416668]}},{"type":"Feature","properties":{"osm_type":"node","osm_id":9164739499,"name":"孝陵卫","category":"transit","category_zh":"轨道交通","amenity":null,"railway":"station","leisure":null},"geometry":{"type":"Point","coordinates":[118.8527169,32.0377237]}},{"type":"Feature","properties":{"osm_type":"node","osm_id":9164739500,"name":"下马坊","category":"transit","category_zh":"轨道交通","amenity":null,"railway":"station","leisure":null},"geometry":{"type":"Point","coordinates":[118.8433757,32.0398762]}},{"type":"Feature","properties":{"osm_type":"node","osm_id":9164739501,"name":"苜蓿园","category":"transit","category_zh":"轨道交通","amenity":null,"railway":"station","leisure":null},"geometry":{"type":"Point","coordinates":[118.829969,32.0423793]}},{"type":"Feature","properties":{"osm_type":"node","osm_id":9164739502,"name":"明故宫","category":"transit","category_zh":"轨道交通","amenity":null,"railway":"station","leisure":null},"geometry":{"type":"Point","coordinates":[118.8144822,32.0413753]}},{"type":"Feature","properties":{"osm_type":"node","osm_id":9164739503,"name":"西安门","category":"transit","category_zh":"轨道交通","amenity":null,"railway":"station","leisure":null},"geometry":{"type":"Point","coordinates":[118.8003896,32.0421938]}},{"type":"Feature","properties":{"osm_type":"node","osm_id":9164739504,"name":"大行宫","category":"transit","category_zh":"轨道交通","amenity":null,"railway":"station","leisure":null},"geometry":{"type":"Point","coordinates":[118.7896339,32.0431408]}},{"type":"Feature","properties":{"osm_type":"node","osm_id":9164739505,"name":"大行宫","category":"transit","category_zh":"轨道交通","amenity":null,"railway":"station","leisure":null},"geometry":{"type":"Point","coordinates":[118.789426,32.0441325]}},{"type":"Feature","properties":{"osm_type":"node","osm_id":9164739506,"name":"上海路","category":"transit","category_zh":"轨道交通","amenity":null,"railway":"station","leisure":null},"geometry":{"type":"Point","coordinates":[118.7708082,32.0442907]}},{"type":"Feature","properties":{"osm_type":"node","osm_id":9164739507,"name":"汉中门","category":"transit","category_zh":"轨道交通","amenity":null,"railway":"station","leisure":null},"geometry":{"type":"Point","coordinates":[118.7618044,32.0447812]}},{"type":"Feature","properties":{"osm_type":"node","osm_id":9164739508,"name":"莫愁湖","category":"transit","category_zh":"轨道交通","amenity":null,"railway":"station","leisure":null},"geometry":{"type":"Point","coordinates":[118.7539956,32.039308]}},{"type":"Feature","properties":{"osm_type":"node","osm_id":9164739509,"name":"云锦路","category":"transit","category_zh":"轨道交通","amenity":null,"railway":"station","leisure":null},"geometry":{"type":"Point","coordinates":[118.742365,32.0370213]}},{"type":"Feature","properties":{"osm_type":"node","osm_id":9164739510,"name":"集庆门大街","category":"transit","category_zh":"轨道交通","amenity":null,"railway":"station","leisure":null},"geometry":{"type":"Point","coordinates":[118.7343538,32.0301623]}},{"type":"Feature","properties":{"osm_type":"node","osm_id":9164739511,"name":"兴隆大街","category":"transit","category_zh":"轨道交通","amenity":null,"railway":"station","leisure":null},"geometry":{"type":"Point","coordinates":[118.7308601,32.0173844]}},{"type":"Feature","properties":{"osm_type":"node","osm_id":9164739512,"name":"奥体东","category":"transit","category_zh":"轨道交通","amenity":null,"railway":"station","leisure":null},"geometry":{"type":"Point","coordinates":[118.72384,32.0066065]}},{"type":"Feature","properties":{"osm_type":"node","osm_id":9164878207,"name":"鸡鸣寺","category":"transit","category_zh":"轨道交通","amenity":null,"railway":"station","leisure":null},"geometry":{"type":"Point","coordinates":[118.7927528,32.0591776]}},{"type":"Feature","properties":{"osm_type":"node","osm_id":9164878208,"name":"鸡鸣寺","category":"transit","category_zh":"轨道交通","amenity":null,"railway":"station","leisure":null},"geometry":{"type":"Point","coordinates":[118.7921868,32.0597171]}},{"type":"Feature","properties":{"osm_type":"node","osm_id":9164878209,"name":"浮桥","category":"transit","category_zh":"轨道交通","amenity":null,"railway":"station","leisure":null},"geometry":{"type":"Point","coordinates":[118.7910251,32.0514183]}},{"type":"Feature","properties":{"osm_type":"node","osm_id":9164878210,"name":"常府街","category":"transit","category_zh":"轨道交通","amenity":null,"railway":"station","leisure":null},"geometry":{"type":"Point","coordinates":[118.7870613,32.0356111]}},{"type":"Feature","properties":{"osm_type":"node","osm_id":9164878211,"name":"夫子庙","category":"transit","category_zh":"轨道交通","amenity":null,"railway":"station","leisure":null},"geometry":{"type":"Point","coordinates":[118.7857444,32.0262978]}},{"type":"Feature","properties":{"osm_type":"node","osm_id":9164878212,"name":"武定门","category":"transit","category_zh":"轨道交通","amenity":null,"railway":"station","leisure":null},"geometry":{"type":"Point","coordinates":[118.7892959,32.0156328]}},{"type":"Feature","properties":{"osm_type":"node","osm_id":9164878213,"name":"雨花门","category":"transit","category_zh":"轨道交通","amenity":null,"railway":"station","leisure":null},"geometry":{"type":"Point","coordinates":[118.7873914,32.0057781]}},{"type":"Feature","properties":{"osm_type":"node","osm_id":9164878214,"name":"卡子门","category":"transit","category_zh":"轨道交通","amenity":null,"railway":"station","leisure":null},"geometry":{"type":"Point","coordinates":[118.7902427,31.9974236]}},{"type":"Feature","properties":{"osm_type":"node","osm_id":9164951623,"name":"龙江","category":"transit","category_zh":"轨道交通","amenity":null,"railway":"station","leisure":null},"geometry":{"type":"Point","coordinates":[118.7343709,32.0601141]}},{"type":"Feature","properties":{"osm_type":"node","osm_id":9164951625,"name":"草场门·南艺·二师","category":"transit","category_zh":"轨道交通","amenity":null,"railway":"station","leisure":null},"geometry":{"type":"Point","coordinates":[118.7504441,32.0625295]}},{"type":"Feature","properties":{"osm_type":"node","osm_id":9164951626,"name":"云南路","category":"transit","category_zh":"轨道交通","amenity":null,"railway":"station","leisure":null},"geometry":{"type":"Point","coordinates":[118.7693814,32.0612036]}},{"type":"Feature","properties":{"osm_type":"node","osm_id":9164951627,"name":"九华山","category":"transit","category_zh":"轨道交通","amenity":null,"railway":"station","leisure":null},"geometry":{"type":"Point","coordinates":[118.8007151,32.0594559]}},{"type":"Feature","properties":{"osm_type":"node","osm_id":9164951628,"name":"岗子村","category":"transit","category_zh":"轨道交通","amenity":null,"railway":"station","leisure":null},"geometry":{"type":"Point","coordinates":[118.8107755,32.0674276]}},{"type":"Feature","properties":{"osm_type":"node","osm_id":9164951629,"name":"蒋王庙","category":"transit","category_zh":"轨道交通","amenity":null,"railway":"station","leisure":null},"geometry":{"type":"Point","coordinates":[118.82605,32.0797006]}},{"type":"Feature","properties":{"osm_type":"node","osm_id":9164951630,"name":"王家湾","category":"transit","category_zh":"轨道交通","amenity":null,"railway":"station","leisure":null},"geometry":{"type":"Point","coordinates":[118.8331103,32.0875442]}},{"type":"Feature","properties":{"osm_type":"node","osm_id":10873736950,"name":"武定门#3","category":"transit","category_zh":"轨道交通","amenity":null,"railway":"subway_entrance","leisure":null},"geometry":{"type":"Point","coordinates":[118.7889331,32.0165115]}},{"type":"Feature","properties":{"osm_type":"node","osm_id":10873736951,"name":"武定门#2","category":"transit","category_zh":"轨道交通","amenity":null,"railway":"subway_entrance","leisure":null},"geometry":{"type":"Point","coordinates":[118.78883,32.0149689]}},{"type":"Feature","properties":{"osm_type":"node","osm_id":11511302598,"name":"应天大街","category":"transit","category_zh":"轨道交通","amenity":null,"railway":"station","leisure":null},"geometry":{"type":"Point","coordinates":[118.7440012,32.0185601]}},{"type":"Feature","properties":{"osm_type":"node","osm_id":11511311814,"name":"新城科技园","category":"transit","category_zh":"轨道交通","amenity":null,"railway":"station","leisure":null},"geometry":{"type":"Point","coordinates":[118.7328719,31.9957566]}},{"type":"Feature","properties":{"osm_type":"node","osm_id":11511333765,"name":"梦都大街东","category":"transit","category_zh":"轨道交通","amenity":null,"railway":"station","leisure":null},"geometry":{"type":"Point","coordinates":[118.741105,32.0059435]}},{"type":"Feature","properties":{"osm_type":"node","osm_id":12460759016,"name":"南湖","category":"transit","category_zh":"轨道交通","amenity":null,"railway":"station","leisure":null},"geometry":{"type":"Point","coordinates":[118.7490228,32.0257951]}},{"type":"Feature","properties":{"osm_type":"node","osm_id":12460759017,"name":"清凉山","category":"transit","category_zh":"轨道交通","amenity":null,"railway":"station","leisure":null},"geometry":{"type":"Point","coordinates":[118.7546967,32.0504398]}},{"type":"Feature","properties":{"osm_type":"node","osm_id":12461754367,"name":"大士茶亭","category":"transit","category_zh":"轨道交通","amenity":null,"railway":"station","leisure":null},"geometry":{"type":"Point","coordinates":[118.7520871,32.0337542]}},{"type":"Feature","properties":{"osm_type":"node","osm_id":12462545486,"name":"古平岗","category":"transit","category_zh":"轨道交通","amenity":null,"railway":"station","leisure":null},"geometry":{"type":"Point","coordinates":[118.7527322,32.07312]}},{"type":"Feature","properties":{"osm_type":"node","osm_id":12462545489,"name":"福建路","category":"transit","category_zh":"轨道交通","amenity":null,"railway":"station","leisure":null},"geometry":{"type":"Point","coordinates":[118.754266,32.0821298]}},{"type":"Feature","properties":{"osm_type":"node","osm_id":12645079074,"name":"应天大街3B","category":"transit","category_zh":"轨道交通","amenity":null,"railway":"subway_entrance","leisure":null},"geometry":{"type":"Point","coordinates":[118.7442194,32.0200244]}},{"type":"Feature","properties":{"osm_type":"node","osm_id":12645079075,"name":"大士茶亭2","category":"transit","category_zh":"轨道交通","amenity":null,"railway":"subway_entrance","leisure":null},"geometry":{"type":"Point","coordinates":[118.7525857,32.0344145]}},{"type":"Feature","properties":{"osm_type":"node","osm_id":13057948205,"name":"虹桥","category":"transit","category_zh":"轨道交通","amenity":null,"railway":"station","leisure":null},"geometry":{"type":"Point","coordinates":[118.7599634,32.0772134]}},{"type":"Feature","properties":{"osm_type":"node","osm_id":13057948208,"name":"青春广场","category":"transit","category_zh":"轨道交通","amenity":null,"railway":"station","leisure":null},"geometry":{"type":"Point","coordinates":[118.7676754,32.0706063]}},{"type":"Feature","properties":{"osm_type":"node","osm_id":13057948217,"name":"神机营","category":"transit","category_zh":"轨道交通","amenity":null,"railway":"station","leisure":null},"geometry":{"type":"Point","coordinates":[118.8196385,31.9917304]}},{"type":"Feature","properties":{"osm_type":"node","osm_id":13059454865,"name":"大校场","category":"transit","category_zh":"轨道交通","amenity":null,"railway":"station","leisure":null},"geometry":{"type":"Point","coordinates":[118.8176309,32.0005677]}},{"type":"Feature","properties":{"osm_type":"node","osm_id":13059454868,"name":"七桥瓮","category":"transit","category_zh":"轨道交通","amenity":null,"railway":"station","leisure":null},"geometry":{"type":"Point","coordinates":[118.8202145,32.0109156]}},{"type":"Feature","properties":{"osm_type":"node","osm_id":13059454876,"name":"盐仓桥","category":"transit","category_zh":"轨道交通","amenity":null,"railway":"station","leisure":null},"geometry":{"type":"Point","coordinates":[118.7475702,32.0876321]}},{"type":"Feature","properties":{"osm_type":"node","osm_id":13059454879,"name":"下关","category":"transit","category_zh":"轨道交通","amenity":null,"railway":"station","leisure":null},"geometry":{"type":"Point","coordinates":[118.7364914,32.0888899]}},{"type":"Feature","properties":{"osm_type":"node","osm_id":13059514805,"name":"光华门","category":"transit","category_zh":"轨道交通","amenity":null,"railway":"station","leisure":null},"geometry":{"type":"Point","coordinates":[118.8096828,32.0256074]}},{"type":"Feature","properties":{"osm_type":"node","osm_id":13059514808,"name":"石门坎","category":"transit","category_zh":"轨道交通","amenity":null,"railway":"station","leisure":null},"geometry":{"type":"Point","coordinates":[118.8196412,32.0195816]}},{"type":"Feature","properties":{"osm_type":"node","osm_id":13059514811,"name":"通济门","category":"transit","category_zh":"轨道交通","amenity":null,"railway":"station","leisure":null},"geometry":{"type":"Point","coordinates":[118.7993248,32.0277296]}},{"type":"Feature","properties":{"osm_type":"node","osm_id":13059514818,"name":"朝天宫","category":"transit","category_zh":"轨道交通","amenity":null,"railway":"station","leisure":null},"geometry":{"type":"Point","coordinates":[118.7674333,32.0347115]}},{"type":"Feature","properties":{"osm_type":"node","osm_id":13059514821,"name":"五台山","category":"transit","category_zh":"轨道交通","amenity":null,"railway":"station","leisure":null},"geometry":{"type":"Point","coordinates":[118.7713051,32.0522202]}},{"type":"Feature","properties":{"osm_type":"node","osm_id":13251371322,"name":"三山街#5","category":"transit","category_zh":"轨道交通","amenity":null,"railway":"subway_entrance","leisure":null},"geometry":{"type":"Point","coordinates":[118.7781031,32.0252853]}},{"type":"Feature","properties":{"osm_type":"node","osm_id":13387721994,"name":"高桥门","category":"transit","category_zh":"轨道交通","amenity":null,"railway":"station","leisure":null},"geometry":{"type":"Point","coordinates":[118.8370982,32.0074563]}},{"type":"Feature","properties":{"osm_type":"node","osm_id":13387721995,"name":"承天大道","category":"transit","category_zh":"轨道交通","amenity":null,"railway":"station","leisure":null},"geometry":{"type":"Point","coordinates":[118.8237744,32.0032943]}},{"type":"Feature","properties":{"osm_type":"node","osm_id":13387721996,"name":"大校场","category":"transit","category_zh":"轨道交通","amenity":null,"railway":"station","leisure":null},"geometry":{"type":"Point","coordinates":[118.8183395,32.0001073]}},{"type":"Feature","properties":{"osm_type":"node","osm_id":13387721997,"name":"机场跑道旧址","category":"transit","category_zh":"轨道交通","amenity":null,"railway":"station","leisure":null},"geometry":{"type":"Point","coordinates":[118.808622,31.9942904]}},{"type":"Feature","properties":{"osm_type":"node","osm_id":13387721998,"name":"卡子门","category":"transit","category_zh":"轨道交通","amenity":null,"railway":"station","leisure":null},"geometry":{"type":"Point","coordinates":[118.791226,31.9968675]}},{"type":"Feature","properties":{"osm_type":"node","osm_id":13387721999,"name":"雨花台","category":"transit","category_zh":"轨道交通","amenity":null,"railway":"station","leisure":null},"geometry":{"type":"Point","coordinates":[118.7759259,31.9947822]}},{"type":"Feature","properties":{"osm_type":"node","osm_id":13387722000,"name":"共青团路","category":"transit","category_zh":"轨道交通","amenity":null,"railway":"station","leisure":null},"geometry":{"type":"Point","coordinates":[118.7689084,31.9955899]}},{"type":"Feature","properties":{"osm_type":"node","osm_id":13387744853,"name":"石杨路","category":"transit","category_zh":"轨道交通","amenity":null,"railway":"station","leisure":null},"geometry":{"type":"Point","coordinates":[118.8691568,32.0074608]}},{"type":"Feature","properties":{"osm_type":"node","osm_id":13387744882,"name":"杨庄","category":"transit","category_zh":"轨道交通","amenity":null,"railway":"station","leisure":null},"geometry":{"type":"Point","coordinates":[118.8576705,32.0088326]}},{"type":"Feature","properties":{"osm_type":"node","osm_id":13505925683,"name":"白马公园","category":"transit","category_zh":"轨道交通","amenity":null,"railway":"station","leisure":null},"geometry":{"type":"Point","coordinates":[118.8108538,32.0607777]}},{"type":"Feature","properties":{"osm_type":"node","osm_id":13654011194,"name":"未命名节点","category":"transit","category_zh":"轨道交通","amenity":null,"railway":"subway_entrance","leisure":null},"geometry":{"type":"Point","coordinates":[118.7791739,32.0817144]}},{"type":"Feature","properties":{"osm_type":"node","osm_id":13890955972,"name":"新街口#7","category":"transit","category_zh":"轨道交通","amenity":null,"railway":"subway_entrance","leisure":null},"geometry":{"type":"Point","coordinates":[118.7793871,32.0442205]}},{"type":"Feature","properties":{"osm_type":"node","osm_id":13893217286,"name":"新街口#12","category":"transit","category_zh":"轨道交通","amenity":null,"railway":"subway_entrance","leisure":null},"geometry":{"type":"Point","coordinates":[118.7791851,32.0424603]}}]}